name,name_en,service_type,lat,lng,country_code
Under Renovation (used to be Bookworm),Under Renovation (used to be Bookworm),books,39.9311036,116.4497585,CN
Iqiyi,Iqiyi,cafe,39.9314345,116.4493255,CN
马沙拉之香印度餐厅,MaShaLaZhiXiangYinDuCanTing,restaurant,39.9357763,116.3971202,CN
L'Isola Italian Restaurant,L'Isola Italian Restaurant,restaurant,39.9315469,116.4520067,CN
富桥,Footmassage,massage,39.9754628,116.33751,CN
孔乙己酒家,Kongyiji Restaurant,restaurant,39.9414667,116.3750306,CN
迷你站奶茶专门店,Mini Station Milktea,cafe,39.9911674,116.3289966,CN
三夫户外用品商店马甸东店,SanFuHuWaiYongPinShangDianMaDianDongDian,outdoor,39.9662275,116.3712568,CN
三夫户外用品商店马甸中店,SanFuHuWaiYongPinShangDianMaDianZhongDian,outdoor,39.9662243,116.3710349,CN
三夫户外用品商店马甸西店,Sanfo Outdoor Equipment,outdoor,39.9662728,116.3708297,CN
哈哈镜超市,Hahajing Convenient Store,convenience,39.9393061,116.4240147,CN
孔亮火锅,Kongliang Hotpot Restaurant,restaurant,39.9394094,116.4146661,CN
沸腾渔乡,FeiTengYuXiang,restaurant,39.975425,116.3398087,CN
一品三笑,Yippin,restaurant,39.99114,116.3278572,CN
比格披萨,Bigpizza,restaurant,39.9911517,116.3280633,CN
永琪美发沙龙,YongQiMeiFaShaLong,hairdresser,39.9910511,116.326299,CN
品奇,PinQi,restaurant,39.9911263,116.3274731,CN
April Gourmet,April Gourmet,supermarket,39.9350114,116.4392927,CN
物美,Wumart,supermarket,39.9326703,116.4322986,CN
VICo,VICo,car,39.943153,116.4490686,CN
中国石化,Sinopec,fuel,39.9992962,116.3096253,CN
羊蝎子,YangXieZi,restaurant,39.9963638,116.3105841,CN
星巴克,Starbucks,cafe,39.9328092,116.4489094,CN
麻辣诱惑,MaLaYouHuo,restaurant,39.9330396,116.4481455,CN
南城香,NanChengXiang,restaurant,39.9666597,116.319204,CN
金掌勺,JinZhangShao,restaurant,39.9668489,116.3192255,CN
京客隆,Jingkelong,supermarket,39.9328021,116.4447163,CN
必胜客,Pizza Hut,restaurant,39.9401076,116.4390337,CN
Ganges,Ganges,restaurant,39.9329847,116.4474304,CN
大董烤鸭团结湖分店,DaDongKaoYaTuanJieHuFenDian,restaurant,39.9313007,116.4562015,CN
JingZun,JingZun Beijing Duck Restaurant,restaurant,39.9356197,116.4378981,CN
包子铺,BaoZiPu,restaurant,39.9385889,116.4381052,CN
The Olive,The Olive,restaurant,39.9326581,116.4402263,CN
The Tree,The Tree,restaurant,39.9352031,116.4475395,CN
Luga's Pho Pho,Luga's Pho Pho,restaurant,39.9347066,116.4478008,CN
Duck de Chine,Duck de Chine,restaurant,39.9304296,116.4524081,CN
Eudora Station,Eudora Station,restaurant,39.9747378,116.4737302,CN
Jenny Lou's,Jenny Lou's,supermarket,39.941961,116.4464761,CN
北京华联,BHG,supermarket,39.9226929,116.3484576,CN
BOKB,BOKB,restaurant,39.9616763,116.4493018,CN
Ajisen,Ajisen,restaurant,39.9855671,116.4741701,CN
正一味,Zhengyiwei,restaurant,39.9855771,116.4743967,CN
三里屯3·3,3.3 Shopping Center,supermarket,39.9354572,116.4485765,CN
Very Siam,Very Siam,restaurant,39.9857991,116.4736243,CN
麦德龙(METRO),MetroSuper,supermarket,39.9668005,116.4560448,CN
Friendship Market,Friendship Market,supermarket,39.9420589,116.4489898,CN
Schindlers Anlegestelle,Schindlers Anlegestelle,restaurant,39.943659,116.446471,CN
Horse Creek,Horse Creek,restaurant,39.9442508,116.4466023,CN
九朝会,9th Dynasty,restaurant,39.9812944,116.4495447,CN
金鼎轩,JinDingXuan,restaurant,39.9495334,116.4096018,CN
超市发（学院路店）,ChaoShiFa（XueYuanLuDian）,supermarket,39.992253,116.3462174,CN
澜园教工餐厅,LanYuanJiaoGongCanTing,restaurant,39.9972798,116.3191379,CN
李先生,Mr. Lee,restaurant,39.9976397,116.3191309,CN
美廉美,Meilianmei,supermarket,39.9498561,116.3789307,CN
超市发双榆树店,CSF Supermarket,supermarket,39.9664269,116.3187844,CN
宝鼎中心,Baoding Center,department_store,39.8984284,116.4070971,CN
7-Eleven,7-Eleven,convenience,39.8913539,116.4224182,CN
Luka Suyouji Supermart,Luka Suyouji Supermart,supermarket,39.891008,116.424694,CN
Yujie Wanwu Supermarket,Yujie Wanwu Supermarket,supermarket,39.8898617,116.4232762,CN
Yishu Zaoxing,Yishu Zaoxing,clothes,39.890985,116.422906,CN
老陕人家手揪面,Laoshan Home Shoujiumian,restaurant,39.8916809,116.4222442,CN
Shitong Tianxiang Zhudu Baoji,Shitong Tianxiang Zhudu Baoji,restaurant,39.8915499,116.4223302,CN
Chengfu Tiantian Supermart,Chengfu Tiantian Supermart,supermarket,39.890989,116.424028,CN
新华书店,Xinhua Bookstore,books,39.895591,116.413439,CN
Lejia Vegetable Market,Lejia Vegetable Market,market,39.895153,116.424694,CN
Pinwei Wenxiang Tea House,Pinwei Wenxiang Tea House,cafe,39.895716,116.424635,CN
雕刻时光,Sculpting In Time,cafe,39.9785551,116.342179,CN
小张烤串,Xiao Zhang Kao Chuanr,restaurant,39.9329415,116.4421097,CN
北京沙子口办公用品批发市场,BeiJingShaZiKouBanGongYongPinPiFaShiChang,wholesale,39.8632149,116.3925661,CN
City Shop,City Shop,supermarket,39.9506692,116.4581033,CN
Dragonfly Retreat,Dragonfly Retreat,massage,39.9507208,116.4579879,CN
Solana,Solana,supermarket,39.9475134,116.4677796,CN
东鼎服装批发市场,DongDingFuZhuangPiFaShiChang,clothes,39.9365217,116.3354836,CN
金开利德国际服装批发市场,JinKaiLiDeGuoJiFuZhuangPiFaShiChang,clothes,39.9362742,116.3335768,CN
华润万家,Vanguard,supermarket,39.9839974,116.4840365,CN
Novo商城,NovoShangCheng,supermarket,39.9927587,116.4508242,CN
中国石油,PetroChina,fuel,39.9861929,116.3785226,CN
超市发,bjcsf,convenience,39.9570839,116.3396051,CN
老上海城隍庙小吃,LaoShangHaiChengHuangMiaoXiaoChi,restaurant,39.9848938,116.3411373,CN
Boat cafe,Boat cafe,cafe,39.9130696,116.435861,CN
叫板比萨,Gung Ho Pizza,restaurant,39.9309739,116.4447069,CN
福铃汽车园,FuLingQiCheYuan,car,39.8091408,116.3076018,CN
UBC Coffee,UBC Coffee,cafe,39.84283,116.358538,CN
Costa咖啡,Costa,cafe,39.853355,116.360848,CN
H&M,H&M,clothes,39.853499,116.3608316,CN
小肥羊,LITTLE SHEEP,restaurant,39.843648,116.358529,CN
Yonghui Supermarket 永辉连锁超市,Yonghui Supermarket YongHuiLianSuoChaoShi,supermarket,39.844228,116.35733,CN
Liaoning Jiaozi 东北饺子馆,Liaoning Jiaozi DongBeiJiaoZiGuan,restaurant,39.844695,116.35961,CN
hotelll,Made in Beijing,restaurant,39.9753469,116.4767666,CN
Maan Coffee,Maan Coffee,cafe,39.9968199,116.3334503,CN
阿彪理发,ABiaoLiFa,hairdresser,39.9458024,116.3966397,CN
华润万家,HuaRunWanJia,convenience,39.9911629,116.3295163,CN
Nanmen Snacks,Nanmen Snacks,restaurant,39.9560625,116.3523373,CN
北京外文书店,Beijing Foreign Languages Bookstore,books,39.9135306,116.4046255,CN
Luckin Coffee,Luckin Coffee,cafe,39.9823142,116.3109852,CN
物美超市新街口店,WuMeiChaoShiXinJieKouDian,supermarket,39.9457858,116.3651655,CN
新华百货,Xinhua Department Store,clothes,39.9463369,116.3651225,CN
新光天地,XinGuangTianDi,supermarket,39.9086248,116.4728726,CN
广渠门家乐福,GuangQuMenJiaLeFu,supermarket,39.8926274,116.4263999,CN
清真食堂,QingZhenShiTang,restaurant,39.949101,116.3322357,CN
船长日记,ChuanZhangRiJi,cafe,39.9490513,116.3320067,CN
学生第三食堂,XueShengDiSanShiTang,restaurant,39.949249,116.3318877,CN
校园创意礼品店,XiaoYuanChuangYiLiPinDian,gift,39.9491524,116.3321525,CN
学生第四食堂,XueShengDiSiShiTang,restaurant,39.9483301,116.3382077,CN
学生第二食堂,XueShengDiErShiTang,restaurant,39.9493016,116.3317553,CN
学苑餐厅,XueYuanCanTing,restaurant,39.9531992,116.3416624,CN
Convenient Store,Convenient Store,convenience,39.91451,116.4526679,CN
J-Mart,J-Mart,convenience,39.9146437,116.4523862,CN
嘉和一品粥店,JiaHeYiPinZhouDian,restaurant,39.8768235,116.352543,CN
美廉美,MeiLianMei,supermarket,39.876135,116.3464591,CN
渝都家厨,YuDouJiaChu,restaurant,39.8799488,116.3527465,CN
烤鱼,KaoYu,restaurant,39.8768168,116.3523058,CN
锦州烧烤,JinZhouShaoKao,restaurant,39.8768203,116.3524109,CN
辣厨娘,LaChuNiang,restaurant,39.9026704,116.3576812,CN
洞庭楚乡,DongTingChuXiang,restaurant,39.9029256,116.3576598,CN
老北京,LaoBeiJing,restaurant,39.9067101,116.3528328,CN
草菁菁火锅,CaoJingJingHuoGuo,restaurant,39.9068054,116.3528314,CN
百盛地下超市,BaiShengDiXiaChaoShi,supermarket,39.9075012,116.3517624,CN
联勤加油站,LianQinJiaYouZhan,fuel,39.8563143,116.3035597,CN
北京四慎书苑,BeiJingSiShenShuYuan,books,39.8973114,116.345237,CN
Peet's Coffee,Peet's Coffee,cafe,39.9830057,116.3079372,CN
牛街洪记小吃店,NiuJieHongJiXiaoChiDian,restaurant,39.8855558,116.3577213,CN
新世界超市,XinShiJieChaoShi,supermarket,39.9855891,116.4738715,CN
牛街清真超市,NiuJieQingZhenChaoShi,supermarket,39.8856789,116.3571013,CN
老诚伊,LaoChengYi,restaurant,39.8837172,116.3571096,CN
护国寺网吧,HuGuoSiWangBa,cafe,39.9337815,116.3699745,CN
亮视点,LiangShiDian,optician,39.9915097,116.318183,CN
博士园养发,BoShiYuanYangFa,hairdresser,39.9915211,116.31855,CN
外贸淘宝屋,WaiMaoTaoBaoWu,clothes,39.9915188,116.3184766,CN
尤萨洗衣,YouSaXiYi,laundry,39.9915165,116.3184032,CN
桔色成人,JuSeChengRen,erotic,39.9915257,116.3186968,CN
正信蓝旗办公用品商店,ZhengXinLanQiBanGongYongPinShangDian,stationery,39.9915518,116.3195233,CN
英木子外贸店,YingMuZiWaiMaoDian,clothes,39.9915465,116.3193589,CN
阳光丽影,YangGuangLiYing,copyshop,39.991557,116.3196877,CN
雪侬舍咖啡,XueNongSheKaFei,cafe,39.991528,116.3187702,CN
靓丽工坊护肤造型,JingLiGongFangHuFuZaoXing,beauty,39.9915234,116.3186234,CN
骏朗眼镜,JunLangYanJing,optician,39.9915142,116.3183298,CN
13CLUB,13CLUB,cafe,39.9906453,116.318198,CN
朝阳餐馆,Chaoyang Restaurant,restaurant,39.8804624,116.4412182,CN
Once & Always Restaurant,Once & Always Restaurant,restaurant,39.9935067,116.4067405,CN
小北鲸饺子,XiaoBeiJingJiaoZi,restaurant,39.9667658,116.3196567,CN
快客,KuaiKe,convenience,39.9862094,116.3104148,CN
Schindlers Tankstelle,Schindlers Tankstelle,restaurant,39.9121359,116.4393098,CN
禾地,HeDi,restaurant,39.9903045,116.3368324,CN
北京公共交通控股(集团)有限公司 保修分公司四厂,BeiJingGongGongJiaoTongKongGu(JiTuan)YouXianGongSi BaoXiuFenGongSiSiChang,car_repair,39.9294235,116.3062739,CN
HongYunLou Restaurant,HongYunLou Restaurant,restaurant,39.861605,116.3803784,CN
面包新语,BreadTalk,bakery,39.9612122,116.4505835,CN
御马墩,YuMaDun,restaurant,39.9598048,116.3641192,CN
12橡树咖啡,12XiangShuKaFei,cafe,39.9603023,116.3640468,CN
泊星地咖啡馆,PoXingDiKaFeiGuan,cafe,39.986699,116.3018627,CN
东四民芳,DongSiMinFang,restaurant,39.9242305,116.4198294,CN
Kwik 快客,Kwik KuaiKe,convenience,39.9232788,116.4197076,CN
Xiaojie Chestnuts 小街栗子,Xiaojie Chestnuts XiaoJieLiZi,greengrocer,39.9234557,116.4198739,CN
吐鲁番餐厅,TuLuFanCanTing,restaurant,39.8863794,116.357755,CN
Muse,Muse,restaurant,39.9347476,116.4481071,CN
馄饨候,Hundun Hou,restaurant,39.891873,116.4249949,CN
无名居,WuMingJu,restaurant,39.9449892,116.3359984,CN
面爱面,MianAiMian,restaurant,39.8980945,116.3892702,CN
The Reds,The Reds,restaurant,39.8959661,116.3885568,CN
便利店,BianLiDian,convenience,39.940432,116.4256816,CN
社区菜市场,SheQuCaiShiChang,convenience,39.996191,116.3775035,CN
味多美,Wedome,bakery,39.9808047,116.300094,CN
Najia Xiaoguan,Najia Xiaoguan,restaurant,39.9074503,116.447588,CN
叙香斋,Xuxiang Home,restaurant,39.9453034,116.4148132,CN
Trojan Fairy Restaurant,Trojan Fairy Restaurant,restaurant,39.9092048,116.3672678,CN
Apple Store,Apple Store,electronics,39.9138139,116.4055044,CN
山釜餐厅 Shanfu Restaurant,ShanFuCanTing Shanfu Restaurant,restaurant,39.9467905,116.368432,CN
张思佳食品店,ZhangSiJiaShiPinDian,convenience,39.950139,116.3760148,CN
中国黄金(旗舰店),ZhongGuoHuangJin(QiJianDian),jewelry,39.9577664,116.3999273,CN
Home Plate,Home Plate,restaurant,39.9555542,116.4541751,CN
迪兴天天超市,DiXingTianTianChaoShi,supermarket,39.8637723,116.4088643,CN
Great Leap Brewing,Great Leap Brewing,restaurant,39.9351842,116.4357582,CN
越秀饭店,YueXiuFanDian,restaurant,39.8974725,116.3689341,CN
公园16号会所,GongYuan16HaoHuiSuo,restaurant,39.947872,116.4723355,CN
索尼探梦咖啡厅,SuoNiTanMengKaFeiTing,cafe,39.9358584,116.4754863,CN
三夫户外,SanFuHuWai,clothes,39.9330613,116.4756605,CN
卡乌秀西单巴西烤肉,KaWuXiuXiDanBaXiKaoRou,restaurant,39.9419143,116.4736499,CN
郡王府半岛明珠酒家,JunWangFuBanDaoMingZhuJiuJia,restaurant,39.9345986,116.480416,CN
香满楼烤鸭店,XiangManLouKaoYaDian,restaurant,39.9343533,116.4679659,CN
DIA,DIA,supermarket,39.9347549,116.4105597,CN
八味坊日本烧肉,BaWeiFangRiBenShaoRou,restaurant,39.9369911,116.4693285,CN
小镇皮萨,XiaoZhenPiSa,restaurant,39.9361246,116.4764061,CN
快餐厅,KuaiCanTing,restaurant,39.9375651,116.4760129,CN
其香居,QiXiangJu,restaurant,39.9361192,116.4704068,CN
8号鲍鱼海鲜火锅,8HaoBaoYuHaiXianHuoGuo,restaurant,39.9361068,116.4698274,CN
8号公馆粤菜酒家,8HaoGongGuanYueCaiJiuJia,restaurant,39.9368637,116.4690603,CN
孔乙己酒店,KongYiJiJiuDian,restaurant,39.9361685,116.4695324,CN
花舍咖啡,HuaSheKaFei,cafe,39.936477,116.4696826,CN
每克拉美钻石商场,MeiKeLaMeiZuanShiShangChang,jewelry,39.9471727,116.4678548,CN
满记甜品,ManJiTianPin,restaurant,39.9474422,116.4687454,CN
Annie's,Annie's,restaurant,39.905029,116.4593781,CN
Red Wine White Smoke,Red Wine White Smoke,alcohol,39.9050269,116.4592337,CN
Bleu Marine,Bleu Marine,restaurant,39.9092986,116.4445977,CN
学子超市,XueZiChaoShi,convenience,39.9578027,116.3570995,CN
Cheers,Cheers,alcohol,39.9110798,116.4446618,CN
中国世界商场,China World Mall,mall,39.9114589,116.4522446,CN
Fulong Restaurant,Fulong Restaurant,restaurant,39.9117611,116.4530563,CN
Golden Spoon,Golden Spoon,restaurant,39.9145773,116.4471727,CN
Hannashan Korean BBQ,Hannashan Korean BBQ,restaurant,39.9148304,116.4449802,CN
Esquires Coffee,Esquires Coffee,cafe,39.9137453,116.4471272,CN
New Fei Teng Yu Xiang Restaurant,New Fei Teng Yu Xiang Restaurant,restaurant,39.9155041,116.4449209,CN
Ole,Ole,supermarket,39.9146383,116.4456201,CN
巴黎贝甜,Paris Baguette,bakery,39.9155962,116.4455068,CN
Pudao Wines,Pudao Wines,alcohol,39.914194,116.4488088,CN
三星,Samsung,electronics,39.9154666,116.447058,CN
iSpace,iSpace,electronics,39.9154693,116.4463399,CN
Smart,Smart,car,39.9138326,116.4478838,CN
McCafé,McCafé,cafe,39.9075689,116.4449003,CN
YanBao Auto,YanBao Auto,car,39.9076614,116.4446737,CN
八斗鸡,Ba Dou Ji Dining,restaurant,39.9063336,116.4604153,CN
俪缘花店(东后河沿店),LiYuanHuaDian(DongHouHeYanDian),florist,39.9267444,116.4032821,CN
Cafe Flatwhite,Cafe Flatwhite,restaurant,39.9438891,116.4436995,CN
Cafe de la Poste,Cafe de la Poste,restaurant,39.9415242,116.4106442,CN
沃尔玛山姆会员商店,WoErMaShanMuHuiYuanShangDian,supermarket,39.8094033,116.4997772,CN
适佰家亦庄店,ShiBaiJiaYiZhuangDian,supermarket,39.8001057,116.484228,CN
海棠餐厅,HaiTangCanTing,restaurant,39.8032421,116.4883911,CN
超市发便利店,ChaoShiFaBianLiDian,convenience,39.931952,116.3778226,CN
贵和永昌,GuiHeYongChang,restaurant,39.9920919,116.3710717,CN
亦海人家,YiHaiRenJia,restaurant,39.8009208,116.4994279,CN
东北乡村人家,Dongbei Xiangcun Renjia,restaurant,39.9351337,116.432991,CN
京客隆建欣苑便利店,JingKeLongJianXinYuanBianLiDian,supermarket,39.8409075,116.3904785,CN
一菜一格,YiCaiYiGe,restaurant,39.8412784,116.3808274,CN
味多美,WeiDuoMei,cheese,39.8427195,116.3808787,CN
四季粥城,SiJiZhouCheng,restaurant,39.8442395,116.3862595,CN
丰华加油站,FengHuaJiaYouZhan,fuel,39.8414085,116.3815607,CN
J-Ballet Studio Shop,J-Ballet Studio Shop,clothes,39.9347089,116.4457034,CN
立方小馆,Yan Lan Lou Restaurant,restaurant,39.9328,116.4246297,CN
天虹百货,TianHongBaiHuo,mall,39.9993472,116.3876918,CN
西贝西北菜,XiBeiXiBeiCai,restaurant,39.8081482,116.4664014,CN
澎湖咖啡,PengHuKaFei,cafe,39.8038368,116.4827206,CN
派悦坊,Pantry's best,cafe,39.9170581,116.4373043,CN
花家怡园,Hua's Restaurant,restaurant,39.9063458,116.4650148,CN
面香八方,MianXiangBaFang,restaurant,39.9948589,116.3284581,CN
田老师红烧肉,TianLaoShiHongShaoRou,restaurant,39.9434576,116.4659127,CN
家乐福,Carrefour,supermarket,39.8648559,116.4252108,CN
好利来,Holiland,bakery,39.9226134,116.4108847,CN
桂林米粉,GuiLinMiFen,restaurant,39.922491,116.4110255,CN
绿茶餐厅,Green Tea,restaurant,39.9203402,116.4333308,CN
全鑫园烤鸭店,QuanXinYuanKaoYaDian,restaurant,39.8768922,116.4553356,CN
北京古玩城 A座,BeiJingGuWanCheng AZuo,yes,39.8706699,116.4537817,CN
国美电器,GuoMeiDianQi,electronics,39.8004063,116.474413,CN
宝岛眼镜,BaoDaoYanJing,optician,39.8000276,116.4746455,CN
麦咖港式茶餐厅,MaiKaGangShiChaCanTing,restaurant,39.8007335,116.4745986,CN
首尔屋,ShouErWu,restaurant,39.8042667,116.4834881,CN
宏状元,HongZhuangYuan,restaurant,39.9353429,116.4306163,CN
Chicken Suutak's,Chicken Suutak's,restaurant,39.9984489,116.4672457,CN
巫山烤全鱼,Jing Pin Jia Chang,restaurant,39.9326498,116.4345152,CN
韩式炭烧专门店,HanShiTanShaoZhuanMenDian,restaurant,39.8720012,116.4519627,CN
莎菈意式餐厅,ShaLaYiShiCanTing,restaurant,39.9096457,116.3668442,CN
原麦山丘,With Wheat,bakery,39.9078269,116.3674021,CN
金凤呈祥,JinFengChengXiang,restaurant,39.9964932,116.3748762,CN
果多美,GuoDuoMei,fruit,39.8553249,116.4115852,CN
金凤成祥,JinFengChengXiang,bakery,39.8553249,116.411861,CN
苏宁易购,Suning,electronics,39.8562925,116.4129433,CN
老北京包子铺,LaoBeiJingBaoZiPu,restaurant,39.8564452,116.4212608,CN
山城辣妹子,ShanChengLaMeiZi,restaurant,39.8546168,116.4323115,CN
兰州牛肉拉面,LanZhouNiuRouLaMian,restaurant,39.8335811,116.4403221,CN
佰和居,BaiHeJu,restaurant,39.9354995,116.4320298,CN
全面俱到,QuanMianJuDao,restaurant,39.9352637,116.4300357,CN
天下居东北农家菜,TianXiaJuDongBeiNongJiaCai,restaurant,39.9382003,116.433252,CN
眉州东坡酒楼,Meizhou Dongpo Restaurant,restaurant,39.9376032,116.4382125,CN
乐购,LeGou,supermarket,39.8988131,116.4860464,CN
兰州拉面,LanZhouLaMian,restaurant,39.8001207,116.4729738,CN
同心阁新疆美食,TongXinGeXinJiangMeiShi,restaurant,39.9326559,116.4358912,CN
审美,ShenMei,hairdresser,39.8000156,116.4927609,CN
永和豆浆,Yonghe Soy Milk,restaurant,39.800063,116.4928666,CN
巫山烤全鱼,WuShanKaoQuanYu,restaurant,39.9356789,116.4310655,CN
麻记尚品羊汤,MaJiShangPinYangTang,restaurant,39.9373324,116.4327915,CN
驴肉火烧,LvRouHuoShao,restaurant,39.9039128,116.4251465,CN
成都美味,ChengDouMeiWei,restaurant,39.9039218,116.4255808,CN
渔公渔婆,YuGongYuPo,restaurant,39.8069558,116.4656971,CN
报刊亭,BaoKanTing,kiosk,39.8671924,116.4542198,CN
福湘楼,FuXiangLou,restaurant,39.8669618,116.4537692,CN
Mr. Pizza,Mr. Pizza,restaurant,39.8004977,116.4952839,CN
千禧大酒楼,QianXiDaJiuLou,restaurant,39.9390439,116.4311957,CN
香草香草云南原生态火锅,XiangCaoXiangCaoYunNanYuanShengTaiHuoGuo,restaurant,39.9390521,116.4313459,CN
友文新新湘菜馆,YouWenXinXinXiangCaiGuan,restaurant,39.9352064,116.4355795,CN
妈妈宴,MaMaYan,restaurant,39.8425496,116.4411736,CN
天雅五金机电城,TianYaWuJinJiDianCheng,yes,39.836783,116.441946,CN
太熟悉家常菜,TaiShuXiJiaChangCai,restaurant,39.8656954,116.3587722,CN
成都小吃,ChengDouXiaoChi,restaurant,39.8573182,116.4161754,CN
巴依老爷,BARON ROZI RESTAURANT,restaurant,39.9686354,116.418913,CN
中国石化,ZhongGuoShiHua,fuel,39.8110893,116.4624407,CN
老北京铜锅涮肉,LaoBeiJingTongGuoShuanRou,restaurant,39.8002114,116.4919209,CN
老回回小吃,LaoHuiHuiXiaoChi,restaurant,39.9791686,116.3668247,CN
华欣超市,HuaXinChaoShi,supermarket,39.9787676,116.4128468,CN
天和晟,TianHeCheng,restaurant,39.9782941,116.4154813,CN
爱琴海,AiQinHai,supermarket,39.9696953,116.4303284,CN
幸福超市,XingFuChaoShi,supermarket,39.9969559,116.3459125,CN
Paradiso Coffee,Paradiso Coffee,cafe,39.9981646,116.3259084,CN
好德,All-Days,convenience,31.2643385,121.4906432,CN
Zapata's,Zapata's,restaurant,31.2102276,121.4449697,CN
The Journeys Cafe,Da Marco,cafe,31.2438021,121.5824299,CN
SiSU,SiSU,bicycle,31.2067953,121.5503809,CN
南翔馒头,Nanxiang Steamed Bun,restaurant,31.3269968,121.5279878,CN
沃尔玛购物广场,Wal-Mart Superstore,supermarket,31.3041669,121.5093648,CN
立丰,LiFeng,convenience,31.3213679,121.5273062,CN
天惠天,TianHuiTian,restaurant,31.2381544,121.4763448,CN
上海书城,Shanghai Book City,books,31.2352897,121.476964,CN
滴水洞,Di Shui Dong,restaurant,31.2230891,121.4555291,CN
萄醉,Just Grapes,alcohol,31.2257889,121.4596486,CN
联华,Lianhua,supermarket,31.2349756,121.4509634,CN
国美电器,GOME Electrical Appliances,electronics,31.3037615,121.5155758,CN
农工商,NongGongShang,supermarket,31.2198613,121.4280116,CN
上海久光百货,Hisamitsu,department_store,31.2258172,121.441134,CN
KEDI,KEDI,supermarket,31.2130855,121.4321159,CN
自由客美食,ZiYouKeMeiShi,supermarket,31.2026188,121.5800449,CN
丽华快餐,LiHuaKuaiCan,restaurant,31.2025393,121.5800509,CN
All Days,All Days,convenience,31.26197,121.4958073,CN
第五街咖啡馆,5th Avenue Cafe,cafe,31.2855685,121.4958143,CN
永辉超市,Yonghui Superstores,supermarket,31.2604506,121.4911499,CN
国际饭店,Park Hotel,restaurant,31.2354192,121.4671723,CN
全家,FamilyMart,convenience,31.2241236,121.5111702,CN
罗森,Lawson,convenience,31.240358,121.4992136,CN
Kun Thai,Kun Thai,restaurant,31.1930061,121.3812901,CN
Papas bierstube,Papas bierstube,restaurant,31.1932259,121.3830262,CN
Kashmere,Kashmere,clothes,31.1724126,121.4257307,CN
上海书城,ShangHaiShuCheng,books,31.2392022,121.4002722,CN
大润发,DaRunFa,supermarket,31.2538866,121.3573676,CN
Paulaner,Paulaner,restaurant,31.2226536,121.4700351,CN
大鱼,Tairyo,restaurant,31.1965939,121.3831099,CN
Trust Mart,Trust Mart,mall,31.17293,121.4124329,CN
Abendbrot,Abendbrot,bakery,31.1610382,121.3003394,CN
Bubba's Texas Bar-B-Q,Bubba's Texas Bar-B-Q,restaurant,31.1943466,121.3727031,CN
好德,alldays,convenience,31.2121028,121.443314,CN
火锅餐厅,Hot Pot King,restaurant,31.2123506,121.4432497,CN
85度C,85°C Bakery Cafe,cafe,31.2348345,121.4666775,CN
Passo,Passo,cafe,31.2410175,121.5087659,CN
大润发康桥店,DaRunFaKangQiaoDian,supermarket,31.1365696,121.5752607,CN
世纪联华,ShiJiLianHua,convenience,31.2116545,121.5471225,CN
好又多,HaoYouDuo,supermarket,31.2292428,121.4049878,CN
卜蜂莲花,Lotus,supermarket,31.2715578,121.4941082,CN
hoF,hoF,cafe,31.2210188,121.46145,CN
Citta Cafe,Citta Cafe,cafe,31.2198902,121.4579524,CN
Wagas,Wagas,cafe,31.1962667,121.4323992,CN
老麦咖啡馆,LaoMaiKaFeiGuan,cafe,31.2111265,121.4457597,CN
Lavazza,Lavazza,cafe,31.2195956,121.4704252,CN
浦江一号,PuJiangYiHao,restaurant,31.2302301,121.5006604,CN
Gloria Jean's,Gloria Jeans,cafe,31.2275747,121.4736036,CN
Hooters,"Hooters Pudong, Shanghai",restaurant,31.2379261,121.4939193,CN
Fomo,Fomo,restaurant,31.2263689,121.4723478,CN
Pankoo,Pankoo,restaurant,31.2266441,121.4724714,CN
世纪联华超市,Century Mart,supermarket,31.2125457,121.4818317,CN
Lei Restaurant,Lei Restaurant,restaurant,31.2203286,121.4598096,CN
大润发,RT-Mart,supermarket,31.2686001,121.4619906,CN
Michelin,Michelin,tyres,31.3102358,121.4998168,CN
康师傅牛肉拉面,KangShiFuNiuRouLaMian,restaurant,31.1360493,121.5748122,CN
永和豆浆,YongHeDouJiang,restaurant,31.1368161,121.5755927,CN
乔家珊小吃,QiaoJiaShanXiaoChi,restaurant,31.1365865,121.5756195,CN
iCaffe,iCaffe,restaurant,31.1379342,121.5786504,CN
Alsace Pastry,Alsace Pastry,restaurant,31.1380306,121.5791064,CN
川流不息,ChuanLiuBuXi,restaurant,31.1271757,121.5789911,CN
山姆会员商店,Sam's Club,wholesale,31.3169743,121.3775709,CN
Watsons,Watsons,chemist,31.1373531,121.576378,CN
Funnyfoods Tuck Shop,Funnyfoods Tuck Shop,confectionery,31.1422935,121.5670653,CN
Fornet Laundry Distribution,Fornet Laundry Distribution,laundry,31.1378346,121.5779905,CN
MataMata Cafe,MataMata Cafe,cafe,31.1377382,121.5768318,CN
Butcher's,Butcher's,butcher,31.1375499,121.5749704,CN
上海天厚绸庄有限公司,ShangHaiTianHouChouZhuangYouXianGongSi,tailor,31.1785114,121.3689261,CN
青城食坊,QingChengShiFang,restaurant,31.2331596,121.4630275,CN
Hot pot 火锅,Hot pot HuoGuo,restaurant,31.1379035,121.5783604,CN
家得利超市,JiaDeLiChaoShi,supermarket,31.1965007,121.4150812,CN
喜士多便利店,XiShiDuoBianLiDian,convenience,31.2657707,121.4878582,CN
Tesco,Tesco,supermarket,31.2521963,121.4275969,CN
Duck King Roast Duck Restaurant Hongqiao Shop,Duck King Roast Duck Restaurant Hongqiao Shop,restaurant,31.207466,121.3982419,CN
联华超市,LianHuaChaoShi,supermarket,31.2904841,121.4836138,CN
85度,85Du,bakery,31.2904225,121.4837087,CN
Xuan Yi can ting,Xuan Yi can ting,restaurant,31.1891431,121.3817157,CN
中石化明星加油站,ZhongShiHuaMingXingJiaYouZhan,fuel,31.1312872,121.3619966,CN
Puerh Tea shop,Puerh Tea shop,convenience,31.2141,121.52193,CN
Tea Plaza,Tea Plaza,supermarket,31.2215179,121.4783708,CN
城市超市,ChengShiChaoShi,supermarket,31.228657,121.4473804,CN
新元素,Ritz Bar,restaurant,31.228758,121.4478953,CN
鼎泰丰,Din Tai Fung,restaurant,31.2286708,121.4466454,CN
桃花源,TaoHuaYuan,restaurant,31.2296066,121.4497461,CN
小南国日式烧烤,XiaoNanGuoRiShiShaoKao,restaurant,31.2293726,121.4493384,CN
海云台,HaiYunTai,restaurant,31.2293359,121.4489897,CN
屋企汤馆,WuQiTangGuan,restaurant,31.2286662,121.4501645,CN
Baker&Spice,Baker&Spice,bakery,31.228874,121.4478478,CN
M&S Outlet,M&S Outlet,department_store,31.2321695,121.4558763,CN
卜蜂莲花,BoFengLianHua,supermarket,31.1573267,121.4996125,CN
盒马X会员店,HeMaXHuiYuanDian,supermarket,31.1627802,121.5198686,CN
华联超市,HuaLianChaoShi,supermarket,31.1635697,121.5037968,CN
Shinesun Digital Plaza,Shinesun Digital Plaza,mall,31.2272694,121.4763555,CN
草包商场,CaoBaoShangChang,supermarket,31.2242761,121.4902957,CN
新沈家门海鲜城,Xinshenjiamen Seafood City,restaurant,31.3269573,121.5267559,CN
新亚大包,XinYaDaBao,restaurant,31.3269963,121.5245511,CN
百安居,B & Q China,doityourself,31.2896126,121.5181749,CN
米氏西餐厅,M on the Bund,restaurant,31.2364221,121.4864006,CN
乐购超市,LeGouChaoShi,supermarket,31.1822643,121.5369127,CN
教育超市,JiaoYuChaoShi,supermarket,31.2926434,121.5523152,CN
C!ty'super,C!ty'super,supermarket,31.2388534,121.4973744,CN
可的,KeDe,convenience,31.3149603,121.5107547,CN
润湘之,RunXiangZhi,restaurant,31.2117521,121.3932637,CN
龙文桂林米粉,LongWenGuiLinMiFen,restaurant,31.2086244,121.3988486,CN
三人行骨头火锅,SanRenXingGuTouHuoGuo,restaurant,31.2134822,121.39705,CN
三合一菜场,SanHeYiCaiChang,greengrocer,31.2188597,121.3664791,CN
王子美发,WangZiMeiFa,hairdresser,31.2846437,121.4950993,CN
OLE超市,OLEChaoShi,supermarket,31.2143478,121.5594504,CN
Liberté,Liberté,bakery,31.214579,121.5597267,CN
Cafe Grazie,Cafe Grazie,cafe,31.1349185,121.397518,CN
优衣库,Uniqlo,clothes,31.1347899,121.3973249,CN
Snack House,Snack House,restaurant,31.137313,121.3963271,CN
农工商超市,NGS,supermarket,31.3397886,121.4868976,CN
上海小南国,ShangHaiXiaoNanGuo,restaurant,31.2456639,121.452763,CN
Xiao Nan Guo,Xiao Nan Guo,restaurant,31.1920732,121.3793869,CN
La Casbah,La Casbah,cafe,31.2106739,121.4405466,CN
Blend Cafe,Blend Cafe,cafe,31.2132386,121.460336,CN
Noodle Restaurant,Noodle Restaurant,restaurant,31.2166886,121.457525,CN
Pasta Inn,Pasta Inn,restaurant,31.2168996,121.4574767,CN
Amanda,Amanda,restaurant,31.2222878,121.454255,CN
Fixies,Fixies,bicycle,31.2098439,121.4605381,CN
Kakadu,Kakadu,restaurant,31.212638,121.4665222,CN
易买得,YiMaiDe,supermarket,31.1543471,121.5328855,CN
Yuan Hua Supermarket,Yuan Hua Supermarket,supermarket,31.2404533,121.437099,CN
家得利,Jiadeli,supermarket,31.3189974,121.5175083,CN
中升之星,Mercedes-Benz,car,31.3194447,121.5160845,CN
上海大众汽车,Shanghai Volkswagen,car,31.3186768,121.5168894,CN
雷克萨斯,Shanghai Lexus,car,31.3194377,121.5146734,CN
快客,Kuaike,convenience,31.3243248,121.5183111,CN
Lost Heaven,Lost Heaven,restaurant,31.2345742,121.4865899,CN
沙县小吃,ShaXianXiaoChi,restaurant,31.2022111,121.4256477,CN
InMyFamily,InMyFamily,restaurant,31.2109204,121.3654089,CN
南翔馒头店,Nanxiang Steamed Bun Restaurant,restaurant,31.2285341,121.4871017,CN
Icafé,Icafé,cafe,31.1955754,121.3789834,CN
九百购物中心,JiuBaiGouWuZhongXin,supermarket,31.2820902,121.4164835,CN
苏宁电器,SuNingDianQi,supermarket,31.2812239,121.4161033,CN
罗森,LAOSON,convenience,31.2220888,121.3544178,CN
Local Wet Market,Local Wet Market,supermarket,31.2532513,121.4301627,CN
Lanzhou Beef Noodles,Lanzhou Beef Noodles,restaurant,31.2563486,121.4352032,CN
清风人家,QingFengRenJia,cafe,31.1275954,121.5788367,CN
超市,ChaoShi,supermarket,31.1454414,121.3950928,CN
柒寿司,Sea Horse,restaurant,31.22324,121.4455378,CN
菜市场,CaiShiChang,greengrocer,31.2120658,121.3443048,CN
朝九晚六,ChaoJiuWanLiu,restaurant,31.2123201,121.3439171,CN
包子店,BaoZiDian,restaurant,31.211577,121.3439782,CN
吉祥馄饨,JiXiangHunTun,restaurant,31.219627,121.3591055,CN
好得来水果超市,HaoDeLai Fruit Shop,greengrocer,31.2114846,121.3545308,CN
杏花楼,XingHuaLou,convenience,31.2111543,121.3542492,CN
紫燕百味鸡,ZiYanBaiWeiJi,butcher,31.2110645,121.3552633,CN
山西瓦罐汤,ShanXiWaGuanTang,restaurant,31.2106473,121.3656566,CN
海底捞火锅,Haidilao Hot Pot,restaurant,31.2106932,121.3655198,CN
水果商店,Fruit Shop,greengrocer,31.1990458,121.4602639,CN
牛棚,NiuPeng,supermarket,31.2024435,121.4570303,CN
爱可焙,AiKeBei,bakery,31.2008918,121.4603345,CN
涉古,SheGu,beauty,31.2031848,121.4569178,CN
文具超市,WenJuChaoShi,stationery,31.2010626,121.4606952,CN
好德,HaoDe,convenience,31.1999624,121.4577102,CN
黑土地,HeiTuDi,restaurant,31.2000226,121.4577954,CN
盐城八大碗,YanChengBaDaWan,restaurant,31.2007144,121.4573825,CN
永琪美容美发,YongQiMeiRongMeiFa,hairdresser,31.2014005,121.4568765,CN
火车票代售处,HuoChePiaoDaiShouChu,ticket,31.2029309,121.4561084,CN
好想你枣,HaoXiangNiZao,yes,31.2025857,121.4569982,CN
理发店,LiFaDian,hairdresser,31.2112428,121.3530379,CN
任尚美容美发,RenShangMeiRongMeiFa,hairdresser,31.2048318,121.4585399,CN
青年餐厅,QingNianCanTing,restaurant,31.2050767,121.4598688,CN
餐馆,CanGuan,restaurant,31.3887482,121.5238623,CN
正圆烩面,ZhengYuanHuiMian,restaurant,31.2141023,121.4416546,CN
打印复印,DaYinFuYin,copyshop,31.2025839,121.4577969,CN
配钥匙,PeiYaoShi,locksmith,31.2201205,121.3576642,CN
美食小吃,MeiShiXiaoChi,restaurant,31.3424999,121.3730344,CN
小卖部,XiaoMaiBu,convenience,31.3450214,121.3770669,CN
康师傅私房牛肉面,KangShiFuSiFangNiuRouMian,restaurant,31.2133569,121.3986739,CN
耶里夏丽,YeLiXiaLi,restaurant,31.2135121,121.3968251,CN
Wanda Plaza,Wanda Plaza,mall,31.2420412,121.3199881,CN
阿三餐馆,ASanCanGuan,restaurant,31.2258353,121.4464457,CN
火车票代售点,HuoChePiaoDaiShouDian,ticket,31.2192541,121.367443,CN
鲜芋仙,XianYuXian,beverages,31.2135077,121.3968581,CN
达芙妮,DaFuNi,shoes,31.2134521,121.3972757,CN
久久丫,JiuJiuYa,butcher,31.2110462,121.3555361,CN
好再来水果大卖场,HaoZaiLaiShuiGuoDaMaiChang,greengrocer,31.2110462,121.3556068,CN
淞虹五金建材店,SongHongWuJinJianCaiDian,hardware,31.2110139,121.356021,CN
巴比馒头,BaBiManTou,restaurant,31.2110223,121.3559388,CN
来伊粉,LaiYiFen,yes,31.2110335,121.3558287,CN
快客便利店,KuaiKeBianLiDian,convenience,31.2109332,121.3038575,CN
外婆家,WaiPoJia,restaurant,31.1832115,121.488682,CN
永乐生活电器古北店,YongLeShengHuoDianQiGuBeiDian,supermarket,31.2106935,121.3963033,CN
La Sosta,La Sosta,restaurant,31.1879076,121.3814668,CN
农工商118广场,NongGongShang118GuangChang,supermarket,31.2334657,121.3740002,CN
圣诺亚酒店,ShengNuoYaJiuDian,wine,31.233555,121.3723423,CN
乐购大渡河路店,LeGouDaDuHeLuDian,supermarket,31.2239631,121.391007,CN
苏宁小店,SuNingXiaoDian,supermarket,31.2410401,121.367776,CN
锄禾生活超市,ChuHeShengHuoChaoShi,supermarket,31.2419364,121.3665439,CN
清峪菜场,QingYuCaiChang,supermarket,31.2394022,121.3709099,CN
晨光,ChenGuang,stationery,31.2388104,121.3715124,CN
金华土菜,JinHuaTuCai,restaurant,31.2350769,121.372585,CN
上岛咖啡,ShangDaoKaFei,cafe,31.235395,121.3715759,CN
碧源名车养护,Bi Yuan,car_repair,31.2410732,121.3675301,CN
近铁城市广场,JinTieChengShiGuangChang,mall,31.2344897,121.3769734,CN
圣诺亚大厦,ShengNuoYaDaSha,mall,31.2348199,121.3719309,CN
Hualian,Hualian,supermarket,31.2526737,121.4333883,CN
文峰千家惠,WenFengQianJiaHui,supermarket,31.2738832,121.5829506,CN
85度C面包店,85DuCMianBaoDian,restaurant,31.1184348,121.57263,CN
Decathlon,Decathlon,sports,31.2434314,121.5780198,CN
牛记港式茶餐厅,East West Restaurant,restaurant,31.2439873,121.5827204,CN
Tai Sheng Yuan,Tai Sheng Yuan,restaurant,31.2438702,121.5836501,CN
竹若,ZhuRuo,restaurant,31.207935,121.3949742,CN
Rachel's,Rachel's,restaurant,31.2117608,121.4360253,CN
航管红木,HangGuanHongMu,cafe,31.2074279,121.3648055,CN
Ccoop,Ccoop,supermarket,31.2210051,121.4505964,CN
Hexagon,Hexagon,cafe,31.2068446,121.4443789,CN
h2,h2,cafe,31.2067148,121.4447272,CN
小锦江 XiaoJinJiang,XiaoJinJiang XiaoJinJiang,restaurant,31.1148211,121.3666701,CN
老芋头 LaoYuTou,LaoYuTou LaoYuTou,restaurant,31.113241,121.3678393,CN
桂林公馆,GuiLinGongGuan,restaurant,31.1676436,121.4125603,CN
Chic Cafe,Chic Cafe,cafe,31.2225822,121.4535309,CN
Romana,Romana,restaurant,31.2224744,121.4542712,CN
厚味,HouWei,restaurant,31.263835,121.5069401,CN
真道味,ZhenDaoWei,restaurant,31.211524,121.3442252,CN
Aaa,Aaa,cafe,31.263025,121.50801,CN
上海大饭堂花木店,ShangHaiDaFanTangHuaMuDian,restaurant,31.208243,121.5380588,CN
La Creperie,La Creperie,restaurant,31.2105377,121.4469716,CN
Abbey Road,Abbey Road,restaurant,31.2109463,121.4463087,CN
海外滩,HaiWaiTan,mall,31.1945008,121.4687032,CN
85度C,85C Bakery Cafe,cafe,31.2038331,121.4783053,CN
Fratelli di cucina,Fratelli di cucina,restaurant,31.1934986,121.3848513,CN
Amy's Restaurant,Amy's Restaurant,restaurant,31.1929659,121.3809994,CN
City Bull,City Bull,restaurant,31.1932538,121.3832317,CN
Delight Food Belgian Brasserie,Delight Food Belgian Brasserie,restaurant,31.1932877,121.3834814,CN
Kan's kitchen,Kan's kitchen,restaurant,31.1930377,121.3815188,CN
Las Tapas,Las Tapas,restaurant,31.1933971,121.3841265,CN
Mexico Lindo Cantina and Grill,Mexico Lindo Cantina and Grill,restaurant,31.1934732,121.3846704,CN
Whole Fresh,Whole Fresh,greengrocer,31.1929873,121.3806887,CN
Beansbins Coffee,Beansbins Coffee,cafe,31.1903044,121.3926619,CN
1004 Mart,1004 Mart,convenience,31.1901378,121.3921079,CN
Cafe Bon Matin,Cafe Bon Matin,restaurant,31.1964469,121.3992248,CN
Engine On Fire,Engine On Fire,restaurant,31.1932784,121.4028798,CN
Haiku Japanese Restaurant,Haiku Japanese Restaurant,restaurant,31.2113991,121.444326,CN
Boxing Cat Craft Beer Bar,Boxing Cat Craft Beer Bar,restaurant,31.2172204,121.4643319,CN
Xin Yuan Lou Chinese Restaurant,Xin Yuan Lou Chinese Restaurant,restaurant,31.2161211,121.4593765,CN
La Rue Restaurant,La Rue Restaurant,restaurant,31.2162503,121.4590588,CN
Green and Safe Organic,Green and Safe Organic,restaurant,31.2105559,121.4456557,CN
外文书店,Foreign Languages Bookstore,books,31.2360191,121.4784627,CN
光明眼镜,GuangMingYanJing,optician,31.1539163,121.3087322,CN
优衫定制西服,YouShanDingZhiXiFu,clothes,31.2318581,121.4566248,CN
Dahon Bike Shop,Dahon Bike Shop,bicycle,31.1841583,121.3947749,CN
Speedcat,Speedcat,bicycle,31.2086739,121.4532458,CN
Gong De Links - Godly,Gong De Links - Godly,restaurant,31.2134232,121.436522,CN
Factory Five,Factory Five,bicycle,31.2434635,121.4425711,CN
Godly,Godly,restaurant,31.232718,121.4640816,CN
Rideal,Rideal,bicycle,31.2321511,121.4376797,CN
Xiáo shuō,Xiáo shuō,cafe,31.2124423,121.4376665,CN
上海永久,Forever,bicycle,31.2123371,121.4532896,CN
Cityshop,Cityshop,supermarket,31.1947979,121.4397516,CN
喜士多,C-Store,convenience,31.1919656,121.4326516,CN
1984,1984,cafe,31.2096753,121.4382652,CN
百脑汇,Buynow,electronics,23.136713,113.3339292,CN
太平洋数码广场,TaiPingYangShuMaGuangChang,electronics,23.1362371,113.3322076,CN
名典咖啡语茶,Ming Time Coffee Languahe,restaurant,23.102733,113.2949639,CN
广东电视台餐厅,GuangDongDianShiTaiCanTing,restaurant,23.1399176,113.2530121,CN
黄鳝,HuangShan,restaurant,23.14839,113.335488,CN
曜一城,IVONE PLAZA,mall,23.1442862,113.3376594,CN
TASTE(中华广场店),TASTE(ZhongHuaGuangChangDian),supermarket,23.1286619,113.2773861,CN
西亚兴安超市,XiYaXingAnChaoShi,supermarket,23.1403769,113.3504516,CN
双合超市,ShuangHeChaoShi,supermarket,23.1417088,113.3514226,CN
永旺,AEON,supermarket,23.0614106,113.1430255,CN
明记海鲜城,MingJiHaiXianCheng,restaurant,23.0907141,113.2691419,CN
华润,HuaRun,supermarket,23.1576397,113.2488607,CN
Zum roten Hocker,Zum roten Hocker,restaurant,23.0618779,113.1410902,CN
Pizzeria Montana,Pizzeria Montana,restaurant,23.062428,113.1413966,CN
Lotus Mart,Lotus Mart,supermarket,23.1635814,113.2520954,CN
家为百货,JiaWeiBaiHuo,supermarket,23.2203478,113.2950214,CN
陶陶居,Tao Tao Ju,restaurant,23.116014,113.2371726,CN
鹅公村,EGongCun,restaurant,23.0591262,113.3608791,CN
意珍,YiZhen,restaurant,23.1202903,113.318094,CN
云居,Kumoi,restaurant,23.1202114,113.318094,CN
愉悦轩,YU YUE HEEN,restaurant,23.1200055,113.3179945,CN
佰鲜汇,Catch,restaurant,23.1203668,113.3180967,CN
太阳城广场,TaiYangChengGuangChang,mall,23.1903969,113.3213133,CN
兴悦酒家,XingYueJiuJia,restaurant,23.1408098,113.2756056,CN
十八涌,ShiBaYong,restaurant,23.1471824,113.2729239,CN
美宜佳,Meiyijia,convenience,23.1476292,113.2724744,CN
萨莉亚,Saizeriya,restaurant,23.1424516,113.2715215,CN
鸿富华酒家,HongFuHuaJiuJia,restaurant,23.1273044,113.2856174,CN
畔山酒店,PanShanJiuDian,restaurant,23.153638,113.2733247,CN
同湘会,TongXiangHui,restaurant,23.1422918,113.2729822,CN
金成炖品,JinChengDunPin,restaurant,23.1422972,113.2727956,CN
东川酒家,DongChuanJiuJia,restaurant,23.1261703,113.2812552,CN
胜佳超市,ShengJiaChaoShi,supermarket,23.1254151,113.2807531,CN
芸香居,YunXiangJu,restaurant,23.1244573,113.281032,CN
光景宠物医院,GuangJingChongWuYiYuan,pet,23.1300947,113.269658,CN
北园酒家,Bei Yuan,restaurant,23.1391589,113.2671127,CN
OK便利店,Circle K,convenience,23.1380977,113.2544034,CN
红色角落风味餐厅,HongSeJiaoLuoFengWeiCanTing,restaurant,23.1382955,113.2543011,CN
玲又珑,LingYouLong,restaurant,23.1384875,113.2542055,CN
地王广场,Dynasty Plaza,mall,23.1284298,113.279233,CN
越秀购书中心,YueXiuGouShuZhongXin,books,23.1414174,113.2696625,CN
肥婶厨房,FeiShenChuFang,restaurant,23.1417121,113.2724797,CN
奥特莱斯手机城,AoTeLaiSiShouJiCheng,mobile_phone,23.1265888,113.2776718,CN
甜心狗,Honey Dog,restaurant,23.1382803,113.255405,CN
8便利店,8-Mart,convenience,23.1345165,113.2569594,CN
太平洋咖啡,Pacific Coffee,cafe,23.1286093,113.2611824,CN
科技书店,KeJiShuDian,books,23.1288076,113.2636523,CN
儿童书店,ErTongShuDian,books,23.1298025,113.2635665,CN
风行,FengXing,convenience,23.1293461,113.2687202,CN
常来小聚,ChangLaiXiaoJu,restaurant,23.1294609,113.2756343,CN
莲香楼,Lian Xiang Lou,restaurant,23.1161081,113.2379122,CN
海宝酒家,HaiBaoJiuJia,restaurant,23.1300905,113.273089,CN
广州未来城,FUTURE CITY,mall,23.1293121,113.2782333,CN
发哥茶餐厅,Brother Fat,restaurant,23.1445394,113.2823904,CN
稻菊,DaoJu,restaurant,23.1346469,113.2796135,CN
潮源食府,ChaoYuanShiFu,restaurant,23.1408917,113.2753351,CN
湖畔美食店,HuPanMeiShiDian,restaurant,23.1458043,113.2729047,CN
海印广场,HaiYinGuangChang,mall,23.1172683,113.2790539,CN
喜栈,XiZhan,restaurant,23.1164771,113.2776494,CN
天河电脑城,Galaxy Computer Plaza,electronics,23.1357411,113.3306762,CN
西区教育超市,XiQuJiaoYuChaoShi,supermarket,23.0977229,113.2864467,CN
教工食堂,JiaoGongShiTang,restaurant,23.0977401,113.2859425,CN
万家百货,WanJiaBaiHuo,supermarket,23.1446672,113.3315676,CN
BP,BP,fuel,23.2178415,113.1043098,CN
九毛九,JiuMaoJiu,restaurant,23.1286655,113.2352287,CN
校园咖啡,XiaoYuanKaFei,cafe,23.1575804,113.3396671,CN
满记甜品,Honeymoon Dessert,cafe,23.128604,113.2620912,CN
阿迪达斯,Adidas,sports,23.1284673,113.263696,CN
荔银肠粉,Liyin Rice Roll,restaurant,23.128466,113.2640639,CN
Alone Me 2,Alone Me 2,cafe,23.1513744,113.2684543,CN
星之光电器城,XingZhiGuangDianQiCheng,electronics,23.1182528,113.2796963,CN
鸿星海鲜酒家,HongXingHaiXianJiuJia,restaurant,23.1220025,113.28021,CN
椒堂米粉,JiaoTangMiFen,restaurant,23.1316749,113.3254713,CN
旺点茗点,WangDianMingDian,restaurant,23.2223631,113.2976925,CN
味千拉面,Ajisen Ramen,restaurant,23.1637606,113.25118,CN
顺丰快递,ShunFengKuaiDi,yes,23.1782904,113.24381,CN
嘉利喜宴,JiaLiXiYan,restaurant,23.1757087,113.2451496,CN
西游记,XiYouJi,restaurant,23.1286298,113.279586,CN
陶园美食,TaoYuanMeiShi,restaurant,23.1272129,113.2702386,CN
永盈茶餐厅,YongYingChaCanTing,restaurant,23.1294126,113.2689503,CN
长乐饼屋,ZhangLeBingWu,bakery,23.1294333,113.269258,CN
广州市公恒典当行,GuangZhouShiGongHengDianDangXing,pawnbroker,23.1253522,113.2811086,CN
圣安娜饼屋,ShengAnNaBingWu,bakery,23.1261239,113.280912,CN
福兴酒家,FuXingJiuJia,restaurant,23.1239621,113.283299,CN
老四川,LaoSiChuan,restaurant,23.1244388,113.2813487,CN
老刘家,LaoLiuJia,restaurant,23.1248079,113.2776948,CN
沃尔玛,Walmart,supermarket,23.1757629,113.2621017,CN
老重庆酒家,LaoZhongQingJiuJia,restaurant,23.1940358,113.2504979,CN
阿苏克印度餐厅,Ashoka,restaurant,23.1454371,113.2824038,CN
中国石化(金运东加油站),ZhongGuoShiHua(JinYunDongJiaYouZhan),fuel,23.2874993,113.3297416,CN
中国石化(金运西加油站),ZhongGuoShiHua(JinYunXiJiaYouZhan),fuel,23.2876864,113.3283817,CN
壳牌永泰加油站 (Shell),KePaiYongTaiJiaYouZhan(Shell),fuel,23.2363896,113.3008783,CN
Mitsubishi,Mitsubishi,car,23.2359004,113.3004911,CN
Toyota,Toyota,car,23.2342083,113.2989602,CN
Cadillac,Cadillac,car,23.2360653,113.3003413,CN
广州雅居乐会所,GuangZhouYaJuLeHuiSuo,restaurant,23.0127512,113.359011,CN
真过瘾新疆大盘鸡,ZhenGuoYinXinJiangDaPanJi,restaurant,23.1317877,113.3165907,CN
回民饭店,Huimin Restaurant,restaurant,23.1277022,113.2494151,CN
都城,DouCheng,restaurant,23.1300367,113.2507366,CN
星洲大椰,XingZhouDaYe,restaurant,23.1241232,113.2483562,CN
易捷 Easy Joy,Easy Joy,convenience,23.1539523,113.3787855,CN
清真饭堂,QingZhenFanTang,restaurant,23.1572866,113.3451393,CN
嘉州广场,JiaZhouGuangChang,mall,23.1114144,113.1833887,CN
圣安娜,ShengAnNa,bakery,23.1412491,113.2822707,CN
Gail's,Gail's,restaurant,23.1201376,113.3115108,CN
利群超市,LiQunChaoShi,supermarket,23.1190137,113.2328598,CN
英德宾馆,YingDeBinGuan,restaurant,23.1300303,113.2743561,CN
广州动物园售票处,GuangZhouDongWuYuanShouPiaoChu,ticket,23.1381143,113.3022554,CN
Buick,Buick,car,23.2350684,113.2995535,CN
百果园,Pagoda,greengrocer,23.2250272,113.2808335,CN
金华安大酒楼(白云店),JinHuaAnDaJiuLou(BaiYunDian),restaurant,23.2218106,113.2918678,CN
广东道至正餐厅,GuangDongDaoZhiZhengCanTing,restaurant,23.220943,113.2895128,CN
Land Rover,Land Rover,car,23.2334424,113.29843,CN
Jeep,Jeep,car,23.2337922,113.2986714,CN
Volkswagen,Volkswagen,car,23.230391,113.2965654,CN
Lincoln,Lincoln,car,23.2311623,113.2967531,CN
燎原商业中心,LiaoYuanShangYeZhongXin,mall,23.0349618,113.1170292,CN
普君新城步行街,PuJunXinChengBuXingJie,mall,23.0295942,113.1191555,CN
潮江春,ChaoJiangChun,restaurant,23.1255337,113.3760152,CN
龙江咱家水饺东北菜,LongJiangZanJiaShuiJiaoDongBeiCai,restaurant,23.1258866,113.3759852,CN
二哥烤羊腿羊排烤全羊,ErGeKaoYangTuiYangPaiKaoQuanYang,restaurant,23.1262605,113.3759689,CN
大圣客,DaShengKe,restaurant,23.12692,113.3762862,CN
湘味楼,XiangWeiLou,restaurant,23.1266226,113.3759775,CN
南园酒家,NanYuanJiuJia,restaurant,23.1026499,113.2752301,CN
百搭果,BaiDaGuo,restaurant,23.1265517,113.2702309,CN
明记甜品,MingJiTianPin,cafe,23.1254176,113.2699723,CN
百花甜品,Baihua Traditional Dessert Shop,cafe,23.1251697,113.2701817,CN
淇乐多,QiLeDuo,restaurant,23.0938204,113.2563814,CN
纽伦港茶餐厅,NiuLunGangChaCanTing,restaurant,23.1097672,113.2695476,CN
大同酒家,Dai Tung Restaurant,restaurant,23.1110344,113.2491772,CN
香辣滋味,Spicy Taste,cafe,23.0132947,113.1053205,CN
Geran,Geran,clothes,23.0416106,113.1246444,CN
百佳,ParknShop,supermarket,23.0656164,113.1505164,CN
MaxValu,MaxValu,supermarket,23.1263627,113.3385937,CN
唐渔酒家,TangYuJiuJia,restaurant,23.1478474,113.2731189,CN
国大童装世界,GuoDaTongZhuangShiJie,clothes,23.1969001,113.222334,CN
洛奇先生餐吧,Mr. Rocky,restaurant,23.0921173,113.2468581,CN
陆小凤,LuXiaoFeng,restaurant,23.1283365,113.2783059,CN
客语,KeYu,restaurant,23.1385061,113.2761471,CN
喜来稀肉,XiLaiXiRou,restaurant,23.1751313,113.2500529,CN
FM25,FM25,supermarket,23.1751418,113.2501372,CN
Sarhami,Sarhami,clothes,23.157066,113.2277779,CN
金河半岛餐厅,JinHeBanDaoCanTing,restaurant,23.1204771,113.3788064,CN
虾笼镇,XiaLongZhen,restaurant,23.1262839,113.3762506,CN
万家超市,WanJiaChaoShi,supermarket,23.1245626,113.3830223,CN
Apple Store,Apple Parc Central,electronics,23.1345925,113.3197495,CN
麓苑轩酒家,LuYuanXuanJiuJia,restaurant,23.1436447,113.2797593,CN
美好购物超市,MeiHaoGouWuChaoShi,supermarket,23.2200351,113.2949577,CN
三椰茶餐厅,SanYeChaCanTing,restaurant,23.2230104,113.2984388,CN
朝天门,ChaoTianMen,restaurant,23.2228778,113.2990146,CN
芋原谷,YuYuanGu,restaurant,23.2229526,113.29885,CN
万宁,Mannings,chemist,23.2224994,113.2997161,CN
新一佳连锁超市,XinYiJiaLianSuoChaoShi,supermarket,23.2224609,113.2998239,CN
Sony,Sony,electronics,23.1343646,113.3223343,CN
洒德餐厅,SaDeCanTing,restaurant,23.1416992,113.2727131,CN
光杨市场,Kwong Yeung Market,supermarket,23.1142462,113.2457981,CN
铂斯西餐厅,Bosphorus Turkish Restaurant,restaurant,23.1418191,113.2711653,CN
稻香园,DaoXiangYuan,restaurant,23.165989,113.3649037,CN
Nike,Nike,clothes,23.1171657,113.2423971,CN
南信牛奶甜品专家,Nanxin Milk Desserts Expert,restaurant,23.1161681,113.2372775,CN
中盛国际,Zhongsheng International,department_store,23.0511307,113.1511814,CN
Corner's Deli,Corner's Deli,supermarket,23.2087604,113.3384748,CN
绿源素食馆,Greenland vegetarian cafe,restaurant,23.1426294,113.3369604,CN
Hooley's Irish,Hooley's Irish,restaurant,23.1232155,113.3241668,CN
Cafe´ Bene,Cafe´ Bene,cafe,23.0616307,113.1430305,CN
佛有缘,Fo You Yuan Vegetarian Restaurant,restaurant,23.130911,113.23703,CN
On Fire,On Fire,restaurant,23.0627542,113.1430468,CN
龙哥茶,Teamotea,cafe,23.1008904,113.2176339,CN
馨园,XinYuan,restaurant,23.1216181,113.2897432,CN
桂花园餐厅,GuiHuaYuanCanTing,restaurant,23.1963037,113.3009082,CN
云山粥城,YunShanZhouCheng,restaurant,23.1968331,113.3023915,CN
波涛商场,BoTaoShangChang,yes,23.069778,113.3472425,CN
花城超市,HuaChengChaoShi,supermarket,23.053537,113.3344788,CN
华润万家生活超市,HuaRunWanJiaShengHuoChaoShi,convenience,23.0526447,113.3359724,CN
喜茶,Heytea,cafe,23.134868,113.3266642,CN
鸿星海鲜酒家,Hong Xing SeaFood,restaurant,23.1169411,113.2626886,CN
广百百货,GuangBaiBaiHuo,department_store,23.1320216,113.2920914,CN
Vegetarian,Vegetarian,restaurant,23.1262437,113.3124959,CN
酸奶店,SuanNaiDian,convenience,23.1902303,113.3946031,CN
致美齋,ZhiMeiZhai,yes,23.1281003,113.265592,CN
开芯好美式超市,KaiXinHaoMeiShiChaoShi,supermarket,23.1205171,113.3250111,CN
銀記腸粉,YinJiChangFen,restaurant,23.125407,113.2699207,CN
九爷鸡,JiuYeJi,restaurant,23.1253724,113.2678874,CN
扶光書店,FuGuangShuDian,books,23.1388811,113.2767242,CN
扉艺廊,FeiYiLang,art,23.1282869,113.2893415,CN
佛山市文物商店,Foshan City Cultural Relics Store,gift,23.0327035,113.1080132,CN
方所,Fang Suo Commune,books,23.1372957,113.3260467,CN
沙拉姐姐,Enjoy Salad,restaurant,23.1558133,113.3283006,CN
炳胜,BingSheng,restaurant,23.1081048,113.2810218,CN
六合茶舍,LiuHeChaShe,restaurant,23.1116638,113.353897,CN
颐高数码广场,YiGaoShuMaGuangChang,mall,23.1353755,113.3296122,CN
好家庭运动城,HaoJiaTingYunDongCheng,sports,23.1354305,113.3268788,CN
竹溪酒家,Bamboo Creek Restaurant,restaurant,23.1211588,113.2273501,CN
金利来,JinLiLai,clothes,23.1244337,113.3680573,CN
陶苑酒家,TaoYuanJiuJia,restaurant,23.1105094,113.3041525,CN
班尼路,Baleno,clothes,23.1354856,113.3315373,CN
Xioami,Xioami,electronics,23.0655799,113.1527642,CN
乐淘有品,LeTaoYouPin,clothes,23.1010752,113.268557,CN
竹升面,ZhuShengMian,restaurant,23.1036093,113.2711103,CN
辣辣寿司,LaLaShouSi,restaurant,23.1033979,113.2723302,CN
泰爱里,TaiAiLi,restaurant,23.0330561,113.1103834,CN
安哥,AnGe,restaurant,23.0331076,113.1114258,CN
江南绿茶,JiangNanLvCha,restaurant,23.0330346,113.1112297,CN
水锅锅,ShuiGuoGuo,restaurant,23.0318517,113.1101939,CN
芽庄越式料理,YaZhuangYueShiLiaoLi,restaurant,23.0322171,113.110317,CN
翡翠拉面小笼包,FeiCuiLaMianXiaoLongBao,restaurant,23.0316302,113.1097854,CN
后街唐厨,HouJieTangChu,restaurant,23.033029,113.1107723,CN
小龙坎火锅,XiaoLongKan,restaurant,23.0316954,113.1101482,CN
盒马鲜生,Fresh Hema,supermarket,23.096591,113.2605362,CN
特斯拉,Tesla,car,23.135208,113.3189476,CN
学一服务部,XueYiFuWuBu,yes,23.131322,113.2838022,CN
柒阅,QiYue,books,23.1312745,113.2836668,CN
北学一饭堂,BeiXueYiFanTang,restaurant,23.1311994,113.2837057,CN
行政楼饭堂,Administraion Building Canteen,restaurant,23.0707124,113.3854262,CN
学而优书店,XueErYouShuDian,books,23.0956778,113.2847048,CN
Taste,Taste,supermarket,23.0426559,113.2981722,CN
西门子助听器,XiMenZiZhuTingQi,hearing_aids,23.1269459,113.2873598,CN