name,name_en,service_type,lat,lng,country_code
Copper Chimney,Copper Chimney,restaurant,18.927571,72.8325747,IN
Worliway Service Station,Worliway Service Station,fuel,18.997908,72.817372,IN
Crystal Plaza,Crystal Plaza,mall,19.140853,72.8324598,IN
VAMA,VAMA,clothes,18.9652997,72.8072717,IN
Nattu Cyclewalla,Nattu Cyclewalla,bicycle,19.0499651,72.8263763,IN
Cafe Andora,Cafe Andora,cafe,19.0573435,72.8276847,IN
Good Luck Restaurant,Good Luck Restaurant,restaurant,19.0517569,72.8240813,IN
A1 Bakery,A1 Bakery,cafe,19.0546237,72.8264717,IN
J Hearsch and Co,J Hearsch and Co,bakery,19.0551689,72.8269905,IN
Wonton House,Wonton House,restaurant,19.0548375,72.8258975,IN
Heera Panna,Heera Panna,supermarket,18.9775387,72.8109505,IN
Cafe Coffee Day,Cafe Coffee Day,cafe,18.9166662,72.8176892,IN
Ever Green,Ever Green,restaurant,18.9598264,72.81716,IN
Shriram,Shriram,restaurant,18.959522,72.8172244,IN
New Martin Hotel,New Martin Hotel,restaurant,18.9186212,72.8295185,IN
Mahesh Lunch Home,Mahesh Lunch Home,restaurant,18.9340269,72.8336071,IN
Mocambo Cafe,Mocambo Cafe,restaurant,18.9341607,72.8337661,IN
On Toes Restobar,On Toes Restobar,restaurant,18.9348609,72.8337017,IN
Ideal Corner,Ideal Corner,restaurant,18.9349624,72.8342167,IN
Excellency Restaurant,Excellency Restaurant,restaurant,18.9352567,72.8373924,IN
Bharat Petroleum,Bharat Petroleum,fuel,18.9367891,72.8396991,IN
Cafe Mondegar,Cafe Mondegar,cafe,18.9240421,72.8321786,IN
Akbarallys,Akbarallys,supermarket,18.9321174,72.8326369,IN
Moshe's,Moshe's,restaurant,18.917358,72.824523,IN
Westside,Westside,clothes,18.9280426,72.8311609,IN
Kamat Restaurant,Kamat Restaurant,restaurant,18.9215278,72.8312063,IN
Ankur,Ankur,restaurant,18.9306421,72.8323368,IN
Indigo Deli,Indigo Deli,restaurant,18.9239059,72.8332921,IN
Cafe Noorani,Cafe Noorani,restaurant,18.9771417,72.8117849,IN
SPCE canteen,SPCE canteen,restaurant,19.1226756,72.8338442,IN
Villa 39,Villa 39,restaurant,18.9254094,72.8304996,IN
Little Italy,Little Italy,restaurant,18.9544525,72.8184244,IN
Sarvi Restaurant,Sarvi Restaurant,restaurant,18.9667686,72.8291706,IN
Olive Restaurant,Olive Restaurant,restaurant,19.0717586,72.8253808,IN
Umar Pulaowala,Umar Pulaowala,restaurant,18.9592105,72.8303122,IN
Trishna,Trishna,restaurant,18.9286576,72.8323932,IN
Imadadiya Bakery,Imadadiya Bakery,bakery,18.9599225,72.8307554,IN
Firoz Farsan,Firoz Farsan,bakery,18.9599275,72.8309377,IN
Olympia Coffee House,Olympia Coffee House,restaurant,18.9226052,72.8312806,IN
Indigo,Indigo,restaurant,18.9222725,72.8320651,IN
Food Bazar,Food Bazar,convenience,19.1548114,72.8564354,IN
Balaji Rest.,Balaji Rest.,restaurant,19.1546492,72.8561961,IN
Sai Veg World,Sai Veg World,restaurant,19.1648094,72.8502701,IN
Paris Bakery,Paris Bakery,bakery,18.9445101,72.8262529,IN
Sarvodaya,Sarvodaya,convenience,18.9334183,72.8270064,IN
Samrat,Samrat,restaurant,18.9339181,72.8270274,IN
Heritage,Heritage,restaurant,19.16602,72.8519069,IN
Ratna,Ratna,restaurant,19.1633476,72.8461207,IN
Ashoka Shopping Centre,Ashoka Shopping Centre,variety_store,19.1665304,72.8459389,IN
Fuel,Fuel,fuel,18.9688493,72.808826,IN
Lalit,Lalit,restaurant,18.9348835,72.8333857,IN
Fort Hairdresser,Fort Hairdresser,hairdresser,18.9349748,72.8333911,IN
Shalimar,Shalimar,restaurant,18.957924,72.8324233,IN
Oxford Bookstore,Oxford Bookstore,books,18.9295514,72.8275099,IN
210 C,210 C,cafe,18.9304651,72.8264743,IN
Relish,Relish,restaurant,18.93036,72.8265145,IN
Regency,Regency,restaurant,19.1135596,72.8527427,IN
Advanced Music Labs,Advanced Music Labs,doityourself,19.1122189,72.8504226,IN
Fish Market,Fish Market,seafood,19.1111671,72.8499103,IN
Guru Nanak Petrol Pump,Guru Nanak Petrol Pump,fuel,19.1161423,72.8563549,IN
HP,HP,fuel,19.1147257,72.8596325,IN
Nataraj Market,Nataraj Market,department_store,19.1875716,72.8467885,IN
Dechatholon,Dechatholon,supermarket,19.1865736,72.8350829,IN
"Big Bazzar, Kandivali","Big Bazzar, Kandivali",mall,19.1900395,72.8591049,IN
store,store,convenience,19.0429129,72.9291774,IN
Bliss Bakery,Bliss Bakery,bakery,19.0423488,72.9332959,IN
Laxmi general store,Laxmi general store,convenience,19.0423412,72.933379,IN
Reliance,Reliance,kiosk,19.0432312,72.9248979,IN
SADGURU RESTAURANT,SADGURU RESTAURANT,restaurant,19.0622302,72.9007583,IN
BMW Motorrad Service,BMW Motorrad Service,car_repair,19.1300182,72.869869,IN
Verma Tailor,Verma Tailor,clothes,19.1048517,72.8483586,IN
Ahmed Bakery,Ahmed Bakery,bakery,19.0743539,72.8252062,IN
Hotel Samudra,Hotel Samudra,restaurant,19.0748494,72.8258483,IN
Iran Air,Iran Air,travel_agency,18.9339735,72.8239451,IN
Korean Air,Korean Air,travel_agency,18.9261477,72.8278365,IN
Jabbar Hall,Jabbar Hall,restaurant,19.0675439,72.9235309,IN
Bata,Bata,shoes,18.9201305,72.8302145,IN
Theobroma,Theobroma,pastry,18.9192171,72.8292274,IN
Hair Plus Saloon,Hair Plus Saloon,hairdresser,19.1029995,72.8451435,IN
Hilti,Hilti,car_repair,19.1030831,72.845452,IN
Wagh Bakari Tea,Wagh Bakari Tea,cafe,19.1029971,72.8465194,IN
Regal Optics,Regal Optics,convenience,19.1030656,72.8475709,IN
Same Place,Same Place,restaurant,19.1030604,72.8477452,IN
Chirag Book,Chirag Book,books,19.1031922,72.8479705,IN
Raghuvir Stores,Raghuvir Stores,convenience,19.1032024,72.8481771,IN
Jignesh Book,Jignesh Book,books,19.1032098,72.8473027,IN
Shivkeerti,Shivkeerti,jewelry,19.103252,72.8473598,IN
Cotton King,Cotton King,clothes,19.1032354,72.8489013,IN
Sandip Book,Sandip Book,books,19.1032125,72.8487564,IN
Lakme Salon,Lakme Salon,hairdresser,19.1035698,72.8493894,IN
Hari Om Milk & Colddrink,Hari Om Milk & Colddrink,convenience,19.1034482,72.849105,IN
Tejas Electronics,Tejas Electronics,doityourself,19.1033847,72.8495879,IN
Thote Milk,Thote Milk,convenience,19.1033823,72.8497784,IN
Aanand Book,Aanand Book,books,19.1035927,72.8511972,IN
Milan,Milan,gift,19.1035775,72.8513983,IN
Mukesh Lights & Ceramics,Mukesh Lights & Ceramics,convenience,19.10359,72.8514949,IN
Pankaj,Pankaj,convenience,19.1035804,72.8515897,IN
Mukesh Electric & Hardware,Mukesh Electric & Hardware,doityourself,19.1035676,72.8516755,IN
Birdy's,Birdy's,bakery,19.1037573,72.8511489,IN
Gajali,Gajali,restaurant,19.1038461,72.8515807,IN
Daffodils,Daffodils,restaurant,19.1036637,72.8523076,IN
V.D.Parekh,V.D.Parekh,jewelry,19.103651,72.8525384,IN
Jayant Janaral Stores,Jayant Janaral Stores,convenience,19.103618,72.8527235,IN
Sapre,Sapre,convenience,19.1037955,72.8527609,IN
Vaibhav Decorators,Vaibhav Decorators,convenience,19.1037751,72.8530184,IN
Ganesh Stores,Ganesh Stores,convenience,19.1038094,72.8529082,IN
Hotel Shree Ganesh,Hotel Shree Ganesh,restaurant,19.1036532,72.8528496,IN
Deepak Auto,Deepak Auto,car_repair,19.1035621,72.8537319,IN
Naresh Ceramics,Naresh Ceramics,convenience,19.1035647,72.8536487,IN
Krishna Dairy Farm,Krishna Dairy Farm,convenience,19.1037984,72.8530721,IN
Gulmohar,Gulmohar,restaurant,19.129793,72.9151419,IN
Pitambra Power,Pitambra Power,battery,18.9603218,72.8164556,IN
Ray's Cafe & Pizzeria,Ray's Cafe & Pizzeria,restaurant,19.0550265,72.8283822,IN
Salim Garage,Salim Garage,car,19.0716526,72.8225406,IN
Prakash Tailor,Prakash Tailor,tailor,19.0729122,72.8232891,IN
pretty Petals,pretty Petals,florist,19.0712779,72.8240456,IN
Mezbaan,Mezbaan,restaurant,19.0707547,72.8224918,IN
Hakim Alims Tattoo,Hakim Alims Tattoo,tattoo,19.0718525,72.8248073,IN
MCGM Information Kiosk,MCGM Information Kiosk,kiosk,19.0525297,72.9001451,IN
Cross Word,Cross Word,books,19.1147139,72.827495,IN
Shoppers Stop,Shoppers Stop,department_store,19.1145973,72.8275004,IN
Cromā,Cromā,electronics,19.1129968,72.8283585,IN
New York Restaurant & Bar,New York Restaurant & Bar,restaurant,18.9579491,72.8109515,IN
Jimmy Boy,Jimmy Boy,restaurant,18.9308083,72.8350511,IN
Shakti Sai Tyres Pvt. Ltd.,Shakti Sai Tyres Pvt. Ltd.,car_repair,19.1321108,72.8696918,IN
King Plaza,King Plaza,convenience,18.9165338,72.8175939,IN
Poetry,Poetry,cafe,19.1057759,72.826406,IN
Kitchen Garden,Kitchen Garden,cafe,19.1055629,72.8263957,IN
Alfredo's,Alfredo's,restaurant,19.1069056,72.826255,IN
Fresco Bakery,Fresco Bakery,bakery,19.1100316,72.8266581,IN
Jain Tripathi & Co.,Jain Tripathi & Co.,convenience,19.1178214,72.8533808,IN
Monginis,Monginis,pastry,19.1921906,72.9673898,IN
Pizza Hut,Pizza Hut,restaurant,19.1923528,72.9671565,IN
Mantra,Mantra,restaurant,19.123761,72.9131305,IN
Godrej Pump,Godrej Pump,fuel,19.1051591,72.9224003,IN
Home Town,Home Town,supermarket,19.1204539,72.9263887,IN
Barbeque Nation,Barbeque Nation,restaurant,19.1951952,72.9618221,IN
Reliance Fresh,Reliance Fresh,supermarket,19.0840224,72.9973946,IN
Raymond Shop,Raymond Shop,clothes,19.1923595,72.9737078,IN
Sahakari Bhandar,Sahakari Bhandar,supermarket,18.9243285,72.83175,IN
Strand Book Stall,Strand Book Stall,books,18.934187,72.83481,IN
Britannia Cafe,Britannia Cafe,restaurant,18.9323318,72.8398242,IN
Kailash Parbat,Kailash Parbat,restaurant,18.9186498,72.8284971,IN
Cafe Madras,Cafe Madras,restaurant,19.0276726,72.8550473,IN
Tote on the Turf,Tote on the Turf,restaurant,18.9804686,72.8203758,IN
Scrumptuous,Scrumptuous,cafe,19.1359736,72.8096746,IN
R S Mani Supermarket,R S Mani Supermarket,supermarket,19.0705394,72.8988757,IN
Enrich Salons,Enrich Salons,hairdresser,19.1171272,72.9098431,IN
Seasons's Wines,Seasons's Wines,alcohol,19.1386267,72.8158504,IN
Red Box,Red Box,restaurant,19.1399689,72.8313705,IN
Caravan Serai,Caravan Serai,restaurant,19.13986,72.8313893,IN
Mango,Mango,clothes,19.1307805,72.8198019,IN
SK Wheels,SK Wheels,car,19.1393379,72.8320061,IN
Mad Over Donuts,Mad Over Donuts,bakery,19.1254948,72.8221529,IN
Salon Drama,Salon Drama,hairdresser,19.1253435,72.8222929,IN
Chintamani's,Chintamani's,jewelry,19.1950111,72.976916,IN
RL Jwellars,RL Jwellars,jewelry,19.1890116,72.9751045,IN
Shreeji's,Shreeji's,restaurant,19.148777,72.8316241,IN
Infinity Mall Food Court,Infinity Mall Food Court,restaurant,19.1412504,72.8310858,IN
Delicacy Of China,Delicacy Of China,restaurant,19.1421445,72.829096,IN
Falak Womenswear,Falak Womenswear,clothes,19.1422813,72.8291013,IN
Costa,Costa,cafe,19.1420001,72.8290745,IN
Third Wave Coffee Roasters,Third Wave Coffee Roasters,cafe,19.1467373,72.8287409,IN
Godrej Natures Basket,Godrej Natures Basket,convenience,19.1468296,72.8293642,IN
Barista,Barista,cafe,19.1466371,72.8291174,IN
Tanishq,Tanishq,jewelry,19.1374694,72.8315851,IN
Renault,Renault,car,19.1371099,72.8321829,IN
Vitesse Maruti Suzuki Service,Vitesse Maruti Suzuki Service,car_repair,19.134244,72.8320998,IN
Autobahn Skoda,Autobahn Skoda,car,19.1316654,72.8354256,IN
Volkswagen Mumbai West,Volkswagen Mumbai West,car,19.1316731,72.8352861,IN
Di Bella Coffee,Di Bella Coffee,cafe,19.1253994,72.8222426,IN
Nom Nom,Nom Nom,restaurant,19.1252302,72.8223454,IN
Banana Leaf,Banana Leaf,restaurant,19.125049,72.8225121,IN
Vikas Wines,Vikas Wines,alcohol,19.1251922,72.8223929,IN
Fiat,Fiat,car,19.1359747,72.8322553,IN
Options,Options,clothes,19.1416711,72.8300478,IN
Shreenath Hyundai,Shreenath Hyundai,car,19.1415,72.8319082,IN
Nissan,Nissan,car,19.1408374,72.8332241,IN
Mainland China,Mainland China,restaurant,19.1414769,72.8323049,IN
Domino's,Domino's,food,19.13468,72.8107326,IN
Fition Wines,Fition Wines,alcohol,19.1173314,72.8294583,IN
Some Like It Hot,Some Like It Hot,restaurant,19.1343689,72.8263899,IN
Goa Portuguesa,Goa Portuguesa,restaurant,19.1343765,72.8253653,IN
Shakti Collections,Shakti Collections,clothes,19.1297949,72.8222137,IN
Contemporary Arts & Crafts,Contemporary Arts & Crafts,craft,18.9369702,72.8338777,IN
New Majestic,New Majestic,restaurant,18.9392087,72.8343769,IN
High Point,High Point,restaurant,19.1441796,72.8241286,IN
Joseph's Cold Storage,Joseph's Cold Storage,butcher,19.0616468,72.8289941,IN
Suzette,Suzette,restaurant,19.0616511,72.829063,IN
Papa Pancho Da Dhaba,Papa Pancho Da Dhaba,restaurant,19.0616567,72.8291663,IN
Rewind The Salon,Rewind The Salon,hairdresser,19.0618528,72.8294351,IN
Urban Thai Spa,Urban Thai Spa,beauty,19.061938,72.82943,IN
Pali Bhavan,Pali Bhavan,restaurant,19.0620905,72.8294205,IN
Bombay Mattress & Furnishings,Bombay Mattress & Furnishings,bed,19.0623883,72.8294313,IN
Sony Electrical and Hardware,Sony Electrical and Hardware,doityourself,19.0623643,72.8294326,IN
Snack Shack,Snack Shack,restaurant,19.0625682,72.8296368,IN
Jude's Wines,Jude's Wines,alcohol,19.0624731,72.8296623,IN
Regal Plus,Regal Plus,convenience,19.0626125,72.8296248,IN
Jude's Cold Storage,Jude's Cold Storage,butcher,19.0625175,72.8296422,IN
Sadguru Traders,Sadguru Traders,convenience,19.0624858,72.8297629,IN
Poco Loco,Poco Loco,restaurant,19.062482,72.8297133,IN
5th Avenue,5th Avenue,clothes,19.0616365,72.8286887,IN
Kia Jewellery,Kia Jewellery,jewelry,19.0616771,72.8286431,IN
Out of the Blue,Out of the Blue,restaurant,19.0718264,72.825446,IN
Khadi Bhavan,Khadi Bhavan,clothes,18.9348682,72.8328217,IN
Suvidha,Suvidha,restaurant,18.9374417,72.8340638,IN
The Courtyard,The Courtyard,restaurant,19.1315553,72.837364,IN
National Highway Trucking Centre,National Highway Trucking Centre,fuel,19.0677432,72.9003277,IN
career classes,career classes,supermarket,19.1028855,72.9169028,IN
Ganga Vihar Restaurant,Ganga Vihar Restaurant,restaurant,19.0310254,72.845472,IN
Sainidhi,Sainidhi,restaurant,19.1481848,72.9997993,IN
Shopper's Stop,Shopper's Stop,department_store,19.0693214,72.9003822,IN
Oh Calcutta! Express,Oh Calcutta! Express,restaurant,19.1396292,72.826996,IN
Astro Cafe,Astro Cafe,cafe,19.1373689,72.8294395,IN
Alfredo's Bar And Diner,Alfredo's Bar And Diner,restaurant,19.1394688,72.8314681,IN
Volvo,Volvo,car,19.1348621,72.8323296,IN
Lucky Biryani,Lucky Biryani,restaurant,19.1509715,72.8355752,IN
Fressco's Meats And More,Fressco's Meats And More,butcher,19.1525839,72.8310748,IN
Almond Flower,Almond Flower,restaurant,19.145159,72.8294735,IN
Pet Care,Pet Care,pet,19.1294727,72.8190919,IN
Roman Super Store,Roman Super Store,convenience,19.1293992,72.8187821,IN
Sai Medical And General Stores,Sai Medical And General Stores,chemist,19.1373533,72.8292372,IN
Prithvi Cafe,Prithvi Cafe,cafe,19.1062054,72.825633,IN
Metro Wholesale,Metro Wholesale,wholesale market,19.1711716,72.8350583,IN
Bark & Meow,Bark & Meow,pet,19.128645,72.8207227,IN
Shuang Hsi,Shuang Hsi,beauty,19.1294587,72.8187456,IN
Deluxe Travels,Deluxe Travels,travel_agency,19.1295053,72.8187265,IN
Dakshin,Dakshin,restaurant,19.0657165,72.8308387,IN
Mini Punjab,Mini Punjab,restaurant,19.0653282,72.8312029,IN
"Reliance Retail ","Reliance Retail ",supermarket,19.0887329,72.8376577,IN
Society Stores,Society Stores,supermarket,19.0844444,72.8364463,IN
Ribbons & Balloons Cake Shop,Ribbons & Balloons Cake Shop,bakery,19.1930613,72.9675016,IN
Hallmark Honda,Hallmark Honda,car,19.1949355,72.9462904,IN
Millennium Toyota,Millennium Toyota,car,19.1942202,72.9514828,IN
Tata Motors,Tata Motors,car,19.1949852,72.9481645,IN
Allibhai Premji Tyrewalla,Allibhai Premji Tyrewalla,motorcycle,18.9635786,72.818327,IN
Alcohol Shop,Alcohol Shop,alcohol,19.1715047,72.8697795,IN
Caffe Coffee Day,Caffe Coffee Day,cafe,19.1726852,72.8740201,IN
Street Book Shop,Street Book Shop,books,19.1747763,72.8678539,IN
Canteen,Canteen,restaurant,19.0419918,72.9283362,IN
TISS Dining Hall,TISS Dining Hall,restaurant,19.0431931,72.9119332,IN
Washing Machine,Washing Machine,laundry,19.0424559,72.9272638,IN
Homoeopathic Dispensary,Homoeopathic Dispensary,chemist,19.1282382,72.8205537,IN
Debonair's Pizza,Debonair's Pizza,restaurant,19.1254375,72.8222001,IN
Sagar,Sagar,chemist,19.1353818,72.8130033,IN
Starbucks,Starbucks,cafe,18.9322713,72.833932,IN
I Think Fitness Cafe,I Think Fitness Cafe,cafe,19.0592055,72.8294744,IN
House of Mandarin,House of Mandarin,restaurant,19.0549394,72.8266649,IN
City Centre Mall,City Centre Mall,mall,19.1623421,72.8457567,IN
Facing East,Facing East,restaurant,19.1101036,72.8273819,IN
All star sports,All star sports,yes,19.1956736,72.9646939,IN
Guilt Trip,Guilt Trip,cafe,19.0713519,72.8241542,IN
Kiah Jewelers,Kiah Jewelers,jewelry,19.0716357,72.8338539,IN
Sea Spray Provision Store,Sea Spray Provision Store,convenience,19.0707767,72.8225462,IN
Anand Vihar Medical Store,Anand Vihar Medical Store,chemist,19.0741262,72.8280742,IN
Student's General Store,Student's General Store,convenience,18.9160053,72.8195848,IN
MG Sons Jeweler,MG Sons Jeweler,jewelry,19.0723542,72.8330369,IN
Modern Tea House,Modern Tea House,cafe,19.0752035,72.8259183,IN
Lifestyle,Lifestyle,supermarket,18.9956825,72.8258048,IN
Elephanta Restaurant,Elephanta Restaurant,restaurant,18.9667666,72.9304916,IN
Maa Laxmi Jewelry,Maa Laxmi Jewelry,jewelry,19.0392563,72.852191,IN
Maryam Milk Center,Maryam Milk Center,dairy,19.0479874,72.8259386,IN
Flour Mill,Flour Mill,yes,19.049561,72.826271,IN
Parry Wines II,Parry Wines II,alcohol,19.0500521,72.8264171,IN
Hotel Golden Punjab,Hotel Golden Punjab,restaurant,19.0735167,72.9991776,IN
Navratna Veg Restaurant - Vashi,Navratna Veg Restaurant - Vashi,restaurant,19.0732784,72.9981208,IN
Cold Cafee,Cold Cafee,cafe,19.0597612,72.9103571,IN
Baiganwadi,Baiganwadi,supermarket,19.0618939,72.9247918,IN
super market,super market,supermarket,19.0621201,72.9088413,IN
khans cafe,khans cafe,cafe,18.9520672,72.8280392,IN
shahil restaurant,shahil restaurant,restaurant,18.9515065,72.82947,IN
athar store,athar store,food,19.0652786,72.9243818,IN
Micromax Service Center,Micromax Service Center,electronics,19.076787,72.8834956,IN
Lucky Travels,Lucky Travels,travel_agency,19.0773799,72.8841053,IN
Deepak General Store,Deepak General Store,convenience,19.0629496,72.8443925,IN
Saks,Saks,beauty,19.1399707,72.8319103,IN
Star Auto Garage (Yusufbhai),Star Auto Garage (Yusufbhai),motorcycle,19.04543,72.9157503,IN
Metro Pizza,Metro Pizza,restaurant,19.0681022,72.8264504,IN
National Chemist,National Chemist,chemist,19.0325393,72.8384661,IN
Jam Jar Diner,Jam Jar Diner,restaurant,19.1328424,72.8123262,IN
Dakshinayan,Dakshinayan,restaurant,19.1129321,72.8256368,IN
Azad Timber Mart,Azad Timber Mart,supermarket,19.0383672,72.8537587,IN
Juice Center,Juice Center,cafe,19.0383759,72.8534092,IN
Tata Wasan,Tata Wasan,car,19.0543375,72.8902113,IN
ROOPAM PHARMACY,ROOPAM PHARMACY,chemist,19.0543371,72.8915656,IN
Vodafone Idea,Vodafone Idea,mobile_phone,19.1298681,72.8259008,IN
FabIndia,FabIndia,variety_store,19.1143954,72.8307062,IN
Goa Bhavan,Goa Bhavan,restaurant,19.1146924,72.8312422,IN
Tian,Tian,restaurant,19.1146927,72.8363094,IN
Treen's Beauty Parlour,Treen's Beauty Parlour,beauty,19.1241693,72.8258223,IN
Cindrella,Cindrella,beauty,19.1242288,72.8257467,IN
Princess Wines,Princess Wines,alcohol,19.1302632,72.8182525,IN
Welcome General Store,Welcome General Store,convenience,19.0412194,72.9109498,IN
apna super market,apna super market,supermarket,19.0609035,72.9053072,IN
mahatma nagar,mahatma nagar,cafe,19.0644019,72.9018073,IN
mahul,mahul,cafe,19.0295407,72.9348364,IN
amina hotel,amina hotel,restaurant,19.0676101,72.9208376,IN
Traveler's Coffee,Traveler's Coffee,cafe,18.9462778,72.8436247,IN
nehru nagar market,nehru nagar market,supermarket,19.0632141,72.8847166,IN
drfg,drfg,cafe,19.048368,72.9221477,IN
iqbal azmi,iqbal azmi,restaurant,19.0636832,72.9187511,IN
lucky restaurant,lucky restaurant,restaurant,19.0612649,72.9067792,IN
Afreen tailor,Afreen tailor,tailor,19.0631633,72.9285928,IN
karan cafe,karan cafe,cafe,19.0420352,72.9164383,IN
deepak,deepak,jewelry,19.0962058,72.9113018,IN
Sadguru,Sadguru,restaurant,19.068838,72.9059636,IN
vardhaman jewellers,vardhaman jewellers,jewelry,19.0567842,72.9154195,IN
Ganesh Tea Center,Ganesh Tea Center,cafe,19.0603312,72.9105858,IN
Abhinandan,Abhinandan,restaurant,19.0961478,72.9151919,IN
chanda cafe shop,chanda cafe shop,cafe,18.9532967,72.8360059,IN
shop,shop,chocolate,19.0637525,72.9223395,IN
lucky retail shop,lucky retail shop,supermarket,19.0633138,72.929183,IN
Chembur Railway Station Post Office,Chembur Railway Station Post Office,gift,19.06298,72.9010082,IN
ccd,ccd,cafe,19.0633635,72.9040535,IN
Sunder Tailors,Sunder Tailors,tailor,19.0646963,72.9219077,IN
Saidip restarant & Bar,Saidip restarant & Bar,restaurant,19.0492313,72.9269816,IN
babu bhi,babu bhi,yes,19.0627485,72.9286967,IN
pooja communication,pooja communication,yes,19.0629144,72.9282683,IN
dolls shops,dolls shops,supermarket,19.0581886,72.8901758,IN
nagore,nagore,cafe,19.0665095,72.924604,IN
Indian Oil,Indian Oil,fuel,28.5043431,77.1719993,IN
Panchshila Service Station,Panchshila Service Station,fuel,28.5614441,77.2227829,IN
Vasant Square Mall,Vasant Square Mall,supermarket,28.5247959,77.1561895,IN
Flavours Restaurant,Flavours Restaurant,restaurant,28.5663466,77.2340571,IN
Nirula's,Nirula's,restaurant,28.522664,77.1655706,IN
Indraprastha Gas Limited,Indraprastha Gas Limited,fuel,28.5848782,77.2602207,IN
IBP Limited,IBP Limited,fuel,28.7561213,77.147976,IN
Maruti Service Station,Maruti Service Station,car_repair,28.7641611,77.1465098,IN
Aggarwal Sweets,Aggarwal Sweets,restaurant,28.5342313,77.2145639,IN
Raju Dhaba,Raju Dhaba,restaurant,28.5308092,77.2179083,IN
Sagar Ratna,Sagar Ratna,restaurant,28.5369219,77.2118299,IN
Matri Department Store,Matri Department Store,convenience,28.5390271,77.2018735,IN
Shyam Sweets,Shyam Sweets,confectionery,28.651067,77.2281349,IN
Sagarrathna,Sagarrathna,restaurant,28.6740388,77.1037651,IN
Solar Panels,Solar Panels,electronics,28.6567331,77.2354195,IN
"Mehta Brothers (ICs, MCs)","Mehta Brothers (ICs, MCs)",electronics,28.656915,77.2359416,IN
"Mehta Electronics (ICs, MCs)","Mehta Electronics (ICs, MCs)",electronics,28.6570993,77.2359053,IN
Antennas,Antennas,electronics,28.6567874,77.2359371,IN
Dolls,Dolls,hairdresser,28.5091912,77.1647429,IN
Anand Supermart,Anand Supermart,convenience,28.509265,77.1646775,IN
Carabin Adventures,trekking equipment,outdoor,28.5381851,77.2803297,IN
In & Out,In & Out,convenience,28.5503785,77.2478224,IN
Hotel Metropolis,Hotel Metropolis,restaurant,28.6407045,77.2105994,IN
New Prominent Tailor,New Prominent Tailor,tailor,28.6351018,77.2201443,IN
Frameszon,Frameszon,optician,28.6347575,77.2200923,IN
Piccadelhi,Piccadelhi,restaurant,28.635243,77.2196937,IN
Bon Temps Cafe,Bon Temps Cafe,cafe,28.6428339,77.186576,IN
Big Apple,Big Apple,convenience,28.6324664,77.1774672,IN
Internet,Internet,cafe,28.6410051,77.2125387,IN
Bangla Foods,Bangla Foods,restaurant,28.6333595,77.2083619,IN
Nescafe,Nescafe,cafe,28.7496454,77.1167453,IN
Amar Motor Parts,Amar Motor Parts,car,28.6170865,77.2866746,IN
Canon Optician,Canon Optician,optician,28.6169036,77.2862651,IN
Auto Needs,Auto Needs,motorcycle,28.6173922,77.2871589,IN
Manohar Motor Parts,Manohar Motor Parts,car,28.6170543,77.2865691,IN
Guru Kripa Tyres,Guru Kripa Tyres,tyres,28.6166351,77.2877305,IN
City Square Mall,City Square Mall,mall,28.6501699,77.1234549,IN
Chhachhi Building,Chhachhi Building,clothes,28.6609627,77.278842,IN
Agarwal Sweet Place,Agarwal Sweet Place,restaurant,28.6653614,77.2842171,IN
Mehrasons Jewellers,Mehrasons Jewellers,jewelry,28.6386267,77.1019845,IN
Bai Dur Ya,Bai Dur Ya,restaurant,28.7035418,77.2283038,IN
Dawat Khana Restaurant,Dawat Khana Restaurant,restaurant,28.562363,77.2686705,IN
Qutub Minar Tickets,Qutub Minar Tickets,ticket,28.5254199,77.1877269,IN
MW ENTERPRIISES,MW ENTERPRIISES,electronics,28.6537296,77.132445,IN
MW INTERNATIONAL,MW INTERNATIONAL,electronics,28.6537988,77.1324402,IN
HP (NFC),HP (NFC),fuel,28.5712512,77.2598635,IN
Spice Route,Spice Route,restaurant,28.6253844,77.2181175,IN
Good Earth,Good Earth,restaurant,28.5995254,77.226395,IN
Nathus Sweets,Nathus Sweets,restaurant,28.6297269,77.2320267,IN
Bengali Sweet House,Bengali Sweet House,restaurant,28.629465,77.2318985,IN
Big Bazaar,Big Bazaar,supermarket,28.6961415,77.152883,IN
Grocery,Grocery,convenience,28.5426087,77.2973722,IN
Part 1 Customized Designer Men's Wear,Part 1 Customized Designer Men's Wear,clothes,28.5685478,77.2472168,IN
The Cotton Lawn Shop,The Cotton Lawn Shop,clothes,28.5671547,77.2450583,IN
Beauty Unisex Salon,Beauty Unisex Salon,beauty,28.5660338,77.246519,IN
Culinaire,Culinaire,restaurant,28.5307368,77.2457792,IN
Club India Restaurant,Club India Restaurant,restaurant,28.6409319,77.2137081,IN
Madan Café,Madan Café,cafe,28.6407272,77.2111472,IN
New Mt. Everest Restaurant,New Mt. Everest Restaurant,restaurant,28.641034,77.213836,IN
Andhra Bhawan Canteen,Andhra Bhawan Canteen,restaurant,28.6169212,77.225998,IN
Seva Store,Seva Store,convenience,28.5357806,77.2079787,IN
Electronic Gallery,Electronic Gallery,mobile_phone,28.7376563,77.1166344,IN
Cheela Cafe,Cheela Cafe,cafe,28.5391092,77.1322417,IN
Liquor Shop,Liquor Shop,alcohol,28.6269389,77.242672,IN
Karim's,Karim's,restaurant,28.6494286,77.2337411,IN
Pandit Kanhaiya Lal Durga Prashad Dixit Paranthe Wala,Pandit Kanhaiya Lal Durga Prashad Dixit Paranthe Wala,restaurant,28.6560678,77.2303749,IN
Moti Mahal,Moti Mahal,restaurant,28.6468875,77.2399805,IN
moti,moti,bakery,28.6169705,77.2267362,IN
nitin,nitin,supermarket,28.6845937,77.2558724,IN
Berco's,Berco's,restaurant,28.6323764,77.2172154,IN
Tantra T-shirts,Tantra T-shirts,clothes,28.627656,77.2191809,IN
The Drupal People,The Drupal People,computer,28.5337256,77.2723547,IN
Delhi Emporium,Delhi Emporium,department_store,28.6312577,77.2153721,IN
Shellka,Shellka,clothes,28.6347746,77.2195352,IN
All American Diner,All American Diner,restaurant,28.589224,77.225738,IN
Cafe Turtle,Cafe Turtle,cafe,28.6002007,77.2273465,IN
Lama Kitchen Himalayan Cook House,Lama Kitchen Himalayan Cook House,restaurant,28.5536129,77.1942284,IN
Metro,Metro,shoes,28.5679711,77.2196884,IN
Hush Puppies,Hush Puppies,shoes,28.5679825,77.2194819,IN
Nike,Nike,clothes,28.5573461,77.163798,IN
The Great Kebab Factory,The Great Kebab Factory,restaurant,28.6705911,77.1339317,IN
SETCO Yamaha Delhi,SETCO Yamaha Delhi,car,28.6523388,77.1570734,IN
Priyanka Stores,Priyanka Stores,convenience,28.5230504,77.2104968,IN
Super Departmental,Super Departmental,convenience,28.5231259,77.2108507,IN
Teresa's,Teresa's,hairdresser,28.5230269,77.2106093,IN
Wine Shop,Wine Shop,alcohol,28.5365283,77.2124237,IN
Gayway Bakers,Gayway Bakers,supermarket,28.6699715,77.142078,IN
Indian Coffee House,Indian Coffee House,restaurant,28.6306895,77.2160507,IN
Beer& Wine Shop,Beer& Wine Shop,alcohol,28.6309471,77.2213164,IN
Hira Sweets,Hira Sweets,restaurant,28.6353527,77.220063,IN
Sayam Roof Top Restaurant,Sayam Roof Top Restaurant,restaurant,28.6411417,77.2137445,IN
Souvenir Shop,Souvenir Shop,gift,28.5859771,77.1798148,IN
Cafe Diva,Cafe Diva,cafe,28.5566315,77.233279,IN
H.M. morning store,H.M. morning store,convenience,28.5499184,77.2362001,IN
Savemax,Savemax,supermarket,28.5499121,77.2589413,IN
Indian Oil Petrol Pump,Indian Oil Petrol Pump,fuel,28.6337158,77.2178321,IN
B. Singha Chatrath & Sons Sports Store,B. Singha Chatrath & Sons Sports Store,sports,28.5509561,77.2710587,IN
Decibel Scale Models,Decibel Scale Models,toys,28.7044433,77.1407229,IN
HP COCO Fuel Station,HP COCO Fuel Station,fuel,28.6601228,77.1462871,IN
Keshav Restaurant,Keshav Restaurant,restaurant,28.6337495,77.2230833,IN
Gaurav General Store,Gaurav General Store,convenience,28.5328419,77.2170519,IN
Mother Dairy,Mother Dairy,dairy,28.5981958,77.2947624,IN
Mediways Chemist,Mediways Chemist,chemist,28.5976538,77.2950244,IN
Safal Grocery Store,Safal Grocery Store,greengrocer,28.5980629,77.2946726,IN
Balaji Fruits & Vegetables,Balaji Fruits & Vegetables,greengrocer,28.598115,77.2946523,IN
Verma Electricals,Verma Electricals,electronics,28.5980738,77.2947337,IN
Impressions Men's Salon,Impressions Men's Salon,hairdresser,28.5974974,77.2951206,IN
INDIATECH247,INDIATECH247,computer,28.7268885,77.2626665,IN
GMX DESIGNER,GMX DESIGNER,supermarket,28.5760446,77.2631785,IN
subhiksha market,subhiksha market,supermarket,28.5006269,77.2353368,IN
The Exotic Rooftop Restaurant,The Exotic Rooftop Restaurant,restaurant,28.6409844,77.2137687,IN
Madras Coffee House,Madras Coffee House,cafe,28.6318506,77.2163093,IN
Delhi Haat,Delhi Haat,clothes,28.5552296,77.2644216,IN
쉼터,Shimtur,restaurant,28.6414451,77.2132453,IN
Royal China,Royal China,restaurant,28.5501843,77.2517872,IN
Safal Tea Stall,Safal Tea Stall,tea,28.6568076,77.2318832,IN
Tadka,Tadka,restaurant,28.6403009,77.2131013,IN
Green Chick Chop,Green Chick Chop,restaurant,28.527614,77.2468884,IN
Qureshi,Qureshi,restaurant,28.5276128,77.2470133,IN
Call it Asian,Call it Asian,restaurant,28.5276595,77.2467941,IN
Kwality Sweets and Restaurant,Kwality Sweets and Restaurant,restaurant,28.5280616,77.2561701,IN
Not Just Paranthas,Not Just Paranthas,restaurant,28.5323178,77.2427574,IN
Wagh Bakri Tea Lounge,Wagh Bakri Tea Lounge,cafe,28.5336384,77.2442419,IN
Oriental,Oriental,restaurant,28.5277319,77.2471116,IN
Chehel Pehel,Chehel Pehel,restaurant,28.5400918,77.234394,IN
Gianis Ice Cream,Gianis Ice Cream,restaurant,28.5399337,77.2403199,IN
Mini Market,Mini Market,general,28.6021939,77.2378353,IN
Nathu Sweets,Nathu Sweets,restaurant,28.6025805,77.2409575,IN
Sunder Nagar Market,Sunder Nagar Market,convenience,28.6020757,77.2414413,IN
Chocolateria San Churro,Chocolateria San Churro,restaurant,28.5346066,77.2436003,IN
Big Yellow Door,Big Yellow Door,restaurant,28.6950985,77.2042477,IN
Dhobhi Mart;Rico's,Dhobhi Mart;Rico's,restaurant,28.6948692,77.2042864,IN
Afghan Restaurant,Afghan Restaurant,restaurant,28.5287087,77.2126175,IN
The Liquor Store,The Liquor Store,alcohol,28.5301564,77.2194297,IN
Zingo Star,Zingo Star,restaurant,28.532347,77.2427911,IN
China Garden,China Garden,restaurant,28.5327962,77.2433094,IN
Angrezi Dhaba,Angrezi Dhaba,restaurant,28.5328507,77.2433747,IN
24 Seven,24 Seven,convenience,28.5334151,77.2439985,IN
Hao Shi Nian Nian,Hao Shi Nian Nian,restaurant,28.5332859,77.2416903,IN
Yeti,Yeti,restaurant,28.5335921,77.2421395,IN
Sapp Enterprises,Sapp Enterprises,supermarket,28.630963,77.276507,IN
Stri Shakti Canteen,Stri Shakti Canteen,cafe,28.6626448,77.2339599,IN
Supermax Dry Cleaners,Supermax Dry Cleaners,dry_cleaning,28.6326979,77.2070409,IN
Miglani restaurant,Miglani restaurant,restaurant,28.7058631,77.2121825,IN
Gupta Store,Gupta Store,convenience,28.5454462,77.1823822,IN
Safal,Safal,greengrocer,28.5455595,77.1824441,IN
Rakesh Cafeteria,Rakesh Cafeteria,restaurant,28.5482531,77.1842325,IN
Southy,Southy,restaurant,28.5481648,77.1842381,IN
"Shiru Cafe, IIT Delhi","Shiru Cafe, IIT Delhi",cafe,28.5447888,77.1911891,IN
Hunger House,Hunger House,cafe,28.6406068,77.1048726,IN
Nando's,Nando's,restaurant,28.6309879,77.2197896,IN
IGL,IGL,fuel,28.5721377,77.1374742,IN
Nagaland Cafe,Nagaland Cafe,restaurant,28.5734423,77.2062342,IN
Amour Bistro,Amour Bistro,cafe,28.6016349,77.1859966,IN
Guapa,Guapa,clothes,28.5551267,77.1945451,IN
Nescafé,Nescafé,cafe,28.6934864,77.2108906,IN
Levi's,Levi's,clothes,28.6341341,77.2187527,IN
The Colonnade,The Colonnade,restaurant,28.6342635,77.2190699,IN
Gola,Gola,restaurant,28.6352724,77.220127,IN
Krishna Shoes,Krishna Shoes,shoes,28.6467834,77.2128331,IN
Fat Lulu's,Fat Lulu's,restaurant,28.5996402,77.2262942,IN
Bangla Sweet N Spice,Bangla Sweet N Spice,confectionery,28.6337894,77.2085573,IN
Odeon sweets,Odeon sweets,restaurant,28.6334275,77.2080471,IN
Adyar Ananda Bhavan,Adyar Ananda Bhavan,restaurant,28.5572536,77.2023928,IN
Ma 3 3,Ma 3 3,alcohol,28.645342,77.2112304,IN
"subway, lavazza","subway, lavazza",cafe,28.5006053,77.1857471,IN
Imly,Imly,restaurant,28.645305,77.1785622,IN
Malhotra,Malhotra,restaurant,28.6410445,77.2105515,IN
Khurana Store,Khurana Store,yes,28.7149108,77.2160653,IN
People Tree,People Tree,clothes,28.6301669,77.2174792,IN
Sam's Cafe,Sam's Cafe,restaurant,28.6410923,77.2126799,IN
Karim's Mughal Palace,Karim's Mughal Palace,restaurant,28.5414989,77.2401446,IN
The Brown Box,The Brown Box,bakery,28.5412792,77.2156818,IN
Whipped,Whipped,bakery,28.5388421,77.2402041,IN
Shaan-e-Awadh,Shaan-e-Awadh,restaurant,28.7150797,77.2161437,IN
Cube26,Cube26,electronics,28.554429,77.2686215,IN
"Seth Jewellers ","Seth Jewellers ",jewelry,28.6606067,77.2801253,IN
"Festa Cafe ","Festa Cafe ",cafe,28.6409134,77.2104527,IN
Ajay India Tours,Ajay India Tours,travel_agency,28.7140551,77.1159961,IN
NURSES RESIDENTIAL COMPLEX,NURSES RESIDENTIAL COMPLEX,car,28.5666771,77.253564,IN
Local Shopping Complex,Local Shopping Complex,supermarket,28.69579,77.1403379,IN
Everest Communications,Everest Communications,mobile_phone,28.6407931,77.2108385,IN
Kitchen Cafe Roof Top,Kitchen Cafe Roof Top,cafe,28.6409875,77.2128901,IN
Café office office,Café office office,cafe,28.6269741,77.2202933,IN
Zaffran,Zaffran,restaurant,28.6337656,77.2213244,IN
Nepali Food,Nepali Food,restaurant,28.6411171,77.2144269,IN
IOCL Sadiq nagar,IOCL Sadiq nagar,fuel,28.5552682,77.2284238,IN
Jain Book Depot,Jain Book Depot,books,28.6346206,77.2200745,IN
New Look Salon,New Look Salon,hairdresser,28.5368335,77.2644918,IN
Domino’s Pizza,Domino’s Pizza,restaurant,28.6887399,77.134831,IN
Juice Shop,Juice Shop,beverages,28.6851622,77.1288564,IN
Kishori Store,Kishori Store,convenience,28.6852169,77.1314226,IN
Matta Sports,Matta Sports,sports,28.6846669,77.1300781,IN
Bikaner Corner Wala,Bikaner Corner Wala,restaurant,28.6836786,77.1358422,IN
Reliance Mobile Store,Reliance Mobile Store,hifi,28.69823,77.2044712,IN
Vodafone Mini Store,Vodafone Mini Store,hifi,28.6929644,77.2056247,IN
Supreme Cycle Company,Supreme Cycle Company,bicycle,28.5601846,77.2073486,IN
The Bike Shop,The Bike Shop,bicycle,28.5596956,77.2072906,IN
Giani's di Hatti,Giani's di Hatti,confectionery,28.6579313,77.2232559,IN
Pind Balluchi,Pind Balluchi,restaurant,28.6303463,77.217545,IN
Ahuja and Sons,Ahuja and Sons,computer,28.5499056,77.2508472,IN
Gupta Sports House,Gupta Sports House,sports,28.6313321,77.2197505,IN
Rajdhani,Rajdhani,restaurant,28.6298048,77.2204846,IN
CNG Pump,CNG Pump,fuel,28.5584543,77.1067343,IN
Neelam Restaurant,Neelam Restaurant,restaurant,28.6420621,77.2179887,IN
A2 ( attractive & affordable ),A2 ( attractive & affordable ),clothes,28.5438531,77.1253145,IN
"BG-6/285-C, Paschim Vihar, New Delhi","BG-6/285-C, Paschim Vihar, New Delhi",car_repair,28.6622022,77.1069248,IN
the organic tea shop,the organic tea shop,beverages,28.5657876,77.1678193,IN
Uniqlo,Uniqlo,clothes,28.6323144,77.2180249,IN
Wrangler,Wrangler,clothes,28.6333286,77.2183439,IN
Baluja's,Baluja's,clothes,28.6342961,77.2193544,IN
H&M,H&M,clothes,28.6341138,77.2187136,IN
Moments Mall,Moments Mall,mall,28.6578826,77.1460252,IN
Naivedyam,Naivedyam,restaurant,28.5549841,77.1949926,IN
Smokeys,Smokeys,restaurant,28.6005777,77.2273349,IN
Sony Centre,Sony Centre,electronics,28.6307138,77.2197015,IN
Fa Yian The Chinese Restaurant,Fa Yian The Chinese Restaurant,restaurant,28.6328293,77.2172007,IN
Gulati Spice Market,Gulati Spice Market,restaurant,28.5279771,77.2188973,IN
Keswi,Keswi,restaurant,28.6883445,77.1218091,IN
NCR,NCR,restaurant,28.6882438,77.1212148,IN
Punjabi's,Punjabi's,restaurant,28.6882544,77.1214711,IN
PAR Tech. Cyber Cafe,PAR Tech. Cyber Cafe,cafe,28.6811819,77.2610507,IN
Hero One Cycles,Hero One Cycles,bicycle,28.569701,77.2389804,IN
Export Market,Export Market,supermarket,28.5693626,77.239698,IN
Deepa Clothes,Deepa Clothes,clothes,28.5693492,77.2405251,IN
Chandrani Pearls,Chandrani Pearls,jewelry,28.5703197,77.2371641,IN
The pet shop,The pet shop,pet,28.5702369,77.2374691,IN
Smoothie factory,Smoothie factory,cafe,28.5464523,77.1965666,IN
Satkar,Satkar,clothes,28.5463441,77.1964263,IN
Shake square,Shake square,cafe,28.7009228,77.1359545,IN
Reliance store,Reliance store,department_store,28.7015222,77.1351148,IN
Vegetables,Vegetables,convenience,28.6917127,77.1167138,IN
Full Circle Bookstore,Full Circle Bookstore,books,28.6001537,77.227275,IN
Wine & Beer Shop,Wine & Beer Shop,alcohol,28.6981024,77.115816,IN
More,More Megastore (City Centre),supermarket,28.7168703,77.1142763,IN
L'Opera,L'Opera,bakery,28.5998152,77.2261697,IN
Out Of The Box (OTB),OTB,cafe,28.5997702,77.2261911,IN
Wow Cafe,Wow Cafe,restaurant,28.6412137,77.2147624,IN
Benelli Motorcycle Delhi,Benelli Motorcycle Delhi,car_repair,28.6468148,77.1977758,IN
Gulati,Gulati,restaurant,28.6078499,77.2300673,IN
U-Like,U-Like,restaurant,28.6452167,77.2110064,IN
NATRAJ restaurant,NATRAJ restaurant,restaurant,28.6424044,77.2103819,IN
Latitude,Latitude,restaurant,28.6021414,77.2279557,IN
Biryani Blues,Biryani Blues,restaurant,28.6298227,77.2205834,IN
Diggins,Diggins,restaurant,28.5557691,77.2183297,IN
Vivekanand Market,Vivekanand Market,supermarket,28.5662,77.18232,IN
Jiwan Service Station,Jiwan Service Station,fuel,28.6045138,77.2245624,IN
Shubh gems,Shubh gems,jewelry,28.5696651,77.2472534,IN
defense Bakery,defense Bakery,bakery,28.5734067,77.2307127,IN
Wenger's,Wenger's,bakery,28.6333804,77.21807,IN
Angels in My Kitchen,Angels in My Kitchen,bakery,28.5738739,77.230405,IN
The Big Chill,The Big Chill,bakery,28.5999121,77.2265009,IN
Kaliva sweets and restaurant,Kaliva sweets and restaurant,bakery,28.6279577,77.2472775,IN
The Oberoi Patisserie And Delicatessen,The Oberoi Patisserie And Delicatessen,bakery,28.5967148,77.2398221,IN
Bikanerwala Sweet,Bikanerwala Sweet,bakery,28.6482466,77.1928613,IN
Bikanervala  Sweet,Bikanervala  Sweet,bakery,28.6481583,77.1929425,IN
Shiv misthan Bander,Shiv misthan Bander,bakery,28.6500162,77.2324574,IN
Supreme Bakery,Supreme Bakery,bakery,28.5725494,77.167632,IN
Rose Cafe,Rose Cafe,cafe,28.5177312,77.1981227,IN
Alkauser ( best biryani),Alkauser ( best biryani),restaurant,28.6018922,77.1936521,IN
Aljawahir,Aljawahir,restaurant,28.6495389,77.2335887,IN
Alslam Chicken,Alslam Chicken,restaurant,28.6482081,77.2336645,IN
"Maison Des Desserts, Haul Khas Village","Maison Des Desserts, Haul Khas Village",bakery,28.5541455,77.1942344,IN
Blue Dart DHL,Blue Dart DHL,yes,28.6270888,77.2174579,IN
Bengali Sweet house & Pastry,Bengali Sweet house & Pastry,bakery,28.6294288,77.2319022,IN
Janta Sweets ( kashori samosa),Janta Sweets ( kashori samosa),bakery,28.6481235,77.2117033,IN
"Japani Samosa, opposite Moti Cinema","Japani Samosa, opposite Moti Cinema",bakery,28.6565844,77.2345987,IN
Rewari Sweet ( Lajwanti Garden) Nagal Raya,Rewari Sweet ( Lajwanti Garden) Nagal Raya,bakery,28.6137467,77.1084836,IN
Embassy Restaurant ( Samosa),Embassy Restaurant ( Samosa),restaurant,28.6336538,77.2211826,IN
Deewan Bajaj,Deewan Bajaj,car,28.5597563,77.2063106,IN
Malabar Hotel,Malabar Hotel,restaurant,28.6423302,77.2182562,IN
Hotel Madras Dx,Hotel Madras Dx,restaurant,28.642273,77.218265,IN
Hyderabadi Dum Biriyaani,Hyderabadi Dum Biriyaani,restaurant,28.6424057,77.2182489,IN
South Indian Foods,South Indian Foods,restaurant,28.6424536,77.2182429,IN
resto,resto,convenience,28.6347993,77.2126048,IN
Karim's Mughlai Restaurant,Karim's Mughlai Restaurant,restaurant,28.5528178,77.2046567,IN
Gung the Palace,Gung the Palace,restaurant,28.5567586,77.2055269,IN
fruit and vegetables market,fruit and vegetables market,greengrocer,28.5382,77.1357397,IN
Devan's at Lodhi,Devan's at Lodhi,cafe,28.5798966,77.2220134,IN
Sushant Travels,Sushant Travels,travel_agency,28.6406664,77.2113691,IN
Prakash Punj Vidya Sadan,Prakash Punj Vidya Sadan,cosmetics,28.6701353,77.2840423,IN
Everest Bakery Cafe,Everest Bakery Cafe,cafe,28.6417215,77.2147806,IN
Bholenath Travels,Bholenath Travels,travel_agency,28.6978053,77.2270228,IN
Safari Restro Lounge,Safari Restro Lounge,restaurant,28.6319603,77.2078492,IN
Rishi Vaishno Dhaba,Rishi Vaishno Dhaba,restaurant,28.6405446,77.217099,IN
Sonu,Sonu,restaurant,28.6409944,77.2127435,IN
Priti Departmental Store,Priti Departmental Store,convenience,12.9174059,77.64853,IN
Adeshwara Electronics,Adeshwara Electronics,electronics,12.9176987,77.6515426,IN
I-gate optic vision,I-gate optic vision,optics,12.9192611,77.6518197,IN
Tata Book Store,Tata Book Store,books,13.0146763,77.5681459,IN
Sukh Sagar,Sukh Sagar,restaurant,12.9333646,77.6230728,IN
Udupi Garden,Udupi Garden,restaurant,12.9163076,77.6103158,IN
Foodworld,Foodworld,supermarket,12.9328185,77.5830433,IN
Shanti Sagar,Shanti Sagar,restaurant,12.9606568,77.6385011,IN
Family Mall,Family Mall,supermarket,12.9588137,77.6382484,IN
Spencers Express,Spencers Express,supermarket,12.9591813,77.6382984,IN
More,More,supermarket,12.9595527,77.638381,IN
Nandhini,Nandhini,restaurant,12.9619513,77.6419064,IN
Nandhana,Nandhana,restaurant,12.9558995,77.6411692,IN
Cauvery Arts And Crafts Emporium,Cauvery Arts And Crafts Emporium,craft,12.9748429,77.608086,IN
Simply Native,Simply Native,restaurant,12.9651393,77.6383211,IN
TVS Sundaram Motors,TVS Sundaram Motors,car,12.9737535,77.5959935,IN
Thom's Bakery,Thom's Bakery,bakery,12.9915471,77.614181,IN
Koshy's,Koshy's,restaurant,12.9756318,77.6014761,IN
Shoba,Shoba,supermarket,13.0306094,77.6349359,IN
Smart,Smart,supermarket,13.0298925,77.6347682,IN
HP Auto Care,HP Auto Care,fuel,12.9812136,77.6570884,IN
Konārk,Konārk,restaurant,12.9688102,77.6021434,IN
Kamat Nandanvan,Kamat Nandanvan,restaurant,13.0492109,77.547547,IN
Archies Gallery,Archies Gallery,gift,13.0016175,77.5713543,IN
Old Madras Baking Company,Old Madras Baking Company,bakery,12.9697383,77.6003775,IN
Geojit Financial Services,Geojit Financial Services,mobile_phone,13.0037901,77.5691874,IN
Hard Rock Cafe,Hard Rock Cafe,restaurant,12.9762256,77.6014809,IN
Sri Raghavendra,Sri Raghavendra,restaurant,12.9778503,77.5722059,IN
Anand Sagar Punjabi Dhaba,Anand Sagar Punjabi Dhaba,restaurant,12.9760075,77.5763577,IN
Mavalli Tiffin Rooms,Mavalli Tiffin Rooms,restaurant,12.9550389,77.5854279,IN
Hyderbad Biryani House,Hyderbad Biryani House,restaurant,12.9665538,77.6141032,IN
Ginger Greens,Ginger Greens,restaurant,13.0259923,77.6405519,IN
Fresh Supermarket,Fresh Supermarket,supermarket,13.0263233,77.6319846,IN
Ruksana's Beauty Salon,Ruksana's Beauty Salon,beauty,13.0237239,77.6364982,IN
Foodworld Supermarket,Foodworld Supermarket,supermarket,13.0245569,77.6369992,IN
Style Spa,Style Spa,furniture,13.0248088,77.6369908,IN
Sabari Vegetables and Fruits,Sabari Vegetables and Fruits,greengrocer,13.0197391,77.6368364,IN
Sansar Collections,Sansar Collections,clothes,13.019526,77.6367557,IN
Thambis's Inetcafé,Thambis's Inetcafé,cafe,13.0194682,77.6332105,IN
Sip n Bite,Sip n Bite,grocery,13.0227216,77.633722,IN
Cafe Moksh,Cafe Moksh,cafe,13.028839,77.6349071,IN
Jn Style,Jn Style,beauty,13.0288296,77.6349444,IN
Hallimane,Hallimane,restaurant,12.9955258,77.5717703,IN
Kids Kemp,Kids Kemp,clothes,12.9735992,77.5803131,IN
Adiga's,Brahmin's Coffee Bar,restaurant,13.0055704,77.5713507,IN
Infinitea,Infinitea,cafe,12.9870759,77.5947417,IN
Mothercare,Mothercare,motherhood,12.9701849,77.6438014,IN
Foto Park,Foto Park,photo,13.0287412,77.6336899,IN
Danube Home,Danube Home,furniture,12.9528644,77.6994421,IN
Yo China,Yo China,restaurant,12.9504549,77.6999246,IN
Mumbai Badam & Lassi Center,Mumbai Badam & Lassi Center,beverages,12.9510696,77.5775371,IN
Guru Sagar Hotel,Guru Sagar Hotel,restaurant,12.9951833,77.5396211,IN
Fresh@Heritage,Fresh@Heritage,convenience,12.9974545,77.5403023,IN
Fair and Fair,Fair and Fair,convenience,13.0361795,77.5317658,IN
Nilgiris,Nilgiris,supermarket,13.0492252,77.5474051,IN
Smart Bazaar,Smart Bazaar,supermarket,12.9172203,77.5923138,IN
Polar Bear,Polar Bear,cafe,13.0281613,77.5732067,IN
Hav Mor,Hav Mor,restaurant,13.02807,77.5729018,IN
Photo Studio,Photo Studio,photo_studio,12.9993286,77.5408919,IN
Hyderabad House,Hyderabad House,restaurant,12.932679,77.6135844,IN
Nandhini Andhra Hotel,Nandhini Andhra Hotel,restaurant,12.9932643,77.5957899,IN
Pai Vihar,Pai Vihar,restaurant,12.9930635,77.5959522,IN
HOPCOMS,HOPCOMS,convenience,13.00559,77.570496,IN
Reliance smart,Reliance smart,supermarket,13.0061977,77.5693737,IN
Vishnu Sagar,Vishnu Sagar,restaurant,12.9901236,77.5722985,IN
MintLeaf,MintLeaf,restaurant,12.9603346,77.6382904,IN
Emirates,Emirates,restaurant,13.0192135,77.5572955,IN
RR Cycle Junction,RR Cycle Junction,bicycle,13.0192867,77.5571453,IN
City Supermarket,City Supermarket,supermarket,13.0397585,77.5555028,IN
Spencers Daily,Spencers Daily,supermarket,13.0400303,77.5555993,IN
Hindustan Petroleum,Hindustan Petroleum,fuel,13.0436252,77.5536883,IN
Bharath,Bharath,restaurant,13.0521546,77.5515881,IN
Wah Paratha,Wah Paratha,restaurant,12.9262764,77.6698353,IN
Ganesh Darshan,Ganesh Darshan,restaurant,12.9309204,77.5840319,IN
Upahara Darshini,Upahara Darshini,restaurant,12.9330581,77.584422,IN
Nagarjuna Chimney,Nagarjuna Chimney,restaurant,12.9330431,77.5843044,IN
La Casa,La Casa,restaurant,12.9261789,77.5848245,IN
The Only Place,The Only Place,restaurant,12.9732444,77.6033899,IN
Temple of The Senses,Temple of The Senses,cafe,12.9751034,77.6028435,IN
Durga Restaurant,Durga Restaurant,restaurant,13.0489683,77.5440769,IN
Aishwarya Bakery,Aishwarya Bakery,bakery,13.037202,77.6411602,IN
Udupi Sri Krishnarajathadri,Udupi Sri Krishnarajathadri,restaurant,13.0041002,77.5713906,IN
Nandini Palace,Nandini Palace,restaurant,13.0330093,77.5691944,IN
Denizen,Denizen,clothes,13.0330766,77.5694147,IN
Beijing Bites,Beijing Bites,restaurant,13.0330896,77.569359,IN
World of Titan,World of Titan,watches,13.033163,77.5691004,IN
Van Heusen,Van Heusen,clothes,13.0331351,77.5691098,IN
Koutons,Koutons,clothes,13.0332457,77.5692878,IN
Blossoms,Blossoms,books,12.9751738,77.604825,IN
Onesta,Onesta,restaurant,13.0292372,77.5708378,IN
Cane Crush,Cane Crush,juice,13.0282486,77.5727818,IN
Chung's,Chung's,restaurant,13.00654,77.5692833,IN
Sher-e-Punjab Dhaba,Sher-e-Punjab Dhaba,restaurant,13.0218399,77.5349348,IN
Adarsh Dhaba,Adarsh Dhaba,restaurant,13.0220281,77.5340657,IN
Shanthi Sagar,Shanthi Sagar,cafe,13.0369119,77.5659032,IN
RMV Club,RMV Club,restaurant,13.0380165,77.5693434,IN
Baker's Hut,Baker's Hut,bakery,13.0002063,77.5697663,IN
Hunan Chinese Restaurant,Hunan Chinese Restaurant,restaurant,13.0342347,77.5693249,IN
Kabini Canteen,Kabini Canteen,restaurant,13.0162478,77.5648911,IN
Chicken County,Chicken County,restaurant,13.0372579,77.566121,IN
Shiro,Shiro,restaurant,12.971852,77.5964092,IN
Sandhya Sagar,Sandhya Sagar,restaurant,12.9600242,77.6015444,IN
Utsav,Utsav,restaurant,12.9601639,77.5945806,IN
Families Hypermarket,Families Hypermarket,supermarket,12.9186665,77.6708407,IN
Rasa,Rasa,restaurant,12.994359,77.5711764,IN
Freska,Freska,restaurant,13.0275961,77.5766293,IN
Miller's 46,Miller's 46,restaurant,12.991491,77.5941489,IN
Naturals Unisex Salon,Naturals Unisex Salon,hairdresser,13.0075667,77.5780609,IN
Regal Voyages,Regal Voyages,travel_agency,13.0074878,77.5781867,IN
Mint Masala,Mint Masala,restaurant,13.0069868,77.5788699,IN
Juice Junction,Juice Junction,beverages,12.9720317,77.6009309,IN
Bowring Stall,Bowring Stall,cafe,12.9751155,77.6014152,IN
Shezan Restaurant,Shezan Restaurant,restaurant,12.9871688,77.5946714,IN
PPS Motors,PPS Motors,car,12.9889922,77.5925712,IN
Ramana's,Ramana's,restaurant,12.9887039,77.5939333,IN
Nisarga,Nisarga,restaurant,12.9704007,77.5874248,IN
Fernspetals,Fernspetals,florist,13.0078677,77.5795899,IN
sri lakshmi venkteshwara flower decoraters,sri lakshmi venkteshwara flower decoraters,garden_centre,12.9885784,77.5705925,IN
Jewellery shops,Jewellery shops,jewelry,12.9499142,77.616417,IN
Voltas,Voltas,electronics,13.0145146,77.5735683,IN
Parkview Hotel,Parkview Hotel,restaurant,12.9758502,77.5891031,IN
Used Car Sales,Used Car Sales,car,12.9679032,77.5893757,IN
Regal Palace Men's Salon,Regal Palace Men's Salon,hairdresser,13.0068707,77.5789709,IN
Karnakata Hardware Store,Karnakata Hardware Store,hardware,12.9641674,77.5819272,IN
Chatpat,Chatpat,restaurant,12.9671651,77.580199,IN
Sri Vinayaka Juice & Chats Center,Sri Vinayaka Juice & Chats Center,cafe,12.9742892,77.5778952,IN
Hotel Madhuvan,Hotel Madhuvan,restaurant,12.9703805,77.5800395,IN
Lakme,Lakme,hairdresser,12.9855486,77.5961594,IN
Hotel Empire,Hotel Empire,restaurant,12.9798386,77.6027906,IN
Sanman Veg,Sanman Veg,restaurant,12.9847344,77.5971261,IN
Sweet Chariot,Sweet Chariot,pastry,12.9857313,77.595832,IN
Family Super Market,Family Super Market,supermarket,12.9967968,77.6045046,IN
Arafa Stores,Arafa Stores,supermarket,12.9969644,77.6041292,IN
Benson Auto Garage,Benson Auto Garage,car_repair,12.9979339,77.6031017,IN
"Namdhari Fresh, Frazer Town","Namdhari Fresh, Frazer Town",supermarket,13.0009809,77.6138953,IN
Printo,Printo,copyshop,13.033221,77.5690234,IN
Sana Di Ge,Sana Di Ge,restaurant,12.9853914,77.5795059,IN
Pure & Natural,Pure & Natural,cafe,13.0075715,77.5793658,IN
Touch of Joy Womens' Beauty Parlor,Touch of Joy Womens' Beauty Parlor,hairdresser,13.0068023,77.5789171,IN
New Shanthi Sagar,New Shanthi Sagar,restaurant,13.0068783,77.5790907,IN
Sandeep Motors,Sandeep Motors,car,13.014501,77.5734712,IN
Scotchyard,Scotchyard,alcohol,13.0144757,77.5736759,IN
Nikki's Pub & Restaurant,Nikki's Pub & Restaurant,restaurant,13.0144093,77.5736842,IN
Sparsh,Sparsh,hairdresser,13.014347,77.5736987,IN
Sri Balaji Stores,Sri Balaji Stores,supermarket,13.014268,77.5737154,IN
Mysore Resham Emporium,Mysore Resham Emporium,clothes,12.9554112,77.5918509,IN
Coffee Day,Coffee Day,cafe,12.9736525,77.5801953,IN
LimeLite Unisex Salon & Spa,LimeLite Unisex Salon & Spa,hairdresser,12.9711284,77.5959911,IN
Espirit,Espirit,clothes,12.9708747,77.5990041,IN
Giovani,Giovani,clothes,12.9707183,77.6005293,IN
Amruth Vegetarian Restaurant,Amruth Vegetarian Restaurant,restaurant,12.9711937,77.6007788,IN
Hotel Vinitha,Hotel Vinitha,restaurant,12.982738,77.6030551,IN
Hare Krishna Pure Veg Restaurant,Hare Krishna Pure Veg Restaurant,restaurant,12.9772698,77.570304,IN
Balaji Restaurant,Balaji Restaurant,restaurant,12.9772479,77.5704213,IN
Bangalore Central,Bangalore Central,mall,12.9165004,77.5922463,IN
Fresh Cane,Fresh Cane,cafe,12.9734503,77.5751186,IN
A Masala House,A Masala House,restaurant,12.9893411,77.5929583,IN
Adidas,Adidas,sports,13.0265973,77.5933811,IN
Reebok,Reebok,clothes,13.0260757,77.5932346,IN
Kabab Manor,Kabab Manor,restaurant,13.0273116,77.5934753,IN
Mini Bazaar,Mini Bazaar,supermarket,13.0068553,77.6241647,IN
Ebony,Ebony,restaurant,12.9753625,77.6051643,IN
Trends Woman,Trends Woman,clothes,12.9130435,77.6099326,IN
Little Imperial,Little Imperial,restaurant,13.0228247,77.6477855,IN
Hyderabad Biryani House,Hyderabad Biryani House,restaurant,12.959041,77.6564566,IN
Amrutha Condiments,Amrutha Condiments,bakery,12.9139482,77.6136288,IN
Empire,Empire,restaurant,12.9699613,77.6473796,IN
Sangama Bakery,Sangama Bakery,bakery,12.9141574,77.6130763,IN
Jockey,Jockey,clothes,12.9140567,77.6099682,IN
Sri Ganesh Food Point,Sri Ganesh Food Point,restaurant,12.9149626,77.6149914,IN
Cashify,Cashify,mobile_phone,12.9136816,77.6077065,IN
Allen Solly,Allen Solly,clothes,12.9140156,77.6092776,IN
Mom & Kid,Mom & Kid,clothes,12.9136099,77.6102033,IN
Punjabi Swag,Punjabi Swag,restaurant,12.9136689,77.6099505,IN
Honey Drops,Honey Drops,alcohol,12.9138062,77.6099744,IN
Nandagokula Sabhangana,Nandagokula Sabhangana,Community Hall,12.9385924,77.5410571,IN
Nilgiris Store,Nilgiris Store,convenience,12.9410374,77.542039,IN
Udupi Upahar,Udupi Upahar,restaurant,12.9387161,77.5534116,IN
Food World,Food World,supermarket,12.925511,77.5501686,IN
Anna Kuteera,Anna Kuteera,restaurant,12.9261046,77.5502503,IN
IBP Petrol Station,IBP Petrol Station,fuel,12.9380085,77.5496081,IN
Ganesh Bhavan,Ganesh Bhavan,restaurant,12.9437007,77.5649097,IN
Eden Dhaba,Eden Dhaba,restaurant,12.931753,77.68645,IN
Heritage Fresh,Heritage Fresh,convenience,12.972735,77.678774,IN
Ruchi Restaurant,Ruchi Restaurant,restaurant,12.973597,77.678189,IN
Web Nirnaya Laptop Service Station,Web Nirnaya Laptop Service Station,computer,12.9328809,77.5835292,IN
Bhutan Board Furniture,Bhutan Board Furniture,furniture,12.9931738,77.5391448,IN
Lumiere Restaurant,Lumiere Restaurant,restaurant,12.9773708,77.6954828,IN
BLR37 Bar & Kitchen,BLR37 Bar & Kitchen,restaurant,12.9805079,77.6937246,IN
Ullas Refreshment,Ullas Refreshment,restaurant,12.9745381,77.6096029,IN
Elements,Elements,restaurant,13.0015628,77.5993592,IN
Hungry Panda,Hungry Panda,restaurant,12.934729,77.6125976,IN
New City Super Market,New City Super Market,supermarket,12.9851864,77.6736268,IN
Reddys,Reddys,restaurant,12.9855001,77.6732164,IN
Smart Cars,Smart Cars,car_repair,12.9856566,77.6730826,IN
Gokula Petrol / Gas Station,Gokula Petrol / Gas Station,fuel,12.9979379,77.6706603,IN
Nilgiri's,Nilgiri's,supermarket,12.9859601,77.6689329,IN
Cosmos,Cosmos,convenience,12.9851708,77.6716822,IN
Kund,Kund,restaurant,12.980115,77.6405511,IN
Cakes and Bakes,Cakes and Bakes,bakery,13.0291565,77.5707096,IN
Highgates Hotel,Highgates Hotel,restaurant,12.9753754,77.6028942,IN
Gangothri Restaurant,Gangothri Restaurant,restaurant,12.9377655,77.6267552,IN
Matthan,Matthan,restaurant,12.9594188,77.6486258,IN
Hotel Janardhana,Hotel Janardhana,restaurant,12.9856254,77.5788885,IN
Škoda,Škoda,car,13.0065656,77.5837018,IN
Bansuri Sweets,Bansuri Sweets,confectionery,12.9673775,77.5418993,IN
Nature Fresh,Nature Fresh,cafe,12.9673021,77.5421438,IN
Mamatha Departmental Store,Mamatha Departmental Store,convenience,12.9673129,77.5417077,IN
Vodafone,Vodafone,convenience,12.9671974,77.5428831,IN
Seetha General Store,Seetha General Store,convenience,12.9673076,77.5425508,IN
Kabab Studio,Kabab Studio,restaurant,12.9853569,77.5792692,IN
Foody's,Foody's,restaurant,12.9578638,77.5932147,IN
Olive Beach,Olive Beach,restaurant,12.966942,77.60796,IN
Bandhej,Bandhej,clothes,12.9787173,77.643786,IN
Puma,Puma,clothes,12.9569453,77.6992375,IN
Happy Mart,Happy Mart,convenience,12.956906,77.698972,IN
Lilliput,Lilliput,clothes,12.9568693,77.6987024,IN
Mahiti Infotech,Mahiti Infotech,computer,13.0376828,77.6128514,IN
Sri Vishnu Palace,Sri Vishnu Palace,restaurant,12.979486,77.6951134,IN
Plate 99 Restaurant,Plate 99 Restaurant,restaurant,12.979298,77.6951854,IN
Preethi Condiments,Preethi Condiments,bakery,12.9789845,77.6953187,IN
car accesories,car accesories,car_parts,12.9118577,77.682346,IN
Woodland,Woodland,shoes,12.9737476,77.6412627,IN
Hitech Communication,Hitech Communication,mobile_phone,12.9531128,77.6998042,IN
Damro,Damro,furniture,12.949666,77.6991298,IN
City Pearl,City Pearl,supermarket,13.022202,77.6507704,IN
7 Days,7 Days,supermarket,13.0228757,77.6509402,IN
Lakme Beauty Parlour,Lakme Beauty Parlour,hairdresser,12.9117883,77.6513699,IN
MK Retail Super Market,MK Retail Super Market,supermarket,12.9118085,77.6512869,IN
Shree Sagar CTR,Shree Sagar CTR,restaurant,12.9982568,77.5694946,IN
Olympic Sports,Olympic Sports,sports,13.0044751,77.5711942,IN
Bun World,Bun World,bakery,13.0075028,77.5635659,IN
Homely Organic,Homely Organic,supermarket,13.0043093,77.5653307,IN
Excel Dry Cleaners,Excel Dry Cleaners,laundry,12.9987298,77.5692354,IN
Food Camp,Food Camp,restaurant,13.0009296,77.5723686,IN
Sri Sai Dosa Center,Sri Sai Dosa Center,restaurant,13.0010829,77.5721394,IN
Iyengar's Bakery,Iyengar's Bakery,bakery,13.0011038,77.5723003,IN
Swadeshi,Swadeshi,clothes,12.9151274,77.6516323,IN
Next,Next,electronics,12.914646,77.651656,IN
Multiplex Hypermarket,Multiplex Hypermarket,department_store,12.914474,77.651684,IN
Eden Park,Eden Park,restaurant,12.9831559,77.5987115,IN
Sagar Automobiles,Sagar Automobiles,car,12.9308436,77.5955007,IN
India Coffee House,India Coffee House,cafe,12.9823242,77.594716,IN
Ladies Beauty Parlor,Ladies Beauty Parlor,hairdresser,12.9734041,77.653684,IN
Ann's View Bakery,Ann's View Bakery,bakery,12.972092,77.6526058,IN
Meenakshi Electricals,Meenakshi Electricals,doityourself,12.9720843,77.6534265,IN
Coffeeday Xpress,Coffeeday Xpress,cafe,12.9741202,77.653743,IN
Sue's Kitchen,Sue's Kitchen,restaurant,12.9793502,77.6421411,IN
Max,Max,clothes,12.9786915,77.6430065,IN
M K Retail,M K Retail,supermarket,12.9787281,77.6449298,IN
Bimal Maruti Sai Service Station,Bimal Maruti Sai Service Station,car_repair,12.979687,77.6422424,IN
Pai Electronics,Pai Electronics,hifi,12.9781311,77.640699,IN
Sapna Book House,Sapna Book House,books,12.9790909,77.6467497,IN
Coast to Coast Sea food restaurant,Coast to Coast Sea food restaurant,restaurant,12.9370423,77.6245906,IN
Tamrind Restaurant,Tamrind Restaurant,restaurant,12.9342471,77.6234716,IN
Kubey Seafood Restaurant,Kubey Seafood Restaurant,restaurant,12.9370998,77.6245424,IN
lal rakhra sports shop,lal rakhra sports shop,sports,12.9692586,77.6286912,IN
Udupi Swada,Udupi Swada,restaurant,12.9075699,77.5640131,IN
NJAC,NJAC,cafe,12.9089138,77.5625218,IN
Kadirenahalli Petrol Pump,Kadirenahalli Petrol Pump,fuel,12.9134732,77.5590565,IN
Prasiddhi,Prasiddhi,restaurant,12.9109843,77.5791221,IN
Nandhini Deluxe,Nandhini Deluxe,restaurant,12.9056456,77.5855728,IN
Incara,Incara,restaurant,12.9027732,77.5837541,IN
Saleem Enfield Bullet Repair Shop,Saleem Enfield Bullet Repair Shop,motorcycle,12.9711922,77.6504715,IN
Torque Car Accesories,Torque Car Accesories,car_repair,12.9690672,77.6480361,IN
Metal Works Shop,Metal Works Shop,doityourself,12.9734191,77.6513379,IN
Total Superstore,Total Superstore,supermarket,12.9827809,77.5592036,IN
U D Residency,U D Residency,restaurant,12.9363255,77.5767626,IN
Kalyani Motors,Kalyani Motors,car,12.944784,77.5290622,IN
NGMA Cafe,NGMA Cafe,cafe,12.9897809,77.5880062,IN
Hero Honda,Hero Honda,motorcycle,12.9473925,77.5337817,IN
Latte Tude,Latte Tude,cafe,12.9334642,77.6151016,IN
Lucky da dhaba,Lucky da dhaba,restaurant,12.9365445,77.6142714,IN
Lazeej,Lazeej,restaurant,12.9338202,77.6193658,IN
Meghna Biryani,Meghna Biryani,restaurant,12.9345967,77.6162526,IN
Zheng,Zheng,restaurant,12.9336119,77.6152238,IN
Golmal Paratha,Golmal Paratha,restaurant,12.9338304,77.6194655,IN