name,name_en,service_type,lat,lng,country_code
Estetica Lord's,Estetica Lord's,hairdresser,19.3559748,-99.1564423,MX
Bicipuma,Bicipuma,rental,19.3334958,-99.1808107,MX
Bicipuma Estadio Tapatio Mendez,Bicipuma Estadio Tapatio Mendez,rental,19.3257819,-99.1878175,MX
Toks,Toks,restaurant,19.3453094,-99.1722996,MX
Gandhi Oportunidades,Gandhi Oportunidades,books,19.3476329,-99.1819828,MX
Gandhi Librería Mauricio Achar,Gandhi Librería Mauricio Achar,books,19.3472627,-99.1822775,MX
Octavio Paz,Octavio Paz,books,19.3473494,-99.1826437,MX
Walmart Express,Walmart Express,supermarket,19.3350242,-99.1990842,MX
Starbucks,Starbucks,cafe,19.3495012,-99.1969644,MX
Santo Domingo,Santo Domingo,bakery,19.3465335,-99.1803399,MX
La Estación,La Estación,restaurant,19.3885172,-99.19095,MX
El Jarocho,El Jarocho,cafe,19.3512139,-99.1618279,MX
Cielito Lindo,Cielito Lindo,cafe,19.3734431,-99.1833221,MX
Chedraui,Chedraui,supermarket,19.4829502,-99.0358169,MX
Barracuda Diner,Barracuda Diner,restaurant,19.4159735,-99.1696719,MX
La Biela,La Biela,restaurant,19.416362,-99.1706075,MX/home/hoanld/Desktop/location-service/rwz-location-generator/processed-stores/ph-stores.csv
Cavi,Cavi,cafe,19.3962186,-99.1763346,MX
Extra,Extra,convenience,19.3961815,-99.1738933,MX
Chili's,Chili's,restaurant,19.395757,-99.1719772,MX
La Strega,La Strega,restaurant,19.3953223,-99.1722289,MX
El Samurai,El Samurai,restaurant,19.3942701,-99.1784481,MX
Inn Nueva York,Inn Nueva York,fuel,19.3899237,-99.1750775,MX
7-Eleven,7-Eleven,convenience,19.4012256,-99.1701794,MX
Oxxo,Oxxo,convenience,19.3935097,-99.1758998,MX
Wings Puerto Aereo,Wings Puerto Aereo,restaurant,19.4343614,-99.0887508,MX
Sanborns,Sanborns,department_store,19.3955216,-99.1808872,MX
Suntory,Suntory,restaurant,19.392707,-99.1718061,MX
Japanese,Japanese,restaurant,19.3902748,-99.1721887,MX
Pizza Hut,Pizza Hut,restaurant,19.397131,-99.1641036,MX
Soriana,Soriana,supermarket,19.4025066,-99.1541215,MX
La Mansion,La Mansion,restaurant,19.3908224,-99.1731207,MX
Pajares,Pajares,restaurant,19.3930539,-99.174937,MX
BMW San Antonio,BMW San Antonio,car,19.3862336,-99.1752088,MX
Bahía Capital,Bahía Capital,restaurant,19.3866468,-99.1750622,MX
Le Gourmet,Le Gourmet,restaurant,19.394006,-99.1754848,MX
Rafaello's,Rafaello's,restaurant,19.3929697,-99.1757938,MX
Giancarlo's,Giancarlo's,restaurant,19.3888172,-99.1780817,MX
China Inn,China Inn,restaurant,19.3887015,-99.1777088,MX
Chiandoni,Chiandoni,cafe,19.3862741,-99.1770297,MX
Vips,Vips,restaurant,19.3843056,-99.175222,MX
Nissan,Nissan,car,19.3968098,-99.1813157,MX
Sal y Dulce Artesanos,Sal y Dulce Artesanos,cafe,19.432335,-99.1643219,MX
Super K,Super K,convenience,19.4322392,-99.1643715,MX
esquina 26,esquina 26,cafe,19.4324409,-99.1641049,MX
Pemex,Pemex,fuel,19.3085933,-99.1344258,MX
"Mercado de Sagitario III, ""San Miguel""","Mercado de Sagitario III, ""San Miguel""",convenience,19.4942542,-99.0225413,MX
Establo,Establo,doityourself,19.4935298,-99.0227468,MX
El Porton,El Porton,restaurant,19.4784799,-99.0952666,MX
Waldo´s,Waldo´s,convenience,19.4786293,-99.0944911,MX
Walmart Supercenter,Walmart Supercenter,supermarket,19.4796135,-99.0956273,MX
Centro Commercial Perisur,Centro Commercial Perisur,supermarket,19.3041679,-99.1899965,MX
Azul y Oro,Azul y Oro,restaurant,19.3136655,-99.1850155,MX
Libreria Julio Torri,Libreria Julio Torri,books,19.3136233,-99.1850907,MX
Gino's Insurgentes,Gino's Insurgentes,restaurant,19.370567,-99.1797348,MX
Panadería Caramel,Panadería Caramel,bakery,19.3561983,-99.1552084,MX
Ornela,Ornela,restaurant,19.3565075,-99.1549885,MX
Lumen,Lumen,stationery,19.3412434,-99.1398319,MX
El Globo,El Globo,bakery,19.3407427,-99.1361315,MX
Fitness Station,Fitness Station,sports,19.3299728,-99.128797,MX
K,K,convenience,19.3362768,-99.1294527,MX
Steren,Steren,electronics,19.3175999,-99.1288452,MX
Potzolcalli,Potzolcalli,restaurant,19.3453887,-99.1683757,MX
Farmacias del Ahorro,Farmacias del Ahorro,chemist,19.3816707,-99.1718041,MX
Fonda 99.99,Fonda 99.99,restaurant,19.3753419,-99.1736325,MX
Konditori,Konditori,restaurant,19.3751815,-99.1788909,MX
El Fogoncito,El Fogoncito,restaurant,19.3661798,-99.1791096,MX
Nagaoka,Nagaoka,restaurant,19.3915426,-99.1746948,MX
Tintoreria Álvarez,Tintoreria Álvarez,dry_cleaning,19.3548756,-99.1584982,MX
Saint Crepier,Saint Crepier,restaurant,19.3451242,-99.1695675,MX
Librería Bonilla,Librería Bonilla,books,19.3452477,-99.1705836,MX
Haru Maki,Haru Maki,restaurant,19.3451559,-99.1698111,MX
J. García López,J. García López,funeral_directors,19.3452259,-99.1704131,MX
Happy's Pizza,Happy's Pizza,restaurant,19.3451395,-99.1696538,MX
Tamales Flor de Lis,Tamales Flor de Lis,restaurant,19.3451876,-99.170093,MX
Honda Coyoacán,Honda Coyoacán,car,19.3448225,-99.168701,MX
Maiper,Maiper,confectionery,19.3448199,-99.1672672,MX
Comex,Comex,paint,19.3448799,-99.1676777,MX
El Sótano,El Sótano,books,19.346509,-99.179819,MX
Sushi Itto,Sushi Itto,restaurant,19.3459911,-99.1770334,MX
El Sótano de los Niños,El Sótano de los Niños,books,19.3464841,-99.1794514,MX
O'Xacobeo,O'Xacobeo,restaurant,19.4195529,-99.1609089,MX
Sumesa,Sumesa,supermarket,19.3942515,-99.1594436,MX
La Guadalupana,La Guadalupana,convenience,19.3682626,-99.1872799,MX
San José,San José,restaurant,19.3675608,-99.1818053,MX
La Posta,La Posta,restaurant,19.3449471,-99.1578549,MX
Super ISSSTE,Super ISSSTE,supermarket,19.3287345,-99.1086677,MX
Fisher's,Fisher's,restaurant,19.3889034,-99.1767765,MX
Café Palacio,Café Palacio,restaurant,19.3930072,-99.1732204,MX
Volkswagen Cresta Narvarte,Volkswagen Cresta Narvarte,car,19.3985007,-99.1555352,MX
KIA Del Valle,KIA Del Valle,car,19.3809081,-99.1589314,MX
Wings,Wings,restaurant,19.3757354,-99.140967,MX
Superama,Superama,supermarket,19.3816775,-99.1625852,MX
BMW Motohaus,BMW Motohaus,motorcycle,19.3398417,-99.1525332,MX
Waldo's,Waldo's,supermarket,19.3543395,-99.1518479,MX
Circle K,Circle K,convenience,19.3548808,-99.1525617,MX
Benedetis Pizza,Benedetis Pizza,restaurant,19.4084563,-99.1616211,MX
Hooters,Hooters,restaurant,19.3499518,-99.1864371,MX
La Europea,La Europea,beverages,19.3487894,-99.1864416,MX
Sushi Roll,Sushi Roll,restaurant,19.3885973,-99.1742263,MX
Café Gabi's,Café Gabi's,cafe,19.426186,-99.1598407,MX
Frankfurt,Frankfurt,restaurant,19.4094062,-99.1755542,MX
Specia,Specia,restaurant,19.4106504,-99.1678157,MX
Aeroméxico,Aeroméxico,travel_agency,19.3516255,-99.1866084,MX
Go Mart,Go Mart,convenience,19.3022286,-99.16536,MX
Italiannis,Italiannis,restaurant,19.4112792,-99.1553817,MX
IHOP,IHOP,restaurant,19.3944515,-99.1729552,MX
Comercial Mexicana,Comercial Mexicana,supermarket,19.4602714,-99.1934323,MX
Gascasonica,Gascasonica,supermarket,19.4616674,-99.1923809,MX
Mercado Escandón,Mercado Escandón,convenience,19.4023955,-99.1774746,MX
B Store Pilares,B Store Pilares,video,19.3758521,-99.161874,MX
Costco,Costco,wholesale,19.3872395,-99.1906814,MX
Papelera Dabo,Papelera Dabo,department_store,19.3724215,-99.1406998,MX
Taquería El Huequito,Taquería El Huequito,restaurant,19.3819791,-99.179864,MX
Green Corner,Green Corner,convenience,19.4144162,-99.1772819,MX
Office Depot,Office Depot,stationery,19.3575535,-99.1988878,MX
El Tizoncito,El Tizoncito,restaurant,19.359697,-99.1978402,MX
Hella Shop,Hella Shop,car,19.3356484,-99.1403336,MX
La Tavola,La Tavola,restaurant,19.3921348,-99.1708091,MX
Casa de Pepe,Casa de Pepe,restaurant,19.3697982,-99.1805126,MX
Ruben's Hamburgers Insurgentes,Ruben's Hamburgers Insurgentes,restaurant,19.3887302,-99.1738819,MX
Blockbuster,Blockbuster,video,19.3407672,-99.13708,MX
Bicipuma Química,Bicipuma Química,rental,19.3306988,-99.181562,MX
Todo de Cartón,Todo de Cartón,stationery,19.3887026,-99.1729839,MX
Gayosso Félix Cuevas,Gayosso Félix Cuevas,funeral_directors,19.3715868,-99.1674813,MX
Sunshine,Sunshine,hairdresser,19.3777345,-99.161581,MX
La Esperanza,La Esperanza,bakery,19.3709634,-99.1653509,MX
Deigo,Deigo,restaurant,19.3779779,-99.1615348,MX
El Rincón del Parque,El Rincón del Parque,restaurant,19.3796051,-99.1619776,MX
OfficeMax,OfficeMax,stationery,19.3598799,-99.171297,MX
Pizzas Plaza Coyoacán,Pizzas Plaza Coyoacán,restaurant,19.3448754,-99.1638672,MX
Dormimundo Valle,Dormimundo Valle,bed,19.3872452,-99.167263,MX
SpeeDee Universidad,SpeeDee Universidad,car_repair,19.360631,-99.1717036,MX
Centro Corporativo Automotriz,Centro Corporativo Automotriz,car_repair,19.3634919,-99.1731286,MX
Garabatos Insurgentes,Garabatos Insurgentes,restaurant,19.3948726,-99.1724681,MX
Mercado San Juan de Aragón Sec. 2,Mercado San Juan de Aragón Sec. 2,convenience,19.4540084,-99.0856018,MX
Cafeteria Kontiki,Cafeteria Kontiki,cafe,19.4538769,-99.085237,MX
"Area de comidas, Mercado San Juan de Aragón sec. 2","Area de comidas, Mercado San Juan de Aragón sec. 2",restaurant,19.4537883,-99.0854076,MX
Bodega Aurrera,Bodega Aurrera,supermarket,19.4654566,-99.0821376,MX
Vive,Vive,cafe,19.4327851,-99.1486139,MX
Las Barricas,Las Barricas,alcohol,19.4117658,-99.0276652,MX
Cafe Emir,Cafe Emir,cafe,19.4242694,-99.1647455,MX
Bicimaniacos,Bicimaniacos,bicycle,19.3952265,-99.1549148,MX
Enbiciados Bike,Enbiciados Bike,bicycle,19.385666,-99.1676379,MX
People for Bikes,People for Bikes,bicycle,19.4164423,-99.1569188,MX
Bicicletería Piñon Fijo,Bicicletería Piñon Fijo,bicycle,19.4205672,-99.1745719,MX
"Lecaroz ""El Norte""","Lecaroz ""El Norte""",bakery,19.4803836,-99.0651475,MX
Neto,Neto,convenience,19.4805859,-99.0659308,MX
Mercado de Jamaica,Mercado de Jamaica,florist,19.4085623,-99.1229136,MX
CFE,CFE,toys,19.427338,-99.1729738,MX
Gino's Guadalupe Inn,Gino's Guadalupe Inn,restaurant,19.3579591,-99.1843196,MX
Gandhi Coyoacán,Gandhi Coyoacán,books,19.3484987,-99.1632302,MX
Cafetería Diseño Industrial,Cafetería Diseño Industrial,cafe,19.3322765,-99.1831899,MX
Sanborns Café,Sanborns Café,cafe,19.4873845,-99.1250996,MX
El Gallito,El Gallito,restaurant,19.4032812,-99.1691022,MX
Pane en Via,Pane en Via,restaurant,19.4051544,-99.1692072,MX
Séptimo,Séptimo,restaurant,19.3474414,-99.163464,MX
Fonda San Angel,Fonda San Angel,restaurant,19.3449431,-99.1916174,MX
Área de juegos,Área de juegos,toys,19.4621565,-99.147969,MX
Estrella del Valle,Estrella del Valle,car_repair,19.3763025,-99.16869,MX
El Charco de las Ranas,El Charco de las Ranas,restaurant,19.370767,-99.1856271,MX
Gazuza,Gazuza,cafe,19.337003,-99.1836654,MX
Café Papalotl,Café Papalotl,restaurant,19.3363609,-99.1835747,MX
Trattoria Urbana,Trattoria Urbana,restaurant,19.3370578,-99.1834288,MX
Instituto de Contadores Publicos,Instituto de Contadores Publicos,books,19.3370383,-99.1843097,MX
El Che,El Che,cafe,19.3369447,-99.1834966,MX
Zihuatlpiltzin,Zihuatlpiltzin,cafe,19.3360627,-99.1810269,MX
Allende,Allende,restaurant,19.3369814,-99.1831902,MX
El Morral,El Morral,restaurant,19.3504246,-99.1617503,MX
Flexi,Flexi,shoes,19.3497016,-99.1613429,MX
Kam Ling,Kam Ling,restaurant,19.3495493,-99.16092,MX
El Sheik,El Sheik,restaurant,19.3566113,-99.1684555,MX
Sushi-itto Coyoacán,Sushi-itto Coyoacán,restaurant,19.3562913,-99.1685637,MX
Under the Volcano Books,Under the Volcano Books,books,19.413175,-99.1565469,MX
MEGA Soriana,MEGA Soriana,supermarket,19.3894124,-99.0408118,MX
Bicipuma Estadio Olímpico,Bicipuma Estadio Olímpico,rental,19.3314461,-99.1894954,MX
Bordados Rikami,Bordados Rikami,clothes,19.3413454,-99.1712154,MX
Café Rikami,Café Rikami,cafe,19.3413656,-99.1713602,MX
Julius Pizza / Telcoda NG,Julius Pizza / Telcoda NG,restaurant,19.3364155,-99.1368081,MX
Bodega Aurrera Express,Bodega Aurrera Express,convenience,19.3906266,-99.0355265,MX
Gelee,Gelee,restaurant,19.3736926,-99.1606679,MX
"Pozoleria ""La Troje""","Pozoleria ""La Troje""",restaurant,19.3997047,-99.1248161,MX
Liverpool,Liverpool,department_store,19.3032089,-99.1242509,MX
Sears,Sears,department_store,19.302574,-99.122231,MX
SingleGear,SingleGear,bicycle,19.3340078,-99.1534811,MX
CobraGT700,CobraGT700,toys,19.3339728,-99.1534862,MX
Suburbia,Suburbia,clothes,19.4707339,-99.1183056,MX
"Panadería ""La Paty""","Panadería ""La Paty""",bakery,19.4733335,-99.1269678,MX
"""Lonja Mercantil San Rafael""","""Lonja Mercantil San Rafael""",convenience,19.4729845,-99.1314162,MX
Quality Bakery,Quality Bakery,bakery,19.4674647,-99.1236493,MX
Cervezas Artesanales,Cervezas Artesanales,alcohol,19.4736198,-99.1267794,MX
Waldo´s Dollar Mart,Waldo´s Dollar Mart,supermarket,19.4641588,-99.1263415,MX
Bisquets Obregón,Bisquets Obregón,restaurant,19.4719217,-99.1234322,MX
Pizzas Tomy,Pizzas Tomy,restaurant,19.472049,-99.1237432,MX
La Casa del Pavo,La Casa del Pavo,restaurant,19.4326846,-99.137356,MX
Super Delicatessen,Super Delicatessen,convenience,19.4176264,-99.1736033,MX
"Café ""El embrujo de Chiapas""","Café ""El embrujo de Chiapas""",cafe,19.4775846,-99.1246886,MX
Flores (Puesto de Flores),Flores (Puesto de Flores),florist,19.470708,-99.1255182,MX
Abarrotes Sagitario,Abarrotes Sagitario,convenience,19.4706314,-99.124747,MX
Tlapalería San Rafael,Tlapalería San Rafael,doityourself,19.4699974,-99.1252057,MX
"Abarrotes ""La Luz""","Abarrotes ""La Luz""",convenience,19.4710405,-99.1259399,MX
"Abarrotes ""Atomic""","Abarrotes ""Atomic""",convenience,19.4710873,-99.1265696,MX
"Abarrotes ""Toñolín""","Abarrotes ""Toñolín""",convenience,19.4706056,-99.126913,MX
Taller eléctrico,Taller eléctrico,car_repair,19.4710632,-99.1264737,MX
Vulcanizadora,Vulcanizadora,car_repair,19.4690744,-99.1275808,MX
"Abarrotes ""La Fortaleza""","Abarrotes ""La Fortaleza""",convenience,19.4721455,-99.1295609,MX
Taller de Holatería y pintura,Taller de Holatería y pintura,car_repair,19.4713971,-99.1273802,MX
Bollería Mexicana,Bollería Mexicana,bakery,19.4721533,-99.129736,MX
Apolo,Apolo,restaurant,19.4672321,-99.1213005,MX
El Portón,El Portón,restaurant,19.469517,-99.116152,MX
Súper Precio,Súper Precio,convenience,19.4770742,-99.1248946,MX
"Panadería ""Buen Tono""","Panadería ""Buen Tono""",bakery,19.4781363,-99.1250448,MX
Café Jeke Emir,Café Jeke Emir,cafe,19.4279829,-99.1369573,MX
El Parnita,El Parnita,restaurant,19.4140824,-99.1625995,MX
Cluny,Cluny,restaurant,19.3464043,-99.1893478,MX
Bodega Comercial Mexicana,Bodega Comercial Mexicana,supermarket,19.3950409,-99.0510813,MX
Sistemas de Escape,Sistemas de Escape,car_repair,19.4005881,-99.1244494,MX
Vanity Universidad,Vanity Universidad,clothes,19.365712,-99.1676327,MX
Bodegas Alianza,Bodegas Alianza,alcohol,19.3525783,-99.1448618,MX
Renault,Renault,car,19.3543505,-99.1443485,MX
Volkswagen Dalton Copilco,Volkswagen Dalton Copilco,car,19.3373447,-99.1843817,MX
tacos el güero,tacos el güero,restaurant,19.3656261,-99.1757417,MX
Lavados y Planchados S.A.,Lavados y Planchados S.A.,laundry,19.3681848,-99.1776844,MX
El Palacio de Hierro,El Palacio de Hierro,department_store,19.304458,-99.1919322,MX
Belmondo,Belmondo,restaurant,19.4197188,-99.157678,MX
MOG,MOG,restaurant,19.4186954,-99.1564652,MX
Gasolinera BP,Gasolinera BP,fuel,20.6881834,-103.2941429,MX
Vinos Giralda,Vinos Giralda,alcohol,20.6859953,-103.2948081,MX
Waldos Dolar Mart,Waldos Dolar Mart,supermarket,20.6977306,-103.3809616,MX
Ford Country;Seminuevos Country,Ford Country;Seminuevos Country,car,20.6995374,-103.374457,MX
Servicio Country,Servicio Country,car_repair,20.700172,-103.3747872,MX
Librería VERBUM,Librería VERBUM,books,20.6333386,-103.397935,MX
Cyber,Cyber,kiosk,20.600189,-103.3775261,MX
Librería Porrua Mariano Otero,Librería Porrua Mariano Otero,books,20.6509791,-103.3978655,MX
Hamburguesería,Hamburguesería,restaurant,20.6734478,-103.365798,MX
Antena Café,Antena Café,cafe,20.6732534,-103.3653079,MX
Pizzas Hipster,Pizzas Hipster,restaurant,20.6731725,-103.3650238,MX
Il Diavolo,Il Diavolo,restaurant,20.673655,-103.3763757,MX
Casa Bariachi,Casa Bariachi,restaurant,20.6742924,-103.3784464,MX
Tienda ISSTE,Tienda ISSTE,supermarket,20.6628483,-103.2957049,MX
tienda de abarrotes,tienda de abarrotes,convenience,20.6594725,-103.2865073,MX
Taller autos,Taller autos,car_repair,20.6607349,-103.2833369,MX
Licoreria,Licoreria,alcohol,20.660686,-103.2847505,MX
Taller autos (mecanica gral.),Taller autos (mecanica gral.),car_repair,20.6604764,-103.2830714,MX
Tiendita,Tiendita,convenience,20.661725,-103.283577,MX
Taller de Motos,Taller de Motos,car_repair,20.6613096,-103.2899312,MX
Taller autos (cluch y frenos),Taller autos (cluch y frenos),car_repair,20.6609445,-103.285189,MX
Estetica unisex,Estetica unisex,hairdresser,20.6588212,-103.2858917,MX
Carnicería,Carnicería,butcher,20.6589844,-103.283982,MX
Estetoca unisex,Estetoca unisex,hairdresser,20.6605504,-103.2858274,MX
Pastelería,Pastelería,bakery,20.6606332,-103.2859668,MX
Lavandería Acuamatic,Lavandería Acuamatic,laundry,20.6579704,-103.2933309,MX
Taller autos (mecanica gral),Taller autos (mecanica gral),car_repair,20.6601376,-103.2843897,MX
Florería 24/7,Florería 24/7,florist,20.6618806,-103.2945928,MX
Vinateria y Modelorama,Vinateria y Modelorama,alcohol,20.6618818,-103.293044,MX
Tienda OXXO,Tienda OXXO,convenience,20.6622382,-103.2983613,MX
"Llantera, acumuladores, servicio mecanico gral.","Llantera, acumuladores, servicio mecanico gral.",car_repair,20.661356,-103.2912924,MX
Tienda Extra,Tienda Extra,convenience,20.6630036,-103.2897179,MX
Llantera,Llantera,car_repair,20.6618517,-103.2927864,MX
Abarrotes,Abarrotes,convenience,20.6616886,-103.2930707,MX
Floreria 24/7,Floreria 24/7,florist,20.6625294,-103.2993633,MX
Cafe y helados,Cafe y helados,cafe,20.6625256,-103.2851837,MX
Licorería y Modelorama,Licorería y Modelorama,alcohol,20.6626222,-103.2857027,MX
Mueblería y Juguetería,Mueblería y Juguetería,toys,20.6610373,-103.2861103,MX
Puesto de periodicos,Puesto de periodicos,kiosk,20.6611779,-103.2873306,MX
Auto-electrico,Auto-electrico,car_repair,20.6598778,-103.2861533,MX
Cerrajería,Cerrajería,kiosk,20.660824,-103.2857765,MX
Papelería y regalos,Papelería y regalos,gift,20.6595378,-103.286341,MX
Walmart,Walmart,supermarket,20.6280154,-103.25737,MX
Auto-eléctrico,Auto-eléctrico,car_repair,20.6612674,-103.2897145,MX
Puesto de periodico,Puesto de periodico,kiosk,20.6622462,-103.2984169,MX
Semillas y cereales,Semillas y cereales,convenience,20.6609409,-103.2946144,MX
Cerrajero,Cerrajero,kiosk,20.6638891,-103.2964839,MX
Opticas Bosco,Opticas Bosco,kiosk,20.6639092,-103.2983615,MX
Tienda de regalos,Tienda de regalos,gift,20.6627372,-103.2995189,MX
Articulos Militares,Articulos Militares,clothes,20.6637222,-103.2953038,MX
Mofles,Mofles,car_repair,20.6634813,-103.2953292,MX
Taller y refacciones para bicicleta,Taller y refacciones para bicicleta,bicycle,20.6636224,-103.294082,MX
Venta y reparación de guitarras,Venta y reparación de guitarras,music,20.6635484,-103.2940089,MX
Transmiciones Automaticas,Transmiciones Automaticas,car_repair,20.663547,-103.2939371,MX
Venta y reparación de bicicletas,Venta y reparación de bicicletas,bicycle,20.6630724,-103.2909845,MX
Vinos y Licores,Vinos y Licores,alcohol,20.6615861,-103.2904991,MX
Suspenciones y amortiguadores,Suspenciones y amortiguadores,car_repair,20.6614261,-103.2889058,MX
Rossy,Rossy,hairdresser,20.6615842,-103.2881119,MX
Ropa,Ropa,clothes,20.6619362,-103.285604,MX
Laminado y pintura,Laminado y pintura,car_repair,20.6592484,-103.2856824,MX
Aqua Matic,Aqua Matic,laundry,20.6304973,-103.2660291,MX
Ruvalcaba,Ruvalcaba,doityourself,20.6313959,-103.2639316,MX
Gasolinera Belisario,Gasolinera Belisario,fuel,20.7095753,-103.3110886,MX
Taller Vida,Taller Vida,car_repair,20.6348444,-103.2760445,MX
Funerales San José,Funerales San José,funeral_directors,20.6309374,-103.378099,MX
Elektra,Elektra,department_store,20.629238,-103.374612,MX
Zapateria 6 estrellas,Zapateria 6 estrellas,shoes,20.6293158,-103.374829,MX
Cremeria la higienica,Cremeria la higienica,dairy,20.6296145,-103.374708,MX
los gueros,los gueros,alcohol,20.6724018,-103.2887453,MX
Mi Piragua,Mi Piragua,restaurant,20.7346533,-103.3661822,MX
Sandys,Sandys,restaurant,20.7441397,-103.3861407,MX
SuperDulcería La Reyna de Abastos,SuperDulcería La Reyna de Abastos,confectionery,20.6570546,-103.3808433,MX
Mercado de Lomas,Mercado de Lomas,supermarket,20.745657,-103.3989674,MX
La giralda,La giralda,alcohol,20.7416991,-103.3851731,MX
La playa,La playa,alcohol,20.7474056,-103.385106,MX
TIENDA DE ROPA,TIENDA DE ROPA,clothes,20.7002303,-103.291231,MX
"CARNES EN SU JUGO ","CARNES EN SU JUGO ",restaurant,20.7000624,-103.2906556,MX
MARISCOS TANILO,MARISCOS TANILO,restaurant,20.7001308,-103.2911859,MX
ESTETICA SAFIRA,ESTETICA SAFIRA,hairdresser,20.7002807,-103.2907765,MX
MARISCOS EL CARNAL,MARISCOS EL CARNAL,restaurant,20.7004107,-103.2908312,MX
Mariscos,Mariscos,restaurant,20.6275047,-103.369877,MX
Zapateria,Zapateria,shoes,20.6278988,-103.370895,MX
Pasteles Tita,Pasteles Tita,bakery,20.6974477,-103.3422349,MX
Abarrotes Don Luis,Abarrotes Don Luis,convenience,20.6974615,-103.3423549,MX
Restaurant Turismo,Restaurant Turismo,restaurant,20.7410616,-103.3800032,MX
Café Olé,Café Olé,cafe,20.7410299,-103.3812061,MX
France Look Saloon,France Look Saloon,hairdresser,20.7311569,-103.3450277,MX
Vinos América,Vinos América,alcohol,20.6662598,-103.3884951,MX
departamento de geografia,departamento de geografia,books,20.6935048,-103.351259,MX
Gonvill,Gonvill,books,20.6782874,-103.3471573,MX
Sirloin Stockade,Sirloin Stockade,restaurant,20.6750081,-103.3487321,MX
Jardin del Señor Grande,Jardin del Señor Grande,garden_centre,20.6357599,-103.3723207,MX
Tortas Ahogadalajara,Tortas Ahogadalajara,restaurant,20.6369748,-103.3711512,MX
Cafetería,Cafetería,cafe,20.740486,-103.3770348,MX
Librería Universitaria,Librería Universitaria,books,20.7381793,-103.3807145,MX
La Menudería,La Menudería,restaurant,20.6692848,-103.3637371,MX
La Cafeteria,La Cafeteria,cafe,20.672214,-103.3626312,MX
La Teteria,La Teteria,cafe,20.6718852,-103.3626231,MX
La Panaderia,La Panaderia,bakery,20.672362,-103.3628163,MX
Mina la Antigua,Mina la Antigua,restaurant,20.6725974,-103.36114,MX
Panini Point,Panini Point,yes,20.672511,-103.367843,MX
La Tiendita de Guadalajara,La Tiendita de Guadalajara,convenience,20.672669,-103.3974445,MX
OhLaLa,OhLaLa,bakery,20.6866128,-103.3868671,MX
Tacos Providencia,Tacos Providencia,restaurant,20.6769558,-103.3931611,MX
Valar Tacos,Valar Tacos,restaurant,20.6783848,-103.3974875,MX
Boga7,Boga7,clothes,20.678148,-103.3974567,MX
Becky Estetica,Becky Estetica,beauty,20.678021,-103.397471,MX
Juguetega,Juguetega,toys,20.6783558,-103.3970848,MX
Battery Depot,Battery Depot,batteries,20.6784444,-103.3967931,MX
Dormimania,Dormimania,bed,20.678413,-103.3969484,MX
El Polo Norte,El Polo Norte,restaurant,20.6794224,-103.3726149,MX
Furter,Furter,restaurant,20.6953449,-103.3837043,MX
Librería del Fondo José Luis Martínez,Librería del Fondo José Luis Martínez,books,20.6730592,-103.3688986,MX
Gandhi,Gandhi,books,20.6735109,-103.3710631,MX
Agios Aggelos,Agios Aggelos,restaurant,20.7202573,-103.3880522,MX
Churros La Bombilla,Churros La Bombilla,cafe,20.6740151,-103.3558673,MX
Antojitos Mexicanos,Antojitos Mexicanos,restaurant,20.7142039,-103.392926,MX
Los Piratas,Los Piratas,restaurant,20.6789301,-103.3680278,MX
Boca del Cielo,Boca del Cielo,restaurant,20.6761819,-103.3673969,MX
Osteria 10,Osteria 10,restaurant,20.6738195,-103.3696156,MX
Las Antorchas,Las Antorchas,restaurant,20.6695913,-103.3836932,MX
Deporte Habitat,Deporte Habitat,sports,20.6702412,-103.3825261,MX
Casa funeral San Francisco,Casa funeral San Francisco,funeral_directors,20.6957216,-103.3262505,MX
Agencia de Viajes El Centinela,Agencia de Viajes El Centinela,travel_agency,20.7465799,-103.3912813,MX
Furter Dogos Gourmet,Furter Dogos Gourmet,restaurant,20.6639422,-103.3997917,MX
Croissants Alfredo,Croissants Alfredo,bakery,20.6901567,-103.373058,MX
EL BALCÓN DE SANTA TERE,EL BALCÓN DE SANTA TERE,restaurant,20.6837974,-103.3712015,MX
Cyber Jardin_ CUAAD,Cyber Jardin_ CUAAD,internet_cafe,20.7408731,-103.3118812,MX
Calzada,Calzada,doityourself,20.717339,-103.3199322,MX
aurrera,aurrera,supermarket,20.7194539,-103.3198436,MX
Refacciónaria automotriz la güera,Refacciónaria automotriz la güera,car_parts,20.7179153,-103.322972,MX
Mamá Coneja,Mamá Coneja,convenience,20.6550622,-103.3802641,MX
Mercado de abastos Guadalajara,Mercado de abastos Guadalajara,farm,20.6542667,-103.3806669,MX
Mercado del Mar,Mercado del Mar,seafood,20.6261947,-103.345161,MX
OptiVisión,OptiVisión,optician,20.6749898,-103.352813,MX
Wings Army,Wings Army,restaurant,20.7552198,-103.3855594,MX
Distribuidora GAMEL,Distribuidora GAMEL,hardware,20.6685692,-103.3165241,MX
Abarrotes Lara,Abarrotes Lara,grocery,20.7360295,-103.3340664,MX
Abarrotes Rodriguez 2,Abarrotes Rodriguez 2,grocery,20.7375203,-103.3331978,MX
Abarrotes Rodriguez,Abarrotes Rodriguez,grocery,20.7358188,-103.3323315,MX
Servicios Mecanicos Rafa,Servicios Mecanicos Rafa,car_repair,20.6566527,-103.2643099,MX
Agencia de viajes veleiro,Agencia de viajes veleiro,travel_agency,20.6570909,-103.2631343,MX
Barranca's liquor,Barranca's liquor,alcohol,20.6571329,-103.2630387,MX
Cremeria Karen,Cremeria Karen,dairy,20.6582261,-103.2629214,MX
Cremeria Corona,Cremeria Corona,dairy,20.6563372,-103.2619535,MX
Zapateria Pague menos,Zapateria Pague menos,shoes,20.6570016,-103.2626071,MX
Olga's Boutique,Olga's Boutique,clothes,20.6571969,-103.2629801,MX
Cremeria la Vaca y el Pollito,Cremeria la Vaca y el Pollito,cheese,20.6568134,-103.2619444,MX
Presta Facil,Presta Facil,money_lender,20.6570016,-103.2620289,MX
Imprenta Zepeda,Imprenta Zepeda,copyshop,20.6569778,-103.261821,MX
Papeleria paty,Papeleria paty,stationery,20.6572087,-103.262028,MX
Electronica Cris,Electronica Cris,radiotechnics,20.6571537,-103.2629185,MX
Control de plagas Montecarlo,Control de plagas Montecarlo,pest_control,20.6571292,-103.2629478,MX
Los pelones,Los pelones,convenience,20.661354,-103.289022,MX
Vinos y licores La PLaza,Vinos y licores La PLaza,alcohol,20.6583305,-103.261835,MX
Vallery Boutique,Vallery Boutique,clothes,20.6583608,-103.2618174,MX
Centro de servicio celular,Centro de servicio celular,electronics,20.6583085,-103.26181,MX
Frutas y Verduras Poncho,Frutas y Verduras Poncho,greengrocer,20.6570519,-103.2630866,MX
Carniceria Poncho,Carniceria Poncho,butcher,20.6570382,-103.2630857,MX
Estetica Olga,Estetica Olga,hairdresser,20.65712,-103.2626189,MX
Estetica Muñe,Estetica Muñe,hairdresser,20.6570282,-103.2626577,MX
Central de Pinturas,Central de Pinturas,paint,20.6571536,-103.2630963,MX
Pinturas COMEX,Pinturas COMEX,paint,20.6570185,-103.2607372,MX
Dulcería la Bodeguita,Dulcería la Bodeguita,confectionery,20.6581337,-103.2606741,MX
Carniceria la Fortaleza,Carniceria la Fortaleza,butcher,20.6582799,-103.2607595,MX
Carniceria Nueva Zalatitan,Carniceria Nueva Zalatitan,butcher,20.65816,-103.2600675,MX
Estetica Betty,Estetica Betty,hairdresser,20.6581978,-103.2629306,MX
Gasolinera Pemex ES 3701,Gasolinera Pemex ES 3701,fuel,20.6626865,-103.276821,MX
Carniceria La Esperanza,Carniceria La Esperanza,butcher,20.6582162,-103.2607658,MX
Tostadería Guadalupana,Tostadería Guadalupana,convenience,20.7250189,-103.3905557,MX
Las Gonzalez Merceria y Estambres,Las Gonzalez Merceria y Estambres,doityourself,20.7234826,-103.3920804,MX
Ópticas Lux Plaza Galerías Querétaro,Ópticas Lux Plaza Galerías Querétaro,optician,20.653533,-103.33114,MX
Ópticas Lux Plaza del Sol Guadalajara,Ópticas Lux Plaza del Sol Guadalajara,optician,20.6587003,-103.398121,MX
Coppel,Coppel,department_store,20.6472073,-103.3196134,MX
C&A,C&A,clothes,20.6476996,-103.3211151,MX
Zara,Zara,clothes,20.647616,-103.3208863,MX
Levi's,Levi's,clothes,20.6472455,-103.3201193,MX
Abarrotera Lagunitas,Abarrotera Lagunitas,supermarket,20.6582796,-103.2606546,MX
Ferretería Los Gueros,Ferretería Los Gueros,hardware,20.6556715,-103.2609579,MX
Panadería Lopez,Panadería Lopez,bakery,20.6581668,-103.2629343,MX
Ferreteria Arcos,Ferreteria Arcos,hardware,20.6750471,-103.383823,MX
Colombo Palomas,Colombo Palomas,yes,20.6751,-103.3836824,MX
Movil Cafe,Movil Cafe,cafe,20.6986385,-103.3489294,MX
Ferretlapaleria Alvarez,Ferretlapaleria Alvarez,hardware,20.7171845,-103.3408747,MX
Okuma,Okuma,restaurant,20.6742805,-103.3544226,MX
Usagui,Usagui,restaurant,20.6841803,-103.3721777,MX
Line 2U,Line 2U,beauty,20.7169044,-103.3540464,MX
Zapo Mar y Tierra,Zapo Mar y Tierra,restaurant,20.6977591,-103.3373866,MX
Bodega Aurrera San pedrito,Bodega Aurrera San pedrito,supermarket,20.6238388,-103.3046271,MX
Abarrotes Marijo,Abarrotes Marijo,convenience,20.6299187,-103.3032859,MX
33 treinta y tres,33 treinta y tres,bicycle,20.6779104,-103.3833538,MX
Laminado y Pintura Reyes,Laminado y Pintura Reyes,car_repair,20.6605664,-103.3592456,MX
Fantástico,Fantástico,books,20.675203,-103.3732077,MX
Digitalife - Garibaldi,Digitalife - Garibaldi,computer,20.6816273,-103.3775359,MX
Qruzh,Qruzh,computer,20.6739147,-103.3461066,MX
Digitalife - Minerva,Digitalife - Minerva,computer,20.6742497,-103.395156,MX
DDTech,DDTech,computer,20.6806682,-103.3490343,MX
Ventronic,Ventronic,computer,20.6735322,-103.3481818,MX
TCMemory,TCMemory,computer,20.6735353,-103.3483242,MX
Eternia,Eternia,toys,20.6671003,-103.3763399,MX
"bazar ""el rincón""","bazar ""el rincón""",clothes,20.6809949,-103.3562421,MX
Cómics Cerca De Ti,Cómics Cerca De Ti,books,20.6406403,-103.2774747,MX
Panini Comics,Panini Comics,toys,20.6694194,-103.3418797,MX
Hacker Garage,Hacker Garage,computer,20.6678235,-103.3720379,MX
G&G Freak Store,G&G Freak Store,clothes,20.6750333,-103.3484478,MX
Riva Importaciones,Riva Importaciones,computer,20.6728945,-103.3876018,MX
"Aguas frescas ""Johan""","Aguas frescas ""Johan""",beverages,20.7428644,-103.3911496,MX
Power Audio,Power Audio,car_repair,20.6211822,-103.3787022,MX
PC TECNO,PC TECNO,computer,20.6870312,-103.3678504,MX
Gama Leasing,Gama Leasing,car,20.6793353,-103.382017,MX
Oriflame,Oriflame,cosmetics,20.6747575,-103.3922256,MX
Peko peko,Peko peko,restaurant,20.675839,-103.36142,MX
Nueva terraza oasis,Nueva terraza oasis,restaurant,20.6764929,-103.3488609,MX
Nova,Nova,computer,20.6664986,-103.3818288,MX
La Parrillita,La Parrillita,restaurant,20.644328,-103.3772533,MX
Vinos y Licores Mazatlan,Vinos y Licores Mazatlan,alcohol,20.6197138,-103.3955636,MX
Santo Coyote Restaurant,Santo Coyote Restaurant,restaurant,20.6710163,-103.3763941,MX
Diagnóstico y Solución,Diagnóstico y Solución,computer,20.6943773,-103.2894394,MX
Santo Camaron,Santo Camaron,restaurant,20.7199974,-103.3537598,MX
Oxxo Cerca de mike,Oxxo Cerca de mike,convenience,20.669629,-103.3038047,MX
Tienda,Tienda,convenience,20.7247875,-103.3651463,MX
Skolka,Skolka,clothes,20.696246,-103.3864343,MX
Cremería EL BRINQUITO,Cremería EL BRINQUITO,supermarket,20.7051935,-103.2932468,MX
Gasolinera ALPEZ,Gasolinera ALPEZ,fuel,20.666074,-103.2152312,MX
Gasolinera Repsol,Gasolinera Repsol,fuel,20.6884441,-103.3730178,MX
Agencia SEAT Américas,Agencia SEAT Américas,car,20.6870464,-103.3735971,MX
Agencia VW Américas,Agencia VW Américas,car,20.6862033,-103.3736668,MX
Agencia Chevrolet FLOSOL Motors,Agencia Chevrolet FLOSOL Motors,car,20.6876436,-103.3793049,MX
La Artesanal - Cocina Latinoamericana,La Artesanal - Cocina Latinoamericana,restaurant,20.689094,-103.3759666,MX
Abarrotes Luz y Humberto,Abarrotes Luz y Humberto,convenience,20.6871147,-103.374854,MX
Estaciones Flores,Estaciones Flores,florist,20.6871794,-103.3768276,MX
Mariscos El Amigo Luis,Mariscos El Amigo Luis,restaurant,20.6873978,-103.3768168,MX
Pinturas Berel,Pinturas Berel,doityourself,20.6871644,-103.3764896,MX
Novopiel depilación láser,Novopiel depilación láser,hairdresser,20.6870334,-103.3793207,MX
Giant,Giant,bicycle,20.6870914,-103.3797581,MX
Pastelería Marisa,Pastelería Marisa,bakery,20.6864663,-103.3732375,MX
La Europea vinos,La Europea vinos,alcohol,20.6859343,-103.3732133,MX
BOSÉ Tienda de Sonido,BOSÉ Tienda de Sonido,music,20.6894448,-103.3735835,MX
Wagen Motors - taller mecánico,Wagen Motors - taller mecánico,car_repair,20.6910115,-103.3715521,MX
Centro Cosmético de Occidente,Centro Cosmético de Occidente,hairdresser,20.6870886,-103.373098,MX
La Noche Azul - restaurante de fondues,La Noche Azul - restaurante de fondues,restaurant,20.6885389,-103.3777114,MX
Ferreterías Calzada,Ferreterías Calzada,doityourself,20.6906467,-103.3763274,MX
Tecnópolis Servicio Especializado,Tecnópolis Servicio Especializado,hifi,20.690185,-103.3766278,MX
Lavandería,Lavandería,laundry,20.6663332,-103.2145448,MX
Tienda de abarrotes DEL PARQUE,Tienda de abarrotes DEL PARQUE,convenience,20.6641053,-103.210999,MX
Extra - Tienda de conveniencia,Extra - Tienda de conveniencia,convenience,20.6642685,-103.2101407,MX
Construrama Tonaltecas,Construrama Tonaltecas,doityourself,20.6691572,-103.2345837,MX
Pizza y Come,Pizza y Come,restaurant,20.6688963,-103.2332523,MX
El Sazón Express,El Sazón Express,restaurant,20.6698048,-103.2216624,MX
Sierra Madre,Sierra Madre,restaurant,25.6834481,-100.3546367,MX
Cafeteria CEGS,Cafeteria CEGS,restaurant,25.670113,-100.356461,MX
Costeñito,Costeñito,restaurant,25.6544064,-100.2937682,MX
Manhattan,Manhattan,restaurant,25.6477137,-100.284359,MX
Las Delicias Cafe,Las Delicias Cafe,cafe,25.6551898,-100.2929587,MX
Tapioca House,Tapioca House,cafe,25.6479386,-100.2905394,MX
The Home Depot,The Home Depot,doityourself,25.6559199,-100.2803679,MX
Trigo limpio,Trigo limpio,cafe,25.6397263,-100.2844442,MX
Tienda Leo,Tienda Leo,convenience,25.6476878,-100.3004513,MX
Charro de Oro Buffet,Charro de Oro Buffet,restaurant,25.6476491,-100.3021787,MX
parrilla Argentina,parrilla Argentina,restaurant,25.6455841,-100.2939444,MX
Tacos el Morelense,Tacos el Morelense,restaurant,25.6460194,-100.2941904,MX
Bonkey Sushi,Bonkey Sushi,restaurant,25.6461935,-100.2941582,MX
Tacos Que Pachó,Tacos Que Pachó,restaurant,25.642257,-100.2908323,MX
Tacos del Güero,Tacos del Güero,restaurant,25.6422376,-100.2777002,MX
Sushi Express,Sushi Express,restaurant,25.6408835,-100.2816484,MX
Mariscos Los Arcos,Mariscos Los Arcos,restaurant,25.6353702,-100.2840517,MX
S-Mart,S-Mart,supermarket,25.6356991,-100.2844379,MX
Applebee's,Applebee's,restaurant,25.7321665,-100.396455,MX
La Galería Café,La Galería Café,restaurant,25.6663565,-100.3075146,MX
Tenerias,Tenerias,restaurant,25.6705029,-100.305995,MX
Neuquen,Neuquen,restaurant,25.669773,-100.3083402,MX
El Papalote,El Papalote,restaurant,25.6564807,-100.3616938,MX
Madre Oaxaca,Madre Oaxaca,restaurant,25.6650012,-100.3089142,MX
La Famosa,La Famosa,cafe,25.6713696,-100.3446393,MX
H-E-B,H-E-B,supermarket,25.6801778,-100.350534,MX
Cabo Grill,Cabo Grill,restaurant,25.6484527,-100.359734,MX
Super Salads,Super Salads,restaurant,25.7258421,-100.2161188,MX
Prestamo Express,Prestamo Express,pawnbroker,25.7327648,-100.2393824,MX
Sierra Madre Brewing Co,Sierra Madre Brewing Co,restaurant,25.666908,-100.3110266,MX
H-E-B Concordia,H-E-B Concordia,supermarket,25.7860005,-100.2265315,MX
Julio Cepeda,Julio Cepeda,toys,25.782875,-100.235712,MX
FAMSA,FAMSA,department_store,25.7826818,-100.2348966,MX
La Subasta Mueblerias,La Subasta Mueblerias,furniture,25.6838536,-100.2143719,MX
Fast & Clean Lavanderia,Fast & Clean Lavanderia,laundry,25.6863225,-100.2139165,MX
Sam's Club,Sam's Club,wholesale,25.6929772,-100.2397802,MX
Stone Car Service,Stone Car Service,car_repair,25.6272581,-100.2733661,MX
Italian Coffee Company,Italian Coffee Company,cafe,25.6724827,-100.3680769,MX
Soriana Gourmet,Soriana Gourmet,supermarket,25.6554602,-100.3844099,MX
BMW Sierra Motors,BMW Sierra Motors,car,25.641586,-100.321499,MX
Don Colchón,Don Colchón,bed,25.7189492,-100.2656716,MX
Pastelería Lety,Pastelería Lety,bakery,25.7186249,-100.265952,MX
Soluciones Familiares,Soluciones Familiares,pawnbroker,25.719009,-100.2656032,MX
Sierra Madre Brewing Co.,Sierra Madre Brewing Co.,restaurant,25.76719,-100.3016817,MX
Préstamo Express,Préstamo Express,pawnbroker,25.7677383,-100.2996538,MX
Estética Norma Hurtado,Estética Norma Hurtado,hairdresser,25.7228432,-100.2674561,MX
Petro-7,Petro-7,fuel,25.7693313,-100.2730495,MX
Smart,Smart,supermarket,25.7756976,-100.2566807,MX
Oxxo gas,Oxxo gas,fuel,25.7044332,-100.341789,MX
HEMSA,HEMSA,department_store,25.7756204,-100.2573351,MX
La Estacion JC,La Estacion JC,restaurant,25.6008213,-100.2648717,MX
Gorilas,Gorilas,restaurant,25.6014599,-100.2654242,MX
Various restaurants,Various restaurants,restaurant,25.6021517,-100.2658722,MX
Fruteria y Abarrotes Gallegos,Fruteria y Abarrotes Gallegos,convenience,25.6018179,-100.2643648,MX
Quichis,Quichis,hairdresser,25.6041859,-100.2659902,MX
Maxihome,Maxihome,department_store,25.7153002,-100.2499175,MX
SAM,SAM,butcher,25.703238,-100.2413732,MX
Abarrotes el Güero,Abarrotes el Güero,convenience,25.6507062,-100.3079481,MX
Cafetería Jubileo,Cafetería Jubileo,cafe,25.6488867,-100.2900339,MX
Cafetería Centrales,Cafetería Centrales,cafe,25.6514461,-100.2888239,MX
Centrales,Centrales,restaurant,25.6515283,-100.2888615,MX
Tacos Felix,Tacos Felix,restaurant,25.650482,-100.2929824,MX
City Club,City Club,wholesale,25.7408853,-100.303959,MX
404 Gómez Morín,404 Gómez Morín,mall,25.6471318,-100.3587602,MX
Carnicería San Juan,Carnicería San Juan,butcher,25.7219702,-100.2019522,MX
AutoZone,AutoZone,car_parts,25.7220572,-100.203438,MX
Peace & Love,Peace & Love,cafe,25.6478389,-100.3589314,MX
Yambalaya,Yambalaya,cafe,25.6552381,-100.3614828,MX
Dr. Descuento,Dr. Descuento,chemist,25.7581206,-100.2865795,MX
Prodegas,Prodegas,fuel,25.6559599,-100.387543,MX
Polloyon,Polloyon,restaurant,25.6863971,-100.2648894,MX
Las Alitas,Las Alitas,restaurant,25.6891043,-100.2576528,MX
Luna Mexicana,Luna Mexicana,restaurant,25.6850486,-100.262099,MX
Waldo's Mart,Waldo's Mart,supermarket,25.6885264,-100.2605377,MX
Coffee and More,Coffee and More,cafe,25.6886209,-100.2592701,MX
Abarrotes Hernandez,Abarrotes Hernandez,convenience,25.7068658,-100.2355237,MX
Eliza Cantú - Estilistas Profesionales,Eliza Cantú - Estilistas Profesionales,hairdresser,25.6513714,-100.3684539,MX
Battery Master,Battery Master,electronics,25.6411531,-100.285581,MX
Telcel,Telcel,mobile_phone,25.6401956,-100.2848491,MX
Tomatillos,Tomatillos,restaurant,25.639634,-100.285469,MX
Lowe's,Lowe's,doityourself,25.6950713,-100.242876,MX
El Barco,El Barco,restaurant,25.6415705,-100.2865482,MX
Tacos Rafa,Tacos Rafa,restaurant,25.658962,-100.296322,MX
Pecos Bill,Pecos Bill,restaurant,25.690216,-100.252105,MX
Pollo Loco,Pollo Loco,restaurant,25.6468705,-100.2898832,MX
Estética,Estética,hairdresser,25.646223,-100.289846,MX
The Laundry Zone,The Laundry Zone,dry_cleaning,25.648224,-100.295475,MX
Multipack Lindavista,Multipack Lindavista,general,25.690397,-100.252599,MX
Nervion Pinturas;Josephino's,Nervion Pinturas;Josephino's,paint,25.6893816,-100.2549024,MX
Atenea Palas Academia,Atenea Palas Academia,hairdresser,25.690573,-100.251913,MX
Supercolchones,Supercolchones,bed,25.690088,-100.253617,MX
Multillantas Elizondo,Multillantas Elizondo,car_parts,25.690338,-100.252835,MX
El Regio,El Regio,restaurant,25.7474237,-100.3004138,MX
Tacos Santiago,Tacos Santiago,restaurant,25.639645,-100.284685,MX
Koto Sushi Bar,Koto Sushi Bar,restaurant,25.687209,-100.267759,MX
GNC,GNC,nutrition_supplements,25.686475,-100.267217,MX
Punto Digital,Punto Digital,copyshop,25.686914,-100.268008,MX
Urbana,Urbana,clothes,25.6448577,-100.2944643,MX
EcoBikes,EcoBikes,bicycle,25.646086,-100.294091,MX
La Casa del Maiz,La Casa del Maiz,restaurant,25.6656852,-100.3080559,MX
Trece Lunas,Trece Lunas,cafe,25.6656927,-100.3081324,MX
San Luisito,San Luisito,restaurant,25.6713228,-100.3065444,MX
Mercedes-Benz,Mercedes-Benz,car,25.6738996,-100.3527713,MX
Volkswagen Car One Gonzalitos,Volkswagen Car One Gonzalitos,car,25.6736892,-100.352967,MX
Comidas Pronto,Comidas Pronto,restaurant,25.6485918,-100.2856574,MX
Porrúa,Porrúa,books,25.6681642,-100.3115772,MX
El Campeoncito Jr.,El Campeoncito Jr.,bicycle,25.7045417,-100.2679548,MX
Taller El Rayo,Taller El Rayo,bicycle,25.6579466,-100.3061071,MX
Taller de Bicicletas Fox Racing,Taller de Bicicletas Fox Racing,bicycle,25.6584011,-100.3045621,MX
Beauty Bar Monterrey,Beauty Bar Monterrey,hairdresser,25.6593761,-100.379773,MX
Jambalaya,Jambalaya,cafe,25.6596139,-100.3796899,MX
Jubilee Casino,Jubilee Casino,restaurant,25.657326,-100.279685,MX
Punto 36,Punto 36,supermarket,25.7504793,-100.2561755,MX
Pan de Barro,Pan de Barro,bakery,25.6702469,-100.3285602,MX
Andolini,Andolini,restaurant,25.6660332,-100.3054798,MX
Govinda,Govinda,restaurant,25.6702034,-100.3052008,MX
Arlecchino,Arlecchino,restaurant,25.6773541,-100.2944505,MX
Café Nuevo Brasil,Café Nuevo Brasil,cafe,25.6747534,-100.309767,MX
El Argentino,El Argentino,confectionery,25.6722335,-100.307724,MX
"Starbucks, Plaza Fiesta Anáhuac","Starbucks, Plaza Fiesta Anáhuac",cafe,25.7433897,-100.313115,MX
Josephino's,Josephino's,restaurant,25.7333746,-100.3045535,MX
Farmacias Guadalajara,Farmacias Guadalajara,chemist,25.7791329,-100.278184,MX
Bricos,Bricos,hardware,25.6843109,-100.319493,MX
Bricos Express (Mayoreo Electrico de Monterrey),Bricos Express (Mayoreo Electrico de Monterrey),hardware,25.6860262,-100.3361106,MX
Montana,Montana,restaurant,25.6678371,-100.3171891,MX
Acura,Acura,car,25.6533128,-100.342804,MX
Cadillac,Cadillac,car,25.6480193,-100.359189,MX
Ferrari Maserati Monterrey,Ferrari Maserati Monterrey,car,25.6514212,-100.367439,MX
Mazda,Mazda,car,25.6534314,-100.3422093,MX
Porsche,Porsche,car,25.6527014,-100.3404505,MX
Volkswagen,Volkswagen,car,25.6535737,-100.3476391,MX
InMotion,InMotion,car,25.6463822,-100.3596859,MX
Adolfo Dominguez,Adolfo Dominguez,clothes,25.6543128,-100.3624956,MX
Audi Calzada del Valle,Audi Calzada del Valle,car,25.6543613,-100.36211,MX
BMW Galería Valle,BMW Galería Valle,car,25.6542754,-100.361787,MX
CTC,CTC,mobile_phone,25.6557641,-100.3636135,MX
CaSa,CaSa,furniture,25.6569479,-100.3676834,MX
Carranza y Carranza,Carranza y Carranza,jewelry,25.6550472,-100.3642394,MX
Cartier,Cartier,jewelry,25.6547942,-100.360271,MX
Cinema,Cinema,electronics,25.6549336,-100.3635595,MX
Corneliani,Corneliani,clothes,25.6546079,-100.362363,MX
Fendi,Fendi,clothes,25.6563882,-100.365712,MX
HP,HP,computer,25.6557499,-100.3668241,MX
La Castellana,La Castellana,alcohol,25.6546067,-100.3624538,MX
Louis Vuitton,Louis Vuitton,clothes,25.6564173,-100.365832,MX
Natuzzi,Natuzzi,furniture,25.655911,-100.364028,MX
Pronovias,Pronovias,clothes,25.654997,-100.364046,MX
Roche Bobois,Roche Bobois,furniture,25.6567571,-100.366761,MX
Subaru,Subaru,car,25.653801,-100.359905,MX
Tane,Tane,clothes,25.6563609,-100.3656271,MX
Tous,Tous,jewelry,25.6558276,-100.363762,MX
Vinoteca,Vinoteca,alcohol,25.6575564,-100.3694424,MX
Mr. Papas Biles,Mr. Papas Biles,restaurant,25.659905,-100.3676994,MX
SpeeLee,SpeeLee,car_repair,25.6599806,-100.3666355,MX
Chilis,Chilis,restaurant,25.6495217,-100.3314802,MX
FIAT Monterrey,FIAT Monterrey,car,25.6479128,-100.326603,MX
Toyota Monterrey,Toyota Monterrey,car,25.643392,-100.321449,MX