name,name_en,service_type,lat,lng,country_code
Manna,Manna,restaurant,13.7477023,100.5345542,TH
Factory Outlet,Factory Outlet,clothes,13.7208628,100.5682253,TH
7-Eleven,7-Eleven,convenience,13.6512018,100.4876955,TH
Shell,Shell,fuel,13.7185734,100.5673621,TH
Zen,Zen,restaurant,13.7281063,100.5331414,TH
Pola Pola,Pola Pola,cafe,13.7272399,100.5335418,TH
Cafe Bangrak,Cafe Bangrak,cafe,13.7289158,100.5355833,TH
Mimy's,Mimy's,cafe,13.7272956,100.5364037,TH
Zanotti,Zanotti,restaurant,13.7268964,100.5367763,TH
Cafe Turin,Cafe Turin,cafe,13.7269174,100.5370033,TH
The Front Page,The Front Page,restaurant,13.7269776,100.5416951,TH
Cafe D'Oro,Cafe D'Oro,cafe,13.7253756,100.537783,TH
4x4,4x4,restaurant,13.6512144,100.4862942,TH
Lotus's go fresh,Lotus's go fresh,convenience,13.6513086,100.4873663,TH
Best Salon,Best Salon,hairdresser,13.6511372,100.4879754,TH
Bell Cafe,Bell Cafe,cafe,13.6513812,100.4869036,TH
Smiths Bar,Smiths Bar,restaurant,13.7585554,100.4959363,TH
สยามแก๊ส,Siam Gas,fuel,13.6827546,100.6106115,TH
Esso,Esso,fuel,13.6688926,100.6321353,TH
Sirocco,Sirocco,restaurant,13.7212917,100.5168726,TH
ศูนย์หนังสือจุฬาฯ,Chula Book Centre,books,13.7435713,100.5329509,TH
Susco,Susco,fuel,13.6900797,100.6703176,TH
S&P,S&P,restaurant,13.6874299,100.6608332,TH
กัลปพฤกษ์,Kallapaphruek,restaurant,13.7226497,100.5220688,TH
ร้านค้าสหกรณ์จุฬาฯ,Chulalongkorn University Cooperative Store,convenience,13.7353276,100.5314409,TH
มิซาโตะ,มิซาโตะ,restaurant,13.7300628,100.5340962,TH
Sathorn Framing,Sathorn Framing,furniture,13.7196811,100.5264239,TH
Panasonic service centre,Panasonic service centre,electronics,13.711278,100.53103,TH
Bike Shop,Bike Shop,bicycle,13.7062683,100.527506,TH
Lotus Express,Lotus Express,convenience,13.8180041,100.6657889,TH
Tops,Tops,supermarket,13.668235,100.6828432,TH
Ronny's New York Pizza,Ronny's New York Pizza,restaurant,13.7386706,100.5529521,TH
บะหมี่นายดำ,บะหมี่นายดำ,restaurant,13.7119996,100.6066815,TH
Hemlock,Hemlock,restaurant,13.7619476,100.4934922,TH
Turbo Bicycle,bangna Bicycle,bicycle,13.6782413,100.6086622,TH
เป็ดท่าดินแดง,Ped Tah Din Dang,restaurant,13.8018073,100.5815635,TH
Cabbages & Condoms,Cabbages & Condoms,restaurant,13.7364794,100.557891,TH
กินรี เวนิว,Kinaree Venue,restaurant,13.7379539,100.5562983,TH
Tsu Nami,Tsu Nami,toys,13.7423469,100.5519642,TH
The Family,The Family,restaurant,13.7601131,100.5027895,TH
Tops Daily,Tops Daily,convenience,13.7163905,100.5898192,TH
FBT Sport Complex,FBT Sport Complex,sports,13.7606247,100.624751,TH
บาร์คณะประมง,บาร์คณะประมง,restaurant,13.8552919,100.5698924,TH
ราดหน้า,ราดหน้า,convenience,13.8603841,100.5510824,TH
อาหารตามสั่ง,อาหารตามสั่ง,doityourself,13.8600195,100.5518227,TH
ผัดไท,ผัดไท,restaurant,13.86003,100.5520373,TH
ก๋วยเตี๋ยวเรืออยุธยา,ก๋วยเตี๋ยวเรืออยุธยา,restaurant,13.8695817,100.5534106,TH
The Corner,The Corner,restaurant,13.8701025,100.5563074,TH
Cafe dot Com,Cafe dot Com,cafe,13.8459913,100.5687077,TH
ร้านโครงการหลวง,Royal Project Shop,supermarket,13.849363,100.564182,TH
Bei Otto,Bei Otto,restaurant,13.7333712,100.5640523,TH
Talay Bangkok,Talay Bangkok,restaurant,13.7537457,100.5780742,TH
Java Cafe House,Java Cafe House,cafe,13.8190637,100.5923155,TH
ป.ต.ท.,PTT,fuel,13.8527566,100.4391284,TH
Celtex,Celtex,fuel,13.8523399,100.4378409,TH
Max Value Phatthanakan,Max Value Phatthanakan,supermarket,13.7357058,100.6424864,TH
Paddock Proshop Motorcycle Accessories,Paddock Proshop Motorcycle Accessories,clothes,13.7808828,100.5733583,TH
Mr. T-Bike,Mr. T-Bike,motorcycle,13.682659,100.5321694,TH
32 Farmers Bike shop,32 Farmers Bike shop,motorcycle,13.6861145,100.6501419,TH
Red Baron,Red Baron,motorcycle,13.7761088,100.6724031,TH
Stadium Bike Shop,Stadium Bike Shop,motorcycle,13.8049469,100.6166071,TH
Caltex,Caltex,fuel,13.6693537,100.6296543,TH
Foodland,Foodland,supermarket,13.8870531,100.5816704,TH
Pizza Hut,Pizza Hut,restaurant,13.7055017,100.6003804,TH
MK Restaurants,MK Restaurants,restaurant,13.7097069,100.6017638,TH
FamilyMart,FamilyMart,convenience,13.7122036,100.6053151,TH
Spoons,Spoons,restaurant,13.7125063,100.6052019,TH
Chor Chaba,Chor Chaba,restaurant,13.7133543,100.6048591,TH
Best Beef,Best Beef,restaurant,13.7093347,100.5985847,TH
Anna’s Coffee,Anna’s Coffee,cafe,13.8452903,100.569208,TH
Ranee's,Ranee's,restaurant,13.7588601,100.4957092,TH
Suksabai,Suksabai,restaurant,13.7595785,100.4975588,TH
Ricky's,Ricky's,cafe,13.7617909,100.4933068,TH
Green House,Green House,restaurant,13.7600235,100.4970558,TH
ระเบียงน้ำ,ระเบียงน้ำ,restaurant,13.881174,100.4830644,TH
ร้านอาหารครัวต้นสน,ร้านอาหารครัวต้นสน,restaurant,13.6979987,100.407907,TH
Mart,Mart,convenience,13.6957419,100.4080987,TH
ปั้มบางจาก พระราม 2,Bangchak,fuel,13.6627207,100.4411954,TH
โตโยต้าบัสส์ สาขาพระราม 2,โตโยต้าบัสส์ สาขาพระราม 2,car,13.6703878,100.4517262,TH
น้องเนย ซีฟู๊ต,Nong Noei Seafood,restaurant,13.6654913,100.4355669,TH
ฮะจิบัง ราเมน,Hachiban-Ramen,restaurant,13.768767,100.571906,TH
Pitta Cafe,Pitta Cafe,cafe,13.6684181,100.443124,TH
สวนอาหารแก้วกาญจน์,สวนอาหารแก้วกาญจน์,restaurant,13.666999,100.4462443,TH
เมธาวลัยศรแดง,Methavalai Sorndaeng,restaurant,13.7561123,100.5020888,TH
Lido,Lido,restaurant,13.7207788,100.5472935,TH
สเต็กบ้านตราใจ,Trajai Steak House,restaurant,13.7209757,100.5473234,TH
Blue Shop,Blue Shop,supermarket,13.7111977,100.5172116,TH
express,express,convenience,13.711177,100.5169829,TH
ศิริวรรณ หอยทอด-ผัดไทย,Siri Wan Hoi Thot - Phat Thai,restaurant,13.840355,100.598128,TH
Oregano Italian Restaurant,Oregano Italian Restaurant,restaurant,13.809583,100.616898,TH
เพลิน Coffee & Book,เพลิน Coffee & Book,cafe,13.6977754,100.4081441,TH
Black Canyon Coffee,Black Canyon Coffee,cafe,13.7095724,100.6015429,TH
Se-ed,Se-ed,books,13.7094438,100.6016364,TH
ร้านอาวคราฟท์ (OWL CRAFT SHOP),ร้านอาวคราฟท์ (OWL CRAFT SHOP),doityourself,13.7166404,100.5694295,TH
บิ๊กซี,Big C,department_store,13.8609023,100.5036422,TH
บจก. บริดจสโตน เอ.ซี.ที (ประเทศไทย) สาขาบางบอน,Bridgestone A.C.T (Thailand) Bangbon Brance,tyres,13.6705388,100.4066725,TH
Tops Super,Tops Super,supermarket,13.8406754,100.5488053,TH
Tom Yum Kung,Tom Yum Kung,restaurant,13.7592028,100.495854,TH
Shaman,Shaman,books,13.7593341,100.4965974,TH
Bookazine,Bookazine,books,13.7592703,100.4963034,TH
Taketei,Taketei,restaurant,13.7581382,100.4980198,TH
ชมรมดนตรีคณะประมง,ชมรมดนตรีคณะประมง,music,13.8550737,100.5667384,TH
ม่าพร,ม่าพร,cafe,13.8442795,100.5691042,TH
ร้านกาแฟที่อาคารจอกรถประตู1,ร้านกาแฟที่อาคารจอกรถประตู1,cafe,13.8427882,100.570694,TH
ศูนย์หนังสือ มหาวิทยาลัยเกษตรศาสตร์,Kasetsart University Book Center,books,13.8431205,100.5711345,TH
เรือนกล้วยไม้,เรือนกล้วยไม้,garden_centre,13.8525359,100.5656059,TH
Coffee World,Coffee World,cafe,13.8459386,100.5653474,TH
โรงเรือน 8 หลัง,โรงเรือน 8 หลัง,florist,13.8496238,100.5720785,TH
แปลงพืชไร่,แปลงพืชไร่,florist,13.8499779,100.5715635,TH
บาร์ soil,บาร์ soil,restaurant,13.8491394,100.5717459,TH
ร้านภูมิใจ,ร้านภูมิใจ,restaurant,13.8440998,100.5701162,TH
ห้องอาหารแก้วเกษตร,ห้องอาหารแก้วเกษตร,restaurant,13.8436597,100.5710405,TH
ร้านอาหาร,ร้านอาหาร,restaurant,13.8438498,100.5706848,TH
ร้านก๋วยเตี๋ยวโกหวิล,ร้านก๋วยเตี๋ยวโกหวิล,restaurant,13.8462565,100.5762156,TH
KU Band,KU Band,music,13.849629,100.5653237,TH
ห้องอาหารสหโภชน์,ห้องอาหารสหโภชน์,restaurant,13.8536606,100.5711377,TH
จิวแป๊ะธง ข้าวมันไก่,จิวแป๊ะธง ข้าวมันไก่,restaurant,13.7539337,100.6274056,TH
Korean Food,Korean Food,restaurant,13.7531081,100.6275944,TH
Chinese Food,Chinese Food,restaurant,13.7518683,100.6279857,TH
Noodle House,Noodle House,restaurant,13.7518683,100.6225569,TH
Anne Cafe,Anne Cafe,restaurant,13.7514775,100.6286402,TH
Iranian,Iranian,restaurant,13.7531553,100.6275888,TH
Nueng Seafood,Nueng Seafood,restaurant,13.7532126,100.6220956,TH
ร้านค้า ซอย13,ร้านค้า ซอย13,convenience,13.609164,100.6373468,TH
ร้านแปะ,ร้านแปะ,convenience,13.609237,100.637827,TH
ร้าน อบต.,ร้าน อบต.,convenience,13.6093752,100.6377975,TH
เซเว่นอีเลฟเว่น,เซเว่นอีเลฟเว่น,convenience,13.6112234,100.6393263,TH
ฟอร์ดเอกสีลม,Ford Ek Silom,car,13.7228473,100.522035,TH
บ. สาธรฮอนด้าคารส์,Sathon Honda Cars,car,13.719345,100.5200345,TH
Thai & Myanmar Foods,Thai & Myanmar Foods,restaurant,13.7225553,100.523745,TH
บ้านส้มตำ,Baan Somtum,restaurant,13.7205292,100.5204597,TH
การบินไทย สาขาหลานหลวง,Thai Airways Contact Center,travel_agency,13.7558923,100.5070189,TH
To-Sit Pier 92,To-Sit Pier 92,restaurant,13.7990775,100.5145264,TH
CP Fresh Mart,CP Fresh Mart,convenience,13.6977355,100.4078292,TH
Nakata Sushi,Nakata Sushi,restaurant,13.7910655,100.6731679,TH
บริษัท เอ็มบีเอส ออโต้ เซ็นเตอร์ จำกัด (เบนซ์พระราม 2),บริษัท เอ็มบีเอส ออโต้ เซ็นเตอร์ จำกัด (เบนซ์พระราม 2),car,13.6635781,100.4399772,TH
บริษัท นีโอ มอเตอร์มาสเตอร์ จำกัด,บริษัท นีโอ มอเตอร์มาสเตอร์ จำกัด,car,13.6700567,100.4510021,TH
ก๋วยเตี๋ยวไก่มะระ,ก๋วยเตี๋ยวไก่มะระ,restaurant,13.6756436,100.4537853,TH
อินทนิลคอฟฟี่,Inthanin Coffee,cafe,13.6627462,100.440943,TH
ร้านสุกี้ชัยกูล,ร้านสุกี้ชัยกูล,restaurant,13.672582,100.4549178,TH
ฟอร์ด พระราม 2,Ford Rama II,car,13.6681034,100.4502335,TH
Café Amazon,Café Amazon,cafe,13.7426341,100.4961389,TH
ราดหน้าผัดซีอิ๊วรสเลิศ,ราดหน้าผัดซีอิ๊วรสเลิศ,restaurant,13.7333894,100.4911333,TH
President tailors,President tailors,tailor,13.7405928,100.5567941,TH
Outback Steakhouse,Outback Steakhouse,restaurant,13.7469977,100.5313636,TH
Foodtalk,Foodtalk,restaurant,13.8204506,100.6686557,TH
Joy Luck Club,Joy Luck Club,restaurant,13.763568,100.4959854,TH
Siri-Rattana,Siri-Rattana,restaurant,13.7582296,100.4983435,TH
ร้านก๋วยเตี๋ยวนายสง่า,ร้านก๋วยเตี๋ยวนายสง่า,restaurant,13.6893767,100.4069688,TH
บุญถาวร,Boonthavorn,doityourself,13.8218883,100.6341089,TH
เนาวรัตน์เบเกอรี่,เนาวรัตน์เบเกอรี่,bakery,13.6752294,100.4266646,TH
Fusion Music Shop,Fusion Music Shop,music,13.8433737,100.5669401,TH
Cafe 2 All,Cafe 2 All,cafe,13.8483117,100.5666558,TH
Jeffer,Jeffer,restaurant,13.8433243,100.5679317,TH
Gorilla Steak,Gorilla Steak,restaurant,13.8398027,100.573719,TH
été,été,bakery,13.847077,100.5797021,TH
The Play,The Play,hairdresser,13.8399163,100.5742608,TH
Sam steak and More,Sam steak and More,restaurant,13.8406875,100.5733409,TH
ชาลี Steak,ชาลี Steak,restaurant,13.8401771,100.574226,TH
Steak and More,Steak and More,restaurant,13.8405573,100.5735605,TH
ร้าน ป.4,ร้าน ป.4,restaurant,13.8369107,100.5751919,TH
Villa Supermarket,Villa Supermarket,supermarket,13.779793,100.545227,TH
Max Beef,Max Beef,butcher,13.8457325,100.5654847,TH
IUP Canteen,IUP Canteen,restaurant,13.8463548,100.5697134,TH
KU Beef,KU Beef,butcher,13.8462174,100.5648967,TH
ร้านอมตรส,ร้านอมตรส,restaurant,13.848724,100.5146099,TH
ร้านพี่แพน,ร้านพี่แพน,restaurant,13.8488585,100.569151,TH
ภาควิชาพืชสวน,ภาควิชาพืชสวน,greengrocer,13.8497971,100.5639053,TH
ชายสี่บะหมี่เกี๊ยว,ชายสี่บะหมี่เกี๊ยว,restaurant,13.8501233,100.5815374,TH
หมูทอดเจียงฮาย,หมูทอดเจียงฮาย,restaurant,13.8458805,100.5795207,TH
ครัวกุ๊กไก่,ครัวกุ๊กไก่,restaurant,13.8397419,100.5735606,TH
KU Fresh milk,KU Fresh milk,cafe,13.8479629,100.5734097,TH
ศูนย์อาหารพะยอม,ศูนย์อาหารพะยอม,butcher,13.8480619,100.5734097,TH
KU for U,KU for U,cafe,13.8485394,100.5666525,TH
Bico : Specialty Coffee & Homemade Bakery,Bico : Specialty Coffee & Homemade Bakery,cafe,13.833508,100.6266186,TH
ร้านอาหารพรพรรณ,ร้านอาหารพรพรรณ,restaurant,13.6807315,100.4371485,TH
พรพรรณเบเกอรี่,พรพรรณเบเกอรี่,bakery,13.6806455,100.4372263,TH
ร้านเจ้เล้ง,ร้านเจ้เล้ง,supermarket,13.896967,100.589722,TH
White conner's,White conner's,restaurant,13.7629341,100.499823,TH
One More,One More,cafe,13.7417286,100.513488,TH
ราบิก้า คอฟฟี่,Rabika Coffee,cafe,13.7119956,100.4203953,TH
ปั๊มน้ำมันคาลเท็กซ์,ปั๊มน้ำมันคาลเท็กซ์,fuel,13.711033,100.4098703,TH
ปั๊มน้ำมันเชลล์ หจก.สุกิจบริการ,ปั๊มน้ำมันเชลล์ หจก.สุกิจบริการ,fuel,13.71046,100.4104977,TH
Velo Thailand,Velo Thailand,bicycle,13.7636928,100.5000461,TH
Vertigo,Vertigo Moon Bar,restaurant,13.7234481,100.5396902,TH
Bang Nam Phueng Floating Market,Bang Nam Pheung Floating Market,farm,13.6802705,100.576055,TH
Starbucks,Starbucks Coffee,cafe,13.7421275,100.5516431,TH
Villa Market,Villa Market,supermarket,13.741248,100.5514066,TH
Kumpleto Karaoke,Kumpleto Karaoke,restaurant,13.7328308,100.5984369,TH
Hair Center,Hair Center,hairdresser,13.73285,100.5985599,TH
QUEENNY,QUEENNY,clothes,13.7329913,100.5975883,TH
ข้าวคลุกกะปิเจ๊หนู,ข้าวคลุกกะปิเจ๊หนู,restaurant,13.733147,100.59753,TH
Bourbon Street,Bourbon Street,restaurant,13.7224571,100.5844887,TH
Foodland Ram Inthra,Foodland Ram Inthra,supermarket,13.8602498,100.624435,TH
ศักดิ์สิทธิ์ ภัตตาคาร คาราโอเกะ,Saksit Resturant & Karaoke,restaurant,13.6704073,100.4054695,TH
Cat,Cat,tailor,13.7258484,100.5973946,TH
Ploy,Ploy,tailor,13.7258508,100.5972754,TH
The Green House,The Green House,restaurant,13.7326011,100.5978647,TH
Anna & Charlie's Cafe,Anna & Charlie's Cafe,restaurant,13.7015627,100.5415266,TH
หจก. ธ. วรรณพงศ์อะไหล่ยนต์,หจก. ธ. วรรณพงศ์อะไหล่ยนต์,car_repair,13.6967879,100.4079779,TH
Xpress Lube Auto Servicing Expert,Xpress Lube Auto Servicing Expert,car_repair,13.6962748,100.4081684,TH
วรุณ การ์เด้น ดีไซน์,วรุณ การ์เด้น ดีไซน์,garden_centre,13.6950471,100.4080154,TH
ข้าวแกงแม่ละมัย,ข้าวแกงแม่ละมัย,restaurant,13.6931448,100.4079564,TH
รถบ้านคุณฉัตรชัย,รถบ้านคุณฉัตรชัย,car,13.6926653,100.4080154,TH
โตโยต้ามหานคร โชว์รูม ถนนวงแหวนรอบนอก,โตโยต้ามหานคร โชว์รูม ถนนวงแหวนรอบนอก,car,13.6898664,100.4079779,TH
บริษัท พรรณรัตรพงศ์ จำกัด (แสงชัยโลหะกิจ),บริษัท พรรณรัตรพงศ์ จำกัด (แสงชัยโลหะกิจ),doityourself,13.6892306,100.4078438,TH
เจียง ลูกชิ้นปลา,เจียง ลูกชิ้นปลา,restaurant,13.688454,100.4077204,TH
Three Mangoes,Three Mangoes,restaurant,13.6870572,100.4078438,TH
บริษัท กิเลนสุขภัณฑ์ จำกัด,บริษัท กิเลนสุขภัณฑ์ จำกัด,doityourself,13.6835937,100.4103596,TH
ราเม็งเทอิ,Ramentei,restaurant,13.7287791,100.5301493,TH
Daddy Do Lake View,Daddy Do Lake View,restaurant,13.7637709,100.6768227,TH
การิม โรตี-มะตะบะ,Karim Roti-Mataba,restaurant,13.7636489,100.4957444,TH
ช้าวแกงปักษ์ใต้,Thai Southern Food,restaurant,13.7890502,100.5876301,TH
Ratsstube,Ratsstube,restaurant,13.7244287,100.5457047,TH
สหกรณ์ทดลองสาธิตเกษตร,สหกรณ์ทดลองสาธิตเกษตร,convenience,13.8521983,100.5681936,TH
ศูนย์ถ่ายเอกสาร 1,ศูนย์ถ่ายเอกสาร 1,kiosk,13.7409268,100.5320895,TH
สหกรณ์,สหกรณ์,convenience,13.7412988,100.5325634,TH
ศูนย์ถ่ายเอกสาร,ศูนย์ถ่ายเอกสาร,copyshop,13.741444,100.5346366,TH
ก๋วยเตี๋ยวตะแคงชาม,Ta Kaeng Cham Noodle House,restaurant,13.7903919,100.5825801,TH
เป็ดย่างนาทอง,Ped Yang Na Thong,restaurant,13.7898352,100.5747223,TH
เนื้อย่างกิวกิวเต้,Gyu Gyu Tei Yakiniku,restaurant,13.7838673,100.587021,TH
PTT SS (Sanampao),PTT SS (Sanampao),fuel,13.7688171,100.5408188,TH
Lemon Farm,Lemon Farm,supermarket,13.6514535,100.641636,TH
Scoozi,Scoozi,restaurant,13.6512553,100.6412176,TH
ป.ต.ท. บางเมือง,PTT Station Bang Muang,fuel,13.6154105,100.6213845,TH
ต้ม ตำ ยำ ย่าง,ต้ม ตำ ยำ ย่าง,restaurant,13.6510833,100.641628,TH
Mama Do By Ter,Mama Do By Ter,restaurant,13.651052,100.6417084,TH
รสสุคนธ์,Rotsukhon Restaurant,restaurant,13.6149778,100.6211773,TH
Tokyu,Tokyu,department_store,13.7458135,100.5298492,TH
Burberry,Burberry,clothes,13.7459928,100.5355422,TH
Scintilla Gioielli,Scintilla Gioielli,boutique,13.7469662,100.5342828,TH
Books Kinokuniya,Books Kinokuniya,books,13.7458551,100.5354367,TH
Scala Shark's Fin,Scala Shark's Fin,restaurant,13.7472123,100.5346032,TH
Chloé,Chloé,clothes,13.7459344,100.5348639,TH
The Grill Tokyo,The Grill Tokyo,restaurant,13.7474182,100.5346401,TH
Jimmy Choo,Jimmy Choo,shoes,13.7458704,100.5354989,TH
Giorgio Armani,Giorgio Armani,clothes,13.7464099,100.5341787,TH
Hermès,Hermès,clothes,13.7461102,100.5342807,TH
Kenzo,Kenzo,clothes,13.7459128,100.5349353,TH
Tony Roma's,Tony Roma's,restaurant,13.7479106,100.5347366,TH
Mulberry,Mulberry,fashion_accessories,13.7461414,100.5350236,TH
Ootoya Kitchen,Ootoya Kitchen,restaurant,13.7458667,100.5349454,TH
Piaget,Piaget,boutique,13.747096,100.5343062,TH
Emilio Pucci,Emilio Pucci,clothes,13.7459116,100.5355135,TH
Belguardo,Belguardo,restaurant,13.7470496,100.5345741,TH
Kabuki,Kabuki,restaurant,13.7474468,100.5343316,TH
Zara,Zara,clothes,13.7458341,100.5353938,TH
Saint Laurent,Saint Laurent,clothes,13.7459507,100.5355273,TH
The Oriental Shop,The Oriental Shop,bakery,13.7468391,100.5345363,TH
Fuji,Fuji,restaurant,13.7459962,100.5345509,TH
La'Espace d l'Oriental,La'Espace d l'Oriental,restaurant,13.7460531,100.5349134,TH
Starbucks,Pablo Cheese Tarts!!,cafe,13.7463316,100.5341278,TH
Versace,Versace,clothes,13.7460125,100.5346048,TH
Cafe Chilli,Cafe Chilli,restaurant,13.7478012,100.5346696,TH
Lenôtre,Lenôtre,bakery,13.7468165,100.5342164,TH
Tod's,Tod's,shoes,13.7460627,100.5344381,TH
Ootoya,Ootoya,restaurant,13.7464823,100.5341553,TH
Coffee Beans by Dao,Coffee Beans by Dao,cafe,13.7466547,100.5345033,TH
Canali,Canali,clothes,13.7460375,100.5354042,TH
Amici by Pomodoro,Amici by Pomodoro,restaurant,13.7472697,100.5342992,TH
Cartier,Cartier,clothes,13.7466858,100.5342323,TH
Crystal Jade Golden Palace,Crystal Jade Golden Palace,restaurant,13.7476789,100.5348868,TH
Vanilla Brasserie,Vanilla Brasserie,cafe,13.7470132,100.5342524,TH
Marc Jacobs,Marc Jacobs,clothes,13.7458282,100.535484,TH
Aoi,Aoi,restaurant,13.7475825,100.5344228,TH
Scavia,Scavia,boutique,13.7468682,100.5342651,TH
Whittard of Chelsea,Whittard of Chelsea,cafe,13.7473687,100.5344925,TH
Taling pling,Taking Pling,restaurant,13.7471204,100.534272,TH
Rimping Supermarket,Rimping Supermarket,supermarket,18.823879,99.0103929,TH
New Boomerang,New Boomerang,restaurant,18.7915608,98.9966779,TH
Franco Thai,Franco Thai,restaurant,18.7974076,98.9823128,TH
ศูนย์ทำร่มบ่อสร้าง​,Umbrella Making Centre,gift,18.7646143,99.0820031,TH
ร้านอาหารปาล์มทรี,Palm Tree Restaurant,restaurant,18.7786807,98.988761,TH
เศรษฐศิลป์,Setasinlp Restaurant,restaurant,18.7775385,99.0557951,TH
Lotus's,Lotus's,convenience,18.8350709,98.9753746,TH
Ginger & Kafe,Ginger & Kafe,restaurant,18.7927325,98.9931261,TH
Tan Packaging Co. Ltd.,Tan Packaging Co. Ltd.,packaging,18.810874,99.0112903,TH
Starbucks,Starbucks,cafe,18.8244136,99.0117513,TH
Green Days,Green Days,restaurant,18.7836346,98.9966922,TH
Loi Kroh,Loi Kroh,massage,18.7840337,98.9968688,TH
La Terrasse,La Terrasse,restaurant,18.7846907,98.9936787,TH
Sideroad Tattoo,Sideroad Tattoo,tattoo,18.7845173,98.9949549,TH
Be 1st Salon,Be 1st Salon,hairdresser,18.7841505,98.9947445,TH
Jumjim 2,Jumjim 2,massage,18.7839943,98.9947772,TH
Bloodline Tattoo,Bloodline Tattoo,tattoo,18.7848778,98.9947944,TH
Raming Restaurant,Raming Restaurant,restaurant,18.7849007,98.9944827,TH
Chez Marco,Chez Marco,restaurant,18.784969,98.9943377,TH
Brownie Steak & Bakery,Brownie Steak & Bakery,restaurant,18.8072089,99.0047226,TH
Home Massage,Home Massage,massage,18.7843493,98.996514,TH
Pordee,Pordee,cafe,18.7843601,98.9964682,TH
Home Massage II,Home Massage II,massage,18.7843492,98.9965543,TH
Tesco Lotus Express,Tesco Lotus Express,convenience,18.8945231,99.0092476,TH
Piston Shop M/C,Piston Shop M/C,motorcycle,18.8017557,98.9952,TH
LA Bicycle,LA Bicycle,bicycle,18.7775594,98.9770607,TH
Swensen's,Swensen's,cafe,18.743048,98.9622163,TH
Foodpark,Foodpark,restaurant,18.7432055,98.9629029,TH
Sakae Sushi,Sakae Sushi,restaurant,18.743048,98.962522,TH
ฮะจิบัง ราเมน,Hachiban Ramen,restaurant,18.7434493,98.9618998,TH
Mister Donut,Mister Donut,bakery,18.7432259,98.9623825,TH
Gateaux House,Gateaux House,bakery,18.7432615,98.9617763,TH
Baan Thapae,Baan Thapae,art,18.7878686,99.0008772,TH
Thapae Gallery,Thapae Gallery,restaurant,18.7879176,99.000704,TH
Hungry Crust,Hungry Crust,cafe,18.7837388,99.0162992,TH
Mad Dog,Mad Dog,restaurant,18.7843991,98.992814,TH
ก๋วยเตี๋ยวเป็ดบ้านทุ่ง,Kuaitiao Pet Ban Thung,restaurant,18.7319876,99.0945474,TH
กุ้งเผาสุพรรณบุรี,Kung Phao Suphanburi,restaurant,18.7557482,99.0741881,TH
Pop Coffee and Restaurant,Pop Coffee and Restaurant,restaurant,18.7858763,98.9935014,TH
Cafe de Thaan Aoan,Cafe de Thaan Aoan,cafe,18.785469,98.988476,TH
แม่ข่าพาร์ทเช็นเฅวร,แม่ข่าพาร์ทเช็นเฅวร,bicycle,18.7897553,98.9978545,TH
Friendly Coffee,Friendly Coffee,cafe,18.80727,98.9708977,TH
ลุงช้าง,ลุงช้าง,restaurant,18.7262958,99.017784,TH
สุริวงศ์บุ๊คเซนเตอร์,Suriwong Book Center,books,18.7809455,98.9976179,TH
เรือนแพ2,เรือนแพ2,restaurant,18.7815739,99.0533394,TH
Ratana's Kitchen,Ratana's Kitchen,restaurant,18.7881758,98.9956503,TH
Darlin's Massage,Darlin's Massage,massage,18.7870139,98.9936624,TH
Rioja II,Rioja II,restaurant,18.7869406,98.9936391,TH
ร้านอาหาร อรุณไร,Aroon Rai,restaurant,18.7862518,98.9935495,TH
Il Buco,Il Buco,massage,18.7856317,98.9934737,TH
Le Bistrot,Le Bistrot de Chiang Mai,restaurant,18.7852638,98.9984622,TH
Orchid Massage,Orchid Massage,massage,18.7860665,98.9986238,TH
Sushi Ichiban,Sushi Ichiban,restaurant,18.7809651,98.994166,TH
Al-Hussain,Al-Hussain,restaurant,18.7824257,99.0005142,TH
Tironui,Tironui,restaurant,18.7824257,99.0006027,TH
Asma,Asma,restaurant,18.7824309,99.0006908,TH
Anusarn Thai Massage,Anusarn Thai Massage,massage,18.7824206,99.0004284,TH
Ember,Ember,cafe,18.7983603,98.9666709,TH
Nimman Promenade,Nimman Promenade,hobby,18.7984596,98.9667068,TH
Mont Blanc,Mont Blanc,cafe,18.7981989,98.9668754,TH
Dolcetto' Cafe,Dolcetto' Cafe,cafe,18.797998,98.96681,TH
Suriyan Jantra,Suriyan Jantra,art,18.7997514,98.9685823,TH
Let's Relax Spa,Let's Relax Spa,massage,18.783737,99.000588,TH
Kiree Thara Boutique Resort,Kiree Thara Boutique Resort,restaurant,18.8270474,98.9543473,TH
Coffee Time,Coffee Time,cafe,18.766212,99.0830053,TH
Ping-Ping Seafood,Ping-Ping Seafood,restaurant,18.78241,99.001409,TH
Cafe de L'Amour,Cafe de L'Amour,cafe,18.781053,99.0006815,TH
Coffee Bull,Coffee Bull,cafe,18.785574,98.987602,TH
Tein Sieng,Tein Sieng,restaurant,18.782343,98.988951,TH
New Delhi,New Delhi,restaurant,18.780733,98.988189,TH
รสทิพย์,รสทิพย์,restaurant,18.7610148,99.0785277,TH
Bake & Bite Bakery and Restaurant,Bake & Bite Bakery and Restaurant,restaurant,18.7979914,98.9655807,TH
Sinativa Spa Club,Sinativa Spa Club,massage,18.7973,98.969388,TH
Cofésta,Cofésta,cafe,18.799596,98.967651,TH
Doi Tung,Doi Tung,cafe,18.8000098,98.9672331,TH
Our House Coffee Shop,Our House Coffee Shop,cafe,18.7945459,98.9934104,TH
Britbike,Britbike,motorcycle,18.7944619,98.9933976,TH
ธ.เจริญเภสัช,Mini Market,convenience,18.7852417,99.0028246,TH
ครัวปูยิ้ม,Pooyim,restaurant,18.7628636,99.0375754,TH
Eden Restaurant,Eden Restaurant,restaurant,18.7901044,98.9917131,TH
Coffee Bar,North Mountain Coffee,cafe,18.790996,98.991466,TH
Lucky Coffee,Lucky Coffee,cafe,18.7918715,98.9915237,TH
Green Bamboo Massage,Green Bamboo Massage,massage,18.782925,98.9919378,TH
Thapae Chill Garden,Thapae Chill Garden,restaurant,18.7837737,98.9915253,TH
Chiang Mai Saloon,Chiang Mai Saloon,restaurant,18.7906428,98.9912316,TH
Zoe in Yellow Garden,Zoe in Yellow Garden,restaurant,18.7909208,98.9904576,TH
Like Me,Like Me,fashion,18.7537672,99.0740201,TH
K-Coffee,K-Coffee,cafe,18.8016645,99.0171738,TH
เพลินพริ้ว เฮ้าส์,Phloen Phrio Hao,restaurant,18.762624,99.0244404,TH
3ดี,3ดี,restaurant,18.7570304,99.0951112,TH
ก๋วยเตี๋ยวศรีบัวเงิน,ก๋วยเตี๋ยวศรีบัวเงิน,restaurant,18.7700223,99.0431972,TH
Jiffy,Jiffy,convenience,18.7836499,99.0285113,TH
Lucky Store,Lucky Store,convenience,18.7456918,99.0967488,TH
Da Antonio,Da Antonio,restaurant,18.7748242,98.9994366,TH
Bike Me Up,Bike Me Up,bicycle,18.7589289,99.0068568,TH
ก๋วยเต๋ียวไก่ตุ๋นนัองนิสา,ก๋วยเต๋ียวไก่ตุ๋นนัองนิสา,restaurant,18.7879614,99.0399616,TH
บี่เฮียงโภชนา,Bi-Hieng,restaurant,18.7913042,99.0270552,TH
ข้าวซอยต้นข่อย,ข้าวซอยต้นข่อย,restaurant,18.7915642,99.02558,TH
นิลกําแหง,Nilkumheng,restaurant,18.7810125,99.0382556,TH
ครัวป้าน้อย,Krua Panoi,restaurant,18.7939206,99.0295783,TH
ปตท,ปตท,fuel,18.7941265,99.0283155,TH
J.I.B. Computer,J.I.B. Computer,computer,18.8113504,98.9829747,TH
J.I.B Computer Group,J.I.B Computer Group,computer,18.7961159,98.9839409,TH
ก๋วยเตี๋ยวมาลี,Malee Noodle,restaurant,18.7520479,99.0088059,TH
แว่นท็อปเจริญ,Top Charoen Optical,optician,18.7525247,99.0093774,TH
เชียงใหม่แบรนด์เนม,Chiangmaibrandname,pawnbroker,18.7628113,99.0057628,TH
Twin Cafe,Twin Cafe,cafe,18.7668657,99.0050204,TH
อ้วนโอชา,อ้วนโอชา,restaurant,18.7744215,99.0014976,TH
นวดเพื่อสุขภาพ,Massage for Health,massage,18.766935,99.0017544,TH
ก๋วยเตี๋ยวปู่โย่ง,Pu Yong Noodles,restaurant,18.7728303,99.0065372,TH
กาแฟปางขอน,Pangkhon Coffee,cafe,18.7734848,98.9990002,TH
Yamato,Yamato,restaurant,18.7526904,99.0096399,TH
ส้มตำป้าศรี,ส้มตำป้าศรี,restaurant,18.7310512,99.0215824,TH
บ้านแยมโรล,Baan Yam Roll,cafe,18.7220388,99.0264403,TH
พิซซ่า จาร์ดิโน่,Pizza Giardino,restaurant,18.8442824,99.0734888,TH
Chef Steak,Chef Steak,restaurant,18.8069455,99.0277852,TH
Toyota,Toyota,car,18.7813111,99.0266177,TH
ก๋วยจั๊บ,Le Bon Temps Cafe,restaurant,18.7909181,98.986687,TH
Kiat O Cha,Kiat O Cha,restaurant,18.789718,98.9864543,TH
Fujian,Fujian,restaurant,18.7785312,99.0382347,TH
La Fontana,La Fontana,restaurant,18.7852369,98.9910713,TH
Tengoku de Cuisine,Tengoku de Cuisine,restaurant,18.7782546,99.0396078,TH
บัานสวนกินเส้น,บัานสวนกินเส้น,restaurant,18.7550524,99.018374,TH
ข้าวมันไก่เอื้องคํา,ข้าวมันไก่เอื้องคํา,restaurant,18.7824283,99.0325496,TH
Rose's Roadhouse,Rose's Roadhouse,restaurant,18.7455338,98.9542687,TH
ข้าวหมกไก่ไลล่า,ข้าวหมกไก่ไลล่า,restaurant,18.765731,99.0095954,TH
Yamaha,Yamaha,motorcycle,18.7529043,99.0092445,TH
ใบโพธิ์นวดแผนโบราณ,Bodhi Tree,massage,18.7528559,99.0092845,TH
มิราเคิลกาแฟ,Miracle Coffee,cafe,18.779823,99.0440216,TH
Spicy Bollywood,Spicy Bollywood,restaurant,18.7913149,98.9941929,TH
Euro Diner,Euro Diner,restaurant,18.7906515,98.9911738,TH
Art Bosang Coffee House,Art Bosang Coffee House,cafe,18.7647206,99.0816374,TH
Ninety-Four Coffee,Ninety-Four Coffee,cafe,18.768134,98.968295,TH
Gold Swiss,Gold Swiss,jewelry,18.769087,98.9683276,TH
Caffe Ritazza,Caffe Ritazza,cafe,18.7693728,98.9683286,TH
Happy Gems,Happy Gems,jewelry,18.7694725,98.9683102,TH
The Royal Project,The Royal Project,convenience,18.7698309,98.9683216,TH
Asia Books,Asia Books,books,18.7699901,98.9679279,TH
Khaosoi House,Khaosoi House,restaurant,18.7704622,98.9682003,TH
Puff & Pie,Puff & Pie,restaurant,18.7697291,98.9682748,TH
โรซาร์ เพลส,Rosa Place,cafe,18.7835505,98.9966895,TH
Good Health,Good Health,health,18.7810228,98.9963145,TH
กาแฟรสนิยม,Roastniyom,restaurant,18.7812442,98.9962849,TH
Lanna Thai Massage,Lanna Thai Massage,massage,18.781038,98.995625,TH
Wild Orchid Massage,Wild Orchid Massage,massage,18.7843005,98.9971617,TH
Hawaiian Son,Hawaiian Son,cafe,18.7820876,98.9945047,TH
ร้านอาหาร ปชาวร,Peshawar Restaurant,restaurant,18.7839798,98.9949837,TH
PJ บ้านเครื่องดื่ม,PJ,convenience,18.7840387,98.9949461,TH
Born 2,Born 2,cafe,18.7837594,98.9958003,TH
Skill Tattoo Studio,Skill Tattoo Studio,tattoo,18.7840687,98.9959405,TH
Body Care Massage,Body Care Massage,massage,18.7842533,98.996253,TH
Ying & Yang,Ying & Yang,massage,18.7841821,98.9968054,TH
Shell ทองธนพล สาขาห้วยแก้ว,Shell Thongthanaphon - Huay Kaew,fuel,18.7978459,98.9739438,TH
Moonlight Thai Massage,Moonlight Thai Massage,massage,18.7905153,98.9906539,TH
Juice,Juice,cafe,18.7910608,98.990484,TH
Tattoo Studio,Tattoo Studio,tattoo,18.7912157,98.9905084,TH
Chiang Mai Tea House,Chiang Mai Tea House,cafe,18.7910105,98.990241,TH
Kodak Express,Kodak Express,photo,18.7906492,98.9899858,TH
Nuad Thai House,Nuad Thai House,massage,18.7908141,98.9903171,TH
Kebab House,Kebab House,restaurant,18.7908088,98.9903867,TH
Florist,Florist,florist,18.7904802,98.9908597,TH
Aloe Vera Massage,Aloe Vera Massage,massage,18.7906771,98.9909028,TH
Panna,Panna,massage,18.7904589,98.9909871,TH
Nokbin Thai Massage,Nokbin Thai Massage,massage,18.7906491,98.9910074,TH
Viva Pizza,Viva Pizza,restaurant,18.7904355,98.9911066,TH
On the Road,On The Road Books,books,18.7904104,98.9912679,TH
Unique Internet,Unique Internet,internet,18.7906313,98.9912823,TH
Kradangnga,Kradangnga,massage,18.7903851,98.9917584,TH
City Cafe,City Cafe,cafe,18.7903749,98.9918228,TH
T-Plus Online,T-Plus Online,internet,18.7903822,98.9918893,TH
Siam Massage & Spa,Siam Massage & Spa,massage,18.789973,98.9930462,TH
Stevan's Music Restaurant,Stevan's Music Restaurant,restaurant,18.791046,98.9938087,TH
T&C Home Relax,T&C Home Relax,massage,18.7924573,98.9938647,TH
Watsana,Watsana,massage,18.7923786,98.9947705,TH
Friends Massage,Friends Massage,massage,18.7911521,98.9950284,TH
เสริมสวย,เสริมสวย,hairdresser,18.7915807,98.9954214,TH
Paradise,Paradise,massage,18.7916843,98.9955793,TH
Indy Coffee,Indy Coffee,cafe,18.758709,99.0474611,TH
Giorgio,Giorgio,restaurant,18.7803243,98.9994005,TH
Shabushi,Shabushi,restaurant,18.7812695,98.9996435,TH
Bosang Barber,Bosang Barber,hairdresser,18.7727051,99.0865217,TH
Swiss Bike Camp,Swiss Bike Camp,bicycle,18.7471679,99.0652608,TH
เจ๊ดา ลูกชิ้นปลาไร้สาร,Jae Da Fish Ball,restaurant,18.724654,98.9281096,TH
Chananon,Chananon,jewelry,18.7785047,99.0388789,TH
Machree,Machree,jewelry,18.7785133,99.0387599,TH
Lanna Tea,Lanna Tea,tea,18.7786777,99.0387289,TH
T.J. Collection,T.J. Collection,clothes,18.7785081,99.0386633,TH
Hinlay Curry House,Hinlay Curry House,restaurant,18.7923482,99.0050261,TH
ข้าวซอย ครูนา,Na Kitchen Khaosoi,restaurant,18.7148883,99.0498371,TH
Mountain Green,Mountain Green,restaurant,18.746265,98.9542221,TH
Coach's Pizza,Coach's Pizza,restaurant,18.7370096,98.9354612,TH
Java Coffee,Java Coffee,cafe,18.7878381,98.9944772,TH
Hot Chili,Hot Chili,restaurant,18.7879089,98.9899802,TH
Wawee Coffee,Wawee Coffee,cafe,18.7878605,98.9901618,TH
Somsri Thai Massage,Somsri Thai Massage,massage,18.7890313,98.9900937,TH
ฝุ่นตลบ,Fun Talop,restaurant,18.8308699,99.0539144,TH
ร้านรุ่งเรืองอะไหล่ยนต์,ร้านรุ่งเรืองอะไหล่ยนต์,motorcycle,18.8332731,99.057569,TH
Mazda,Mazda,car,18.7660866,98.9896836,TH
Robinson,Robinson,department_store,18.7689112,98.9760491,TH
ขนมจีนเจ็ดยอด,ขนมจีนเจ็ดยอด,restaurant,18.7637451,98.9790005,TH
Fat Cat,Fat Cat,cafe,18.7628698,98.9949689,TH
B2S,B2S,books,18.7722066,98.9989697,TH
Nice Sweet Place,Nice Sweet Place,bakery,18.7854397,98.992895,TH
Barcelona Auto,Barcelona Auto BMW,motorcycle,18.8054379,99.0168126,TH
Donna Donna,Donna Donna,restaurant,18.8081009,98.9954696,TH
ปางช้างแม่สา,Maesa Elephant Camp,travel_agency,18.7881512,98.9973747,TH
Miguel's,Miguel's,restaurant,18.7933965,98.9939815,TH
ร้านซากุระ,Sakura Restaurant,restaurant,18.7892308,98.99435,TH
Fueng Fah,Fueng Fah,restaurant,18.783874,98.9995563,TH
Lanna Digitallab,Lanna Digitallab,photo,18.7841566,98.9993424,TH
โรงเรียนสอนตัดเสื้อ พัชรินทร์,โรงเรียนสอนตัดเสื้อ พัชรินทร์,clothes,18.7887461,98.996179,TH
เดอะกู้ดวิว เชียงใหม่,The Good View,restaurant,18.7903045,99.0037489,TH
กูดมอนิ่งเชียงใหม่,Good Morning Chiangmai,cafe,18.7834021,98.9852954,TH
Doi Chaang,Doi Chaang,cafe,18.7823754,98.9899659,TH
แชมป์ ดิจิตอลเอ็กเพรส,แชมป์ ดิจิตอลเอ็กเพรส,photo,18.7896415,98.987706,TH
ข้าวซอยศิริชัย,Khow Soi and Hainan Chicken Rice,restaurant,18.7896566,98.9858667,TH
ก๋วยเตี๋ยวเป็ด,ก๋วยเตี๋ยวเป็ด,restaurant,18.7896753,98.9862455,TH
ช้างม่อยกาแฟ,ช้างม่อยกาแฟ,restaurant,18.7906678,98.989577,TH
เฮือนเพ็ญ,Huen Phen,restaurant,18.7858382,98.9851584,TH
ข้าวต้ม กลางคืน,Kao Dom Klang Kuen,restaurant,18.7882841,98.9875792,TH
Smoothie Blues,Smoothie Blues,restaurant,18.7978703,98.9663899,TH
เวียงจูมออน,Vieng Joom On Teahouse,restaurant,18.791781,99.002421,TH
The Olive Tree,The Olive Tree,restaurant,18.7856708,98.9929158,TH
เฝอเวียงจันทร์,Pho,restaurant,18.7782586,98.9986503,TH
มาลี ก๋วยเตี๋ยวต้มยำสุโขทัย สูตรไทยโบราณ,Mali Kuaitiao Tomyam Sukhothai Sut Thai Boran,restaurant,18.7617433,99.041693,TH
บริษัทไทยซิลค์วิลเลจ,Thai Silk Village,gift,18.7735478,99.0600167,TH
บริษัทสยามกิ๊ฟท์,Siam Gifts,gift,18.7729535,99.0601563,TH
Le Best Thai Massage,Le Best Thai Massage,massage,18.7833339,99.0000174,TH
หาดใหญ่โชคดี,หาดใหญ่โชคดี,restaurant,18.7704335,98.9986849,TH
Arom D Shop,Arom D Shop,cafe,18.7700105,98.9987724,TH
Aum's,Aum's,massage,18.792211,98.9904513,TH
ร้านฝงหมิง,Fengming,restaurant,18.7790943,99.050492,TH
Mama,Country Road,restaurant,18.7789112,99.0516903,TH
ท่าเรือบ้านชาวนา,Baan Chao Na Farmer House,restaurant,18.8307767,98.9965521,TH
Lek's Bicycle Parts,Lek's Bicycle Parts,bicycle,18.7837108,99.0126125,TH
สวนการวัฒนา,Suan Kan Watthana,restaurant,18.7209413,98.9665336,TH
Hard Rock Cafe,Hard Rock Cafe,restaurant,18.7840606,99.0006288,TH
The Red Lion,The Red Lion,restaurant,18.7840169,99.0008548,TH
Al Osman,Al Osman,restaurant,18.7840118,99.0009064,TH
Yui's Restaurant,Yui's Restaurant,restaurant,18.77396,99.08679,TH
Diya Shop,Diya Shop,clothes,18.7886631,99.0000135,TH
Isuzu,Isuzu,car,18.7640288,98.9734166,TH
Harem,Harem,massage,18.7617639,98.9924704,TH
โคขุน,โคขุน,restaurant,18.765624,98.9894958,TH
มนต์ นมสด,Mont Nomsod,bakery,18.7979101,98.9667403,TH
Ming Muang,Ming Muang,cafe,18.7977747,98.9666391,TH
Wasabi,Wasabi,restaurant,18.7975767,98.9668721,TH
Dalha Dalee,Dalha Dalee,florist,18.797562,98.9672181,TH
Aroma,Aroma,cafe,18.7977215,98.9674348,TH
9th Street,9th Street,cafe,18.7974297,98.9682308,TH
Tea Tales,Tea Tales,cafe,18.7974296,98.9683462,TH
Marble Arch,Marble Arch,cafe,18.7973862,98.968367,TH
Yufuku,Yufuku,restaurant,18.7973831,98.9692901,TH
Windmill Laundry,Windmill Laundry,laundry,18.797344,98.9697536,TH
O-B-One,O-B-One,hairdresser,18.7973154,98.9699384,TH
O-B-One Coffee & Juice,O-B-One Coffee & Juice,cafe,18.7973154,98.9699966,TH
Yakuzen Soup Curry,Yakuzen Soup Curry,restaurant,18.7970576,98.9707591,TH
Dayli,Dayli,restaurant,18.796852,98.9705434,TH
Korean Restaurant,Korean Restaurant,restaurant,18.796711,98.969746,TH
Dejavu Cafe,Dejavu Cafe,cafe,18.7967367,98.9696581,TH
Flowers First,Flowers First,florist,18.7969295,98.9692764,TH
Ploymon Massage,Ploymon Massage,massage,18.7969274,98.9692298,TH
Montha Massage,Montha Massage,massage,18.7969245,98.9691425,TH
Hatena,Hatena,restaurant,18.7968485,98.9680912,TH
Why Not?,Why Not?,restaurant,18.7968105,98.9678952,TH
Kiat Num,Kiat Num,restaurant,18.7969062,98.9677371,TH
ค่ณนายต่ืนสาย,Khun Nai Teun Sai,restaurant,18.7971228,98.9674268,TH
Charin,Charin,bakery,18.7970028,98.9668829,TH
8-inch Pizza,8-inch Pizza,restaurant,18.7967776,98.9670392,TH
Misa Thai Massage,Misa Thai Massage,massage,18.7967265,98.9670375,TH
La Genoise,La Genoise,cafe,18.7966837,98.9670338,TH
The Salad Concept,The Salad Concept,restaurant,18.7967708,98.9663093,TH
Game's Bike,Game's Bike,bicycle,18.7398305,98.9348559,TH
แกงร้อนบ้านสวน,Kaeng Ron,restaurant,18.8210131,98.9617943,TH
ห้างทองทวีทอง 1,ห้างทองทวีทอง 1,jewelry,18.7906839,98.9610743,TH
น้องมายด์,Nong Mai,restaurant,18.7687387,99.0731032,TH
ลำฮิมคือ,Lum Him Kue,restaurant,18.7864153,98.9782502,TH
พิชมาเนีย,Fish Mania,seafood,18.7812545,99.0384474,TH
Le Barfly,Le Barfly,restaurant,18.7834632,98.9924297,TH
Sea Bees,Sea Bees,scuba_diving,7.8221786,98.3414698,TH
Super Cheap,Super Cheap,supermarket,7.8156947,98.3388061,TH
Chalong Pier Restaurant,Chalong Pier Restaurant,restaurant,7.821508,98.3447484,TH
Bäckerei Bei Manni,Bäckerei Bei Manni,bakery,7.8219235,98.3415771,TH
Pizzeria,Pizzeria,restaurant,7.8219873,98.3414805,TH
Deutsche Bäckerei,Deutsche Bäckerei,bakery,7.8298378,98.3441092,TH
anchor inn,Anchor Inn Restaurant,restaurant,7.8220617,98.3413625,TH
ganen,ganen,restaurant,7.8201819,98.3443509,TH
ร้านหนังสือเส้นโห,Seng Ho,books,7.886163,98.3930241,TH
Gobenz Phuket,Go Benz Rice Porridge Phuket,restaurant,7.8847086,98.3824761,TH
Fresh Mart,Fresh Mart,convenience,7.88517,98.386504,TH
ASquare,ASquare,restaurant,7.8834917,98.388532,TH
Baantong BBQ,Baantong BBQ,restaurant,7.9016689,98.3100774,TH
Sao Sao Beauty,Sao Sao Beauty,hairdresser,7.887271,98.3024156,TH
Jips Guesthouse,Jips Guesthouse,restaurant,7.8875792,98.3027322,TH
Hemingway's,Hemingway's,restaurant,7.8908987,98.3019316,TH
Makro cash & carry,Makro cash & carry,supermarket,7.8944037,98.3639054,TH
Beauty salon,Beauty salon,hairdresser,7.88648,98.3023577,TH
Kanchana Food Court,Kanchana Food Court,restaurant,7.8864215,98.3023631,TH
Kan Eang,Kan Eang Seafood,restaurant,7.8199006,98.3444166,TH
Dibuk Restaurant,Dibuk Restaurant,restaurant,7.8863035,98.3866252,TH
La Gaetana,La Gaetana,restaurant,7.8767454,98.3935153,TH
Capannina,Capannina,restaurant,7.816763,98.3013056,TH
Sunset Terracec & Lounge,Sunset Terracec & Lounge,restaurant,7.8289305,98.3025201,TH
เย็นเตาโฟ จี้ลี่,เย็นเตาโฟ จี้ลี่,restaurant,7.886553,98.385896,TH
ข้าวแกง จี้จู้,ข้าวแกง จี้จู้,restaurant,7.897921,98.362288,TH
Surin Laundry,Surin Laundry,laundry,7.9021188,98.3072383,TH
Sunset Terrace & Lounge,Sunset Terrace & Lounge,restaurant,7.8288748,98.3026335,TH
Orchid Restaurant,Orchid Restaurant,restaurant,7.815132,98.300375,TH
Phuket Yacht Club,Phuket Yacht Club,restaurant,7.8272495,98.3481525,TH
Capt Hook's,Capt Hook's,restaurant,7.8237617,98.3424021,TH
Phuthai Phuket Souvenir Market,Phuthai Phuket Souvenir Market,gift,7.8512681,98.3489173,TH
Honda Service,Honda Service,motorcycle,7.8967818,98.3896058,TH
Phuket Fight Store,Phuket Fight Store,sports,7.8547626,98.3428634,TH
Tesco Lotus,Tesco Lotus,supermarket,7.9814522,98.3638841,TH
Mee Ton Poh,Mee Ton Poh,restaurant,7.8800056,98.3920891,TH
Rain Tree Spa,Rain Tree Spa,beauty,7.887086,98.3937519,TH
Kawasaki Big Bikes Phuket,Kawasaki Big Bikes Phuket,motorcycle,7.8870355,98.393194,TH
Samsung,Samsung,electronics,7.8826929,98.3980835,TH
Royal Wedding and Organizer,Royal Wedding and Organizer,clothes,7.8859289,98.39818,TH
Phuket Moto Preservation Club,Phuket Moto Preservation Club,car_repair,7.9185775,98.3911509,TH
Vespa Phuket Drago Andaman,Vespa Phuket Drago Andaman,motorcycle,7.8808486,98.3679586,TH
Family Mart,Family Mart,supermarket,7.8079383,98.336995,TH
Ban Kanon,Ban Kanon,bakery,7.8384118,98.3490553,TH
Canteen,Canteen,restaurant,7.8924243,98.3521225,TH
แม็คโคร,Makro,wholesale,7.8153838,98.3396349,TH
Home Pro Village,Home Pro Village,supermarket,7.8247301,98.3392153,TH
Cafeopera Live - Kata Beach,Cafeopera Live - Kata Beach,restaurant,7.8171638,98.3012987,TH
Eightfold Restaurant,Eightfold Restaurant,restaurant,7.8210218,98.3002069,TH
Khao Tom Sam Pee Nong,Khao Tom Sam Pee Nong,restaurant,7.8308186,98.3007173,TH
Tung Tong Big Chicken,Tung Tong Big Chicken,restaurant,7.8999778,98.349562,TH
Buffalo Stakehouse,Buffalo Stakehouse,restaurant,7.8175929,98.3006543,TH
999 Minimart,999 Minimart,supermarket,7.818536,98.3004123,TH
Jinta Breakfast,Jinta Breakfast,restaurant,7.8233431,98.3004394,TH
Pit Stop,Pit Stop,restaurant,7.823155,98.3003294,TH
Aqua,Aqua,restaurant,7.8167889,98.3008469,TH
Chao Doi,Chao Doi,convenience,7.9098759,98.3329857,TH
Isuzu service center,Isuzu service center,car_repair,7.9669169,98.3731232,TH
Honda,Honda,motorcycle,7.9789678,98.3656999,TH
House & Home,House & Home,mall,7.8770059,98.3634087,TH
King Power duty free mall,furniture mall,mall,7.8738025,98.3636124,TH
PTT,PTT Blue Innovation,fuel,7.958365,98.3853706,TH
Siara,Siara,sports,7.9104497,98.3673492,TH
Tori Japanese buffet,Tori Japanese buffet,restaurant,7.8937457,98.3661059,TH
Otteri wash & dry,Otteri wash & dry,laundry,7.9100734,98.3334599,TH
More,More,convenience,7.8986985,98.3563877,TH
Honda Big Wing Phuket,Honda Big Wing Phuket,motorcycle,7.8973067,98.3891534,TH
KTM Phuket,KTM Phuket,motorcycle,7.8883927,98.3935576,TH
Pint Factory,Pint Factory,restaurant,7.8862634,98.3921209,TH
Tom N Toms,Tom N Toms,cafe,7.8862755,98.3919605,TH
Xorin,Xorin,restaurant,7.8855705,98.3907317,TH
Phuketique,Phuketique,cafe,7.8834525,98.3872134,TH
Tigger bar,Tigger bar,restaurant,7.8108901,98.3018086,TH
Beach boy bike shop,Beach boy bike shop,bicycle,7.8194304,98.3073199,TH
Chang Pub,Chang Pub,restaurant,7.892547,98.300334,TH
"food and fruit ","food and fruit ",greengrocer,7.8582057,98.3776895,TH
fruit and eat,fruit and eat,greengrocer,7.9153976,98.3716951,TH
Tony restaurant,Tony restaurant,restaurant,7.8525383,98.3478813,TH
ร้านอาหารมังสวิรัติ,ร้านอาหารมังสวิรัติ,restaurant,7.8837147,98.3834532,TH
Thai gallery and coffee bar,Thai gallery and coffee bar,restaurant,7.8313163,98.3101838,TH
Thai Ceramics,Thai Ceramics,houseware,7.9905416,98.3067907,TH
"thaï noodle Hallal ","thaï noodle Hallal ",restaurant,7.8816415,98.3641872,TH
Shabu Kong&Grill Kong,Shabu Kong&Grill Kong,restaurant,7.8815326,98.3646566,TH
Hong Khao Tom Pla,Hong Khao Tom Pla,restaurant,7.87667,98.3932184,TH
ร้านอาหาร ระย้า,Raya,restaurant,7.8859294,98.3909045,TH
A Pong Mae Sunee,A Pong Mae Sunee,restaurant,7.8858134,98.387383,TH
Jeepang Mee Hoon Kraduk Moo AND Oh Ew Paelee,Jeepang Mee Hoon Kraduk Moo AND Oh Ew Paelee,restaurant,7.885835,98.387136,TH
"Noy Pochana ","Noy Pochana ",restaurant,7.8847516,98.3930057,TH
Krua Charifa,Krua Charifa,restaurant,7.8780345,98.3955879,TH
Yoy Pochana,Yoy Pochana,restaurant,7.884868,98.3870211,TH
Koi Restaurant,Koi Restaurant,restaurant,7.8218404,98.3048135,TH
Sugar and Spice,Sugar and Spice,restaurant,7.8231754,98.3006852,TH
The Family Restaurant,The Family Restaurant,restaurant,7.8163835,98.3069662,TH
Som Tam Kit,Som Tam Kit,restaurant,7.8107308,98.3018288,TH
Pha Mah Ree,Pha Mah Ree,restaurant,7.8195818,98.3088985,TH
Khem Tui,Khem Tui,restaurant,7.8197673,98.3076159,TH
The Pad Thai Shop,The Pad Thai Shop,restaurant,7.8315528,98.300068,TH
Street Food Restaurant,Street Food Restaurant,restaurant,7.884873,98.38909,TH
Mor Mu Dong Restaurant,Mor Mu Dong Restaurant,restaurant,7.8431373,98.3719927,TH
"Pa Lai Seafood Restaurant ","Pa Lai Seafood Restaurant ",restaurant,7.8385403,98.3645767,TH
Cafe Havana,Cafe Havana,cafe,7.8086921,98.3022888,TH
مطعم حلال,مطعم حلال,restaurant,7.8008187,98.335103,TH
Poo Nurntong Restaurant,Poo Nurntong Restaurant,restaurant,7.9046167,98.3180969,TH
Pho house by mama phung,Pho house by mama phung,restaurant,7.9028671,98.3078579,TH
มาลาติ่มซำ,Mala Dimsam,restaurant,7.8229671,98.3029704,TH
แหลมหินซีฟู้ด,Laem Hin Seafood,restaurant,7.9357245,98.4073717,TH
โกซ้งคนโบราณ,โกซ้งคนโบราณ,restaurant,7.8825922,98.3855875,TH
Kopitiam by Wilai,Kopitiam by Wilai,restaurant,7.8847765,98.3880844,TH
กันเอง2,Kan Eang Seafood 2,restaurant,7.8250723,98.3463309,TH
The Circle Coffee Boutique,The Circle Coffee Boutique,cafe,7.880205,98.3923632,TH
Cafe Y ate,Cafe Y ate,cafe,7.8835491,98.3905688,TH
Chalong Buffet,Chalong Buffet,restaurant,7.8233196,98.335691,TH
NewStar Beauty Salon,NewStar Beauty Salon,beauty,7.8968197,98.3096454,TH
Don's Bar BQ,Don's Bar BQ,restaurant,7.884008,98.3014534,TH
SuperCheap,SuperCheap,convenience,7.8966726,98.3093737,TH
The Barrel Wine Beer & Bistro bar,The Barrel Wine Beer & Bistro bar,restaurant,7.8799739,98.3968462,TH
O-Oh Farm Karon,O-Oh Farm Karon,restaurant,7.8434977,98.3024454,TH
Phuket Photo Pro,Phuket Photo Pro,photo,7.8117984,98.3392768,TH
Naka Market,Naka Market,greengrocer,7.8805332,98.366326,TH
B.J. Beach Pub & Restaurant,B.J. Beach Pub & Restaurant,restaurant,7.8302749,98.3096583,TH
Monkey Thaifood,Monkey Thaifood,cafe,7.8256844,98.3015679,TH
Knight Black Horse Winery,Knight Black Horse Winery,wine,7.8567642,98.3388112,TH
The Panwa Café,The Panwa Café,restaurant,7.8095839,98.4022386,TH
ร้านปาท่องโก๋ โกชัย,Good Thai food. Fried dough balls with sweet dip.,cafe,7.8769482,98.3934628,TH
Sriwikorn Baber,Sriwikorn Baber,hairdresser,7.8799812,98.3927607,TH
Sriwikorn Barber,Sriwikorn Barber,hairdresser,7.8792527,98.3926742,TH
Mama Tuk,Mama Tuk,cafe,7.8242688,98.301629,TH
латексная фабрика,латексная фабрика,furniture,7.8467267,98.3336251,TH
Siam Herbs Extra Virgin,Siam Herbs Extra Virgin,gift,7.8982297,98.3105338,TH
Mountain Breeze,Mountain Breeze,restaurant,7.8316584,98.3173236,TH
Chalong Bay Distillery Ромовая фабрика,Chalong Bay Distillery,alcohol,7.8418438,98.3521237,TH
little home ห้องพัก/ซักรีด,little home ห้องพัก/ซักรีด,dry_cleaning,7.8913129,98.3006077,TH
Krata Thong,Krata Thong,cafe,7.8821471,98.3910948,TH
Local market,Local market,supermarket,7.824472,98.3019911,TH
Siam Supper Club,Siam Supper Club,restaurant,7.9951302,98.3057146,TH
Ban Boran Textiles,Ban Boran Textiles,clothes,7.883693,98.3875218,TH
Sala Mexicali,Sala Mexicali,restaurant,7.8382926,98.3490389,TH
บิ๊กซีตลาด,BIG C super market,fuel,7.9088087,98.3449344,TH
Thongyiam,Thongyiam,massage,7.8963375,98.3032673,TH
3ch,3ch,restaurant,7.8963205,98.3027853,TH
Jang,Jang. All by 20 baht,hardware,7.8952032,98.3052357,TH
Phuket fish market,Phuket fish market,restaurant,7.8399957,98.3667727,TH
24hrs.,24hrs. Super Cheap,supermarket,7.8906088,98.3041116,TH
ไทยวด,ไทยวด,massage,7.8785014,98.3727497,TH
JK,JK,beauty,7.8840872,98.4104518,TH
ร้านขายผ้า นานา,Na Na,clothes,7.9106638,98.3342869,TH
D'Oro,D'Oro,cafe,7.8903803,98.3906743,TH
ผลไม้ตลาดราคาถูก,ผลไม้ตลาดราคาถูก,greengrocer,7.8840326,98.3861233,TH
South Wind Books,South Wind Books,books,7.8837352,98.3875234,TH
Phuket Camera,Phuket Camera,photo,7.8860811,98.3881837,TH
KBA Kitesurfing School,KBA Kitesurfing School,sports,7.8045274,98.3365436,TH
7-Eleven,7 Eleven,convenience,7.9103153,98.3918198,TH
Cookie house,NA SIAM cafe and guesthouse,bakery,7.885842,98.3873273,TH
The Cook,The Cook,restaurant,7.8836337,98.390044,TH
Eleven Two & Co.,Eleven Two & Co.,restaurant,7.8846528,98.3900592,TH
Beauty Land,Beauty Land,beauty,7.8884275,98.3844855,TH
Khon Kaen Buffet & BBQ,Khon Kaen Buffet & BBQ,restaurant,7.8983913,98.3038156,TH
ก้องกาแฟ,kong kafe,cafe,7.8375691,98.3360152,TH
One Family Massage and SPA,One Family Massage and SPA,massage,7.8050875,98.4062683,TH
Gems gallery,Gems gallery,jewelry,7.9194932,98.3690434,TH
โรงพิมพ์ภูเก็ต บริษัท พีพี บุคส์ แอนด์ คอม จำกัด ให้บริการสื่อสิ่งพิมพ์,PP book and com,copyshop,7.8942743,98.388549,TH
Black & White Restaurant,Black & White Restaurant,restaurant,7.8976882,98.3019165,TH
Masala,Masala,restaurant,7.8979448,98.3016292,TH
สวีทเดวิลคาเฟ่,Sweet Devil cafe,cafe,7.8784857,98.3807115,TH
Natural restaurant,Natural restaurant,restaurant,7.8812452,98.3843031,TH
The Villa,The Villa,restaurant,7.8861805,98.3024533,TH
จ่วนเฮี้ยงติ่มซำ,จ่วนเฮี้ยงติ่มซำ,restaurant,7.879498,98.393562,TH
NOI.thaifood,NOI.thaifood,cafe,7.8249455,98.4005901,TH
ขนมจีนสะพานหิน,ขนมจีนสะพานหิน,restaurant,7.8680176,98.3961787,TH
PIKGO Coffee & Zakka,PIKGO Coffee & Zakka,bakery,7.8680532,98.3961197,TH
Kataturk Turkish Restaurant,Kataturk Turkish Restaurant,restaurant,7.8166567,98.3071884,TH
A.D.D. Restaurant,A.D.D. Restaurant,restaurant,7.8171696,98.3011529,TH
Natalie's Internet Cafe,Natalie's Internet Cafe,cafe,7.8173767,98.3010648,TH
Danny 44 Thai Kitchen,Danny 44 Thai Kitchen,cafe,7.8173842,98.301341,TH
Русская Кухня На Пхукете,Русская Кухня На Пхукете,cafe,7.81743,98.301738,TH
The Tavern,The Tavern,cafe,7.817213,98.3016662,TH
Red Snapper Restaurant,Red Snapper Restaurant,restaurant,7.8235561,98.3014819,TH
After Beach Bar,After Beach Bar,restaurant,7.8089543,98.302168,TH
Family SEAFOOD,Family SEAFOOD,restaurant,7.8159994,98.3028054,TH
The Kitchen Kata Beach,The Kitchen Kata Beach,restaurant,7.8157318,98.3035602,TH
The Tube Bar & Restaurant,The Tube Bar & Restaurant,restaurant,7.8155795,98.3033307,TH
Phuket Best Tours | Kata Beach | Island Hopping & Transfer Services,Phuket Best Tours | Kata Beach | Island Hopping & Transfer Services,travel_agency,7.815951,98.3032414,TH
Pomodoro Pizza Restaurant,Pomodoro Pizza Restaurant,restaurant,7.8166766,98.3101964,TH
AllStar Aussie Sports Bar & Restaurant,AllStar Aussie Sports Bar & Restaurant,restaurant,7.827881,98.3001564,TH
Tiger restaurant,Tiger restaurant,restaurant,7.8910945,98.3011591,TH
Royal Palace Tours Экскурсии на Пхукете,Royal Palace Tours Экскурсии на Пхукете,travel_agency,7.9003166,98.3001534,TH
Bookhemian Store and Cafe,Bookhemian Store and Cafe,books,7.8848291,98.3889609,TH
Ocean Plaza,Ocean Plaza,department_store,7.8776307,98.3930627,TH
könyvesbolt,könyvesbolt,gift,7.8825872,98.3908846,TH
James bond,James bond,travel_agency,7.8828764,98.3906444,TH
PTT GAS STATION,PTT GAS STATION,fuel,7.9219108,98.3701918,TH
Nissan,Nissan,car,7.8759708,98.3637379,TH
Big C Mini,Big C Mini,convenience,7.8016662,98.3354613,TH
Andaman Fish Center,Andaman Fish Center,pet,7.8547175,98.3571671,TH
Fishing shop,Fishing shop,sports,7.856323,98.35822,TH
Noodle House Phuket,Noodle House Phuket,cafe,7.8785193,98.3807436,TH
Ali's BBQ,Ali's BBQ,cafe,7.8512641,98.3490434,TH
ribs,ribs,cafe,7.8430034,98.3510625,TH
Seafood Station,Seafood Station,cafe,7.884176,98.3909842,TH
แคแร็มโบลา คาเฟ่,Carambola cafe,cafe,7.8865653,98.375058,TH
Agli Amici Pizzeria,Agli Amici Pizzeria,restaurant,7.8241281,98.343624,TH
Small view point,Small view point,cafe,7.8023299,98.305833,TH
เฟมมิลิมารท์ 24 hr,Family mart 24hr,supermarket,7.9009829,98.3405405,TH
Cool Massage,Cool Massage,massage,7.8361281,98.3485521,TH
Parking,Parking,car_parts,7.8808389,98.3687921,TH
Toy-Tor-Toe,Toy-Tor-Toe,restaurant,7.8847382,98.3908754,TH
Red Duck Restaurant soi khoktanod 88/3,Red Duck Restaurant soi khoktanod 88/3,restaurant,7.8155633,98.305243,TH
Markinny Mate Restaurant,Markinny Mate Restaurant,restaurant,7.8841901,98.3907696,TH
China Inn,China Inn,restaurant,7.884899,98.3879125,TH
ร้านน้องเจ,Nong J,restaurant,7.8866792,98.3823952,TH
Simba Sea Trips Co; Ltd,Simba Sea Trips Co; Ltd,travel_agency,7.9676365,98.3912474,TH
John Gray's Sea Canoe,John Gray's Sea Canoe,travel_agency,7.9051715,98.3733278,TH
Aussie Divers Phuket,Aussie Divers,travel_agency,7.8210501,98.3424975,TH
The old Phuket Coffee,The old Phuket Coffee,cafe,7.8848134,98.3875451,TH
Sunset restaurant,Sunset restaurant,restaurant,7.9912574,98.3065559,TH
Mac Service Thailand (Phuket),Mac Service Thailand (Phuket),mobile_phone,7.8832567,98.3975182,TH
Bon Pan Asian Tapas,Bon Pan Asian Tapas,restaurant,7.8837576,98.3894928,TH
Kyoodai,Kyoodai,restaurant,7.9175022,98.3700959,TH
The Dome BBQ,The Dome BBQ,cafe,7.8942219,98.3020043,TH
ร้านกองเงิน,ร้านกองเงิน,restaurant,7.9166853,98.3721863,TH
Spice House,Spice House,restaurant,7.8910574,98.3004694,TH
Feel Sion Cafe,Feel Sion Cafe,cafe,7.8722074,98.3942071,TH
Phuket My Mac,Phuket My Mac,computer,7.9204826,98.333865,TH
Brown Rice,Brown Rice,restaurant,7.8015243,98.332433,TH
Hillmyna,Hillmyna,cafe,7.9846125,98.3005176,TH
Cafe,Cafe,cafe,7.8971909,98.3000605,TH
Sab Nua Restaurant,Sab Nua Restaurant,restaurant,7.8830073,98.397643,TH
Mae Thongbai Gold Shop,Mae Thongbai Gold Shop,jewelry,7.8970629,98.30085,TH
ร้านทองใบหยก 99,BAIYOKE 99 diamond gold silver,jewelry,7.8969367,98.3002782,TH
Gold shop,Gold shop,jewelry,7.8910283,98.3018154,TH
ทวีสุวัณณ์ Taweesuwan,"Taweesuwan Co.,LTD.",jewelry,7.8828208,98.3925856,TH
ห้างทองทวีชัย โดยนางเบ็ญจพร วัชรัตน์ศิริยุทธ,Taveechai Gold Shop Centre,jewelry,7.8837539,98.3841255,TH
ห้างทองรัษฎา 2,Ratsada Gold Shop 2,jewelry,7.8833649,98.3868726,TH
ห้างทองศรีเจริญ,Si Charoen Gold Shop,jewelry,7.8830002,98.3925908,TH
ห้างทองเพชรรัษฎา,Petch Ratsada Gold Shop,jewelry,7.882226,98.3928319,TH
ห้างทองเต็กเฮงหลี,Tek Heng Lee Gold Shop,jewelry,7.8824389,98.3925234,TH
ห้างทองศรีทอง 10,Srithong Gold Shop,jewelry,7.882909,98.3959739,TH
ห้างเพชรทองเบญพร,Benchaporn Gold Shop,jewelry,7.8820044,98.3929431,TH
ห้างทองพรวรา,Pornvara Gold Phuket,jewelry,7.8579545,98.3640483,TH
View cafe,View cafe,cafe,7.8702017,98.3299056,TH
Magyar Utazási Iroda,Magyar Utazási Iroda,travel_agency,7.8443737,98.3003183,TH
Familly Mart,Familly Mart,convenience,7.901154,98.3003784,TH
Bratwurst Peter,Bratwurst Peter,restaurant,7.8871464,98.3026514,TH
Curry Night,Curry Night,restaurant,7.8097413,98.4021669,TH
Top Beef Barbecue Buffet Restaurant,Top Beef Barbecue Buffet Restaurant,cafe,7.9082757,98.3304687,TH
Let’s Relax Spa,Let’s Relax Spa,massage,7.8924802,98.3016815,TH
ร้านเมธี ภูเก็ต,Methee Cashew Nut,gift,7.8816198,98.3954714,TH
Number6 Red Chair,Number6 Red Chair,cafe,7.8959113,98.3036392,TH